{"type": "FeatureCollection", "features": [{"type": "Feature", "id": "kr_jahipiirkond.74", "geometry": {"type": "Polygon", "coordinates": [[[24.79742694, 58.63232226], [24.79752313, 58.63366652], [24.79765355, 58.63551135], [24.79772897, 58.63656894], [24.79774131, 58.6367353], [24.79858229, 58.63736907], [24.79977704, 58.63826664], [24.80139242, 58.63948256], [24.80437784, 58.64164245], [24.80580847, 58.64274356], [24.80757107, 58.64402089], [24.80950168, 58.64934806], [24.81057074, 58.65229556], [24.81058891, 58.65234151], [24.81086018, 58.65309619], [24.81163385, 58.65522525], [24.81174972, 58.65554847], [24.81217928, 58.65673161], [24.81229505, 58.65705037], [24.81304467, 58.65911865], [24.81376987, 58.66111426], [24.81378517, 58.66115874], [24.81420273, 58.66231074], [24.81425812, 58.66236241], [24.81499581, 58.6630532], [24.81533976, 58.66349237], [24.81550734, 58.66370678], [24.81566234, 58.66387075], [24.81580266, 58.66401698], [24.81634208, 58.66452029], [24.81707099, 58.66519775], [24.81743561, 58.66554317], [24.8177536, 58.66584579], [24.8184386, 58.66647299], [24.81856388, 58.66658514], [24.8189166, 58.66690833], [24.8191991, 58.66715619], [24.81984885, 58.66773755], [24.81996249, 58.66783936], [24.82064454, 58.66845915], [24.8213964, 58.66913495], [24.82212189, 58.66977971], [24.82267297, 58.6702859], [24.82287161, 58.67048376], [24.82343096, 58.67097652], [24.82370483, 58.67121847], [24.82410697, 58.67157701], [24.824847, 58.67222909], [24.82494323, 58.67231764], [24.82497344, 58.67238877], [24.82520937, 58.67259382], [24.82536065, 58.67271768], [24.82558465, 58.67290051], [24.82617848, 58.67340046], [24.82679842, 58.67391808], [24.82757584, 58.67457882], [24.82775907, 58.67472625], [24.82812334, 58.67504786], [24.82923064, 58.67602151], [24.83112318, 58.67773608], [24.83320261, 58.67962179], [24.83494266, 58.68114856], [24.83551982, 58.68165601], [24.83561019, 58.68173567], [24.83578216, 58.68188613], [24.83731546, 58.68323142], [24.84028917, 58.68584233], [24.84662317, 58.68905823], [24.85281383, 58.69220048], [24.85629692, 58.69396805], [24.85655997, 58.69410153], [24.85659755, 58.6941206], [24.85937761, 58.69549449], [24.85942961, 58.69551941], [24.86118387, 58.69638594], [24.86186595, 58.69672317], [24.86245842, 58.69701493], [24.86281196, 58.69722655], [24.86371132, 58.69769011], [24.86414187, 58.69789824], [24.86499519, 58.69834575], [24.86517394, 58.69841588], [24.86530621, 58.69845363], [24.86534878, 58.69844294], [24.86747209, 58.69725916], [24.87009434, 58.69582529], [24.87128654, 58.69520796], [24.87343278, 58.69404324], [24.87573094, 58.69279572], [24.87686011, 58.69217728], [24.87888456, 58.6910653], [24.88087069, 58.6900234], [24.88153235, 58.68966222], [24.88318113, 58.6887177], [24.90799629, 58.69639746], [24.90810657, 58.69569824], [24.90842336, 58.6936096], [24.90910512, 58.68909464], [24.90947697, 58.6864944], [24.90982071, 58.68610412], [24.9110599, 58.68470145], [24.91314713, 58.68233722], [24.91422063, 58.68224639], [24.91444557, 58.68222696], [24.91558454, 58.68212971], [24.91218365, 58.67789927], [24.91631962, 58.67762471], [24.91754406, 58.67752832], [24.91725713, 58.67572927], [24.91716146, 58.6751281], [24.91705148, 58.67452554], [24.91671385, 58.67264066], [24.91682799, 58.67264133], [24.91681725, 58.67255819], [24.91709683, 58.67168834], [24.9172591, 58.67102292], [24.9173675, 58.6706967], [24.91775172, 58.67001038], [24.91909016, 58.66894425], [24.91991953, 58.66826514], [24.92024626, 58.66799829], [24.92133296, 58.66712712], [24.92220405, 58.66641055], [24.92222917, 58.66638957], [24.92350976, 58.66541148], [24.92387839, 58.66511311], [24.92408787, 58.66494517], [24.92397244, 58.66446302], [24.9237001, 58.66354808], [24.92349609, 58.66284367], [24.92343174, 58.66245924], [24.92330317, 58.66234276], [24.92326804, 58.66230884], [24.9231131, 58.6621658], [24.92331838, 58.66216284], [24.92359491, 58.66215789], [24.9238344, 58.66215468], [24.92402827, 58.6621518], [24.927008, 58.66180048], [24.93121811, 58.66127969], [24.9312793, 58.66132829], [24.93196486, 58.6616889], [24.93557298, 58.66361392], [24.93572619, 58.66369008], [24.93768883, 58.6646566], [24.93957755, 58.66446153], [24.94097144, 58.66432207], [24.94110575, 58.66433149], [24.94118287, 58.66433538], [24.94228961, 58.66423069], [24.94249726, 58.66420985], [24.94528226, 58.66393532], [24.94605585, 58.66385236], [24.94627441, 58.66444518], [24.94653472, 58.66510456], [24.94679484, 58.66575652], [24.94705497, 58.66640847], [24.94724383, 58.66685142], [24.9472865, 58.66695216], [24.94733531, 58.6670692], [24.94754327, 58.66758482], [24.94760149, 58.66773299], [24.94788446, 58.66838478], [24.94814439, 58.66902782], [24.94893234, 58.67094052], [24.94919499, 58.67157759], [24.94946348, 58.67221908], [24.94973475, 58.67285757], [24.94998338, 58.67350217], [24.95026922, 58.67415096], [24.95055804, 58.67480418], [24.95080143, 58.67546517], [24.95105351, 58.67613055], [24.95165055, 58.67741307], [24.95192443, 58.67803965], [24.95219881, 58.67868406], [24.95295948, 58.68062666], [24.95321975, 58.68127563], [24.95346194, 58.68188907], [24.95367326, 58.68241654], [24.95384721, 58.68282987], [24.95385634, 58.6828506], [24.95397634, 58.68285566], [24.9541016, 58.68284433], [24.95437155, 58.68290623], [24.95475951, 58.68300441], [24.95509721, 58.68303906], [24.95520877, 58.68304863], [24.95531691, 58.68303743], [24.95537952, 58.68303102], [24.95579501, 58.68298781], [24.95594052, 58.68298673], [24.95603134, 58.68296823], [24.95619899, 58.68294172], [24.95637472, 58.68289732], [24.95654742, 58.682847], [24.95659267, 58.6828318], [24.95671455, 58.68280117], [24.95690233, 58.68278046], [24.95706554, 58.68280005], [24.95745366, 58.68290416], [24.95756865, 58.68293452], [24.95765779, 58.68295912], [24.95773822, 58.68297784], [24.95778697, 58.68298639], [24.95796485, 58.68302073], [24.95808196, 58.68302432], [24.95822389, 58.68299652], [24.95846352, 58.68288922], [24.95901049, 58.68264589], [24.95935361, 58.68246204], [24.95953645, 58.68236557], [24.95963713, 58.68229052], [24.95971461, 58.68220226], [24.95977619, 58.68205468], [24.95982343, 58.68190424], [24.95987021, 58.68173745], [24.95987265, 58.68161855], [24.95991251, 58.68151125], [24.95994813, 58.68145749], [24.96005634, 58.68134523], [24.96018542, 58.6812655], [24.96038057, 58.68120163], [24.96053329, 58.68115146], [24.96072951, 58.68112621], [24.96100581, 58.68110781], [24.96121343, 58.68108248], [24.96160936, 58.68105575], [24.96212985, 58.68099242], [24.96223223, 58.68097976], [24.96262702, 58.68091143], [24.96307034, 58.68084421], [24.96336534, 58.68077959], [24.96342778, 58.68076724], [24.96351206, 58.68071905], [24.96353928, 58.68067129], [24.96366618, 58.68051282], [24.96377417, 58.68039313], [24.96387793, 58.68032697], [24.96405632, 58.68027659], [24.96420308, 58.68021753], [24.96436415, 58.68015986], [24.96441532, 58.68004951], [24.96439613, 58.67987132], [24.96440198, 58.6797732], [24.96440605, 58.67971372], [24.96442511, 58.67968089], [24.96444981, 58.67964504], [24.96453486, 58.67962508], [24.9646831, 58.67961951], [24.96484315, 58.67962872], [24.96487747, 58.67963143], [24.9651975, 58.67964687], [24.96542595, 58.67965259], [24.96547441, 58.67965074], [24.96558477, 58.67961722], [24.9656719, 58.67956901], [24.96573029, 58.67951359], [24.96579242, 58.6793868], [24.96584978, 58.67929424], [24.96593274, 58.67919851], [24.9660649, 58.67912767], [24.96629903, 58.67902932], [24.96674589, 58.67888479], [24.9672754, 58.67873667], [24.9675832, 58.67861993], [24.96759676, 58.67859456], [24.96764288, 58.67850802], [24.9676206, 58.67842497], [24.96761797, 58.67832988], [24.96763163, 58.67820495], [24.9677038, 58.67802905], [24.96778679, 58.67793481], [24.96787701, 58.67789549], [24.96806208, 58.67788072], [24.96816499, 58.67788738], [24.96829175, 58.67793101], [24.96848119, 58.6779712], [24.96858104, 58.67797045], [24.96874333, 58.67795734], [24.96885273, 58.67788964], [24.96892216, 58.67782076], [24.9691722, 58.67757665], [24.96926978, 58.67749418], [24.96960456, 58.67732225], [24.9697685, 58.67726603], [24.96994021, 58.67718152], [24.97016832, 58.67697026], [24.97028352, 58.67680295], [24.97027302, 58.67673319], [24.97026918, 58.67669755], [24.9703202, 58.67658274], [24.97039463, 58.67648856], [24.97042766, 58.67644521], [24.97054062, 58.67640275], [24.97059982, 58.67637704], [24.9707005, 58.67630347], [24.97087191, 58.67620855], [24.97099198, 58.67611402], [24.97100037, 58.67600548], [24.97100703, 58.67593707], [24.97104234, 58.6758729], [24.97114302, 58.67569678], [24.97119536, 58.67552698], [24.97121442, 58.6753916], [24.97121955, 58.67537076], [24.97123249, 58.67532311], [24.97132659, 58.67521837], [24.97142656, 58.675017], [24.97143574, 58.67493668], [24.97145716, 58.67478345], [24.97145439, 58.67468391], [24.97140904, 58.67459211], [24.97138539, 58.67456257], [24.97125806, 58.67449815], [24.97118993, 58.67440801], [24.97112821, 58.67434309], [24.97090749, 58.67420357], [24.97075797, 58.67405907], [24.97067149, 58.67392449], [24.97065814, 58.67385474], [24.970692, 58.67373857], [24.97073959, 58.67360298], [24.97079536, 58.67355649], [24.97099119, 58.67341681], [24.97117975, 58.67332325], [24.9714163, 58.6732115], [24.97158464, 58.67310918], [24.97179858, 58.67290249], [24.97190883, 58.67276345], [24.97200213, 58.67263048], [24.97200007, 58.6725562], [24.97196609, 58.67246283], [24.97195079, 58.67242579], [24.97194881, 58.67235448], [24.97195546, 58.67218353], [24.97196638, 58.671858], [24.97200181, 58.67179829], [24.97208275, 58.67173378], [24.97213016, 58.67169478], [24.97221292, 58.6715931], [24.97224512, 58.67152004], [24.9722908, 58.67141864], [24.97241577, 58.67129584], [24.97248852, 58.67124477], [24.97270856, 58.67115543], [24.97312305, 58.67097991], [24.97337392, 58.67087102], [24.97351319, 58.67085213], [24.97365779, 58.67081983], [24.97379676, 58.67079054], [24.97388299, 58.67071113], [24.97395371, 58.67058725], [24.97400417, 58.67045312], [24.97402438, 58.67035935], [24.97399581, 58.67025554], [24.97370128, 58.67012848], [24.97358884, 58.67008623], [24.97341878, 58.67002362], [24.97327832, 58.66999942], [24.97323545, 58.66999677], [24.97287926, 58.67001135], [24.97276141, 58.66997954], [24.97251971, 58.66990558], [24.97236549, 58.66989932], [24.97218576, 58.66989919], [24.9720794, 58.66987027], [24.97204443, 58.66984378], [24.97202959, 58.66982309], [24.97199879, 58.66974159], [24.97199524, 58.66961381], [24.97196564, 58.6695754], [24.97192435, 58.66942413], [24.97192931, 58.66939734], [24.97194766, 58.66933925], [24.97206299, 58.66928042], [24.97224358, 58.66920921], [24.97224738, 58.66914082], [24.97217964, 58.66896152], [24.97217678, 58.668859], [24.97216587, 58.66867184], [24.97216327, 58.66857824], [24.97215822, 58.66839698], [24.97210027, 58.66826218], [24.97208804, 58.66823255], [24.97206212, 58.66812129], [24.97203996, 58.6680427], [24.9720417, 58.66790002], [24.97206712, 58.66778837], [24.97214702, 58.66758418], [24.9721364, 58.66750996], [24.97209783, 58.66745675], [24.97199628, 58.6673951], [24.97192084, 58.6673496], [24.97189336, 58.66728442], [24.97189472, 58.66723091], [24.97195296, 58.66717103], [24.97203591, 58.66707678], [24.97211494, 58.66704646], [24.97214598, 58.66703434], [24.97222228, 58.6670085], [24.9722036, 58.66695217], [24.9721702, 58.66687961], [24.97193775, 58.66682935], [24.97176663, 58.66683064], [24.9716304, 58.66685545], [24.97131003, 58.66692622], [24.97084594, 58.66695796], [24.97050602, 58.6669412], [24.97033805, 58.66685033], [24.97027767, 58.66673042], [24.97028478, 58.66667835], [24.97037084, 58.66659299], [24.9703856, 58.66650818], [24.97050046, 58.66643301], [24.97050133, 58.66636167], [24.97058843, 58.66621092], [24.9705974, 58.66612317], [24.97056917, 58.66603125], [24.97052532, 58.66599294], [24.97039306, 58.6659553], [24.97023609, 58.66595203], [24.96965947, 58.66593705], [24.96921438, 58.66583043], [24.9689928, 58.66576077], [24.96891857, 58.66575836], [24.96883632, 58.66577532], [24.96879945, 58.66578303], [24.96867872, 58.6658523], [24.96858964, 58.66593173], [24.96850747, 58.66595167], [24.96844473, 58.66595214], [24.96837864, 58.6659348], [24.96832062, 58.66589957], [24.96823263, 58.66581256], [24.96809452, 58.66566648], [24.96812689, 58.66559936], [24.96817434, 58.66556185], [24.96831963, 58.66545227], [24.96833914, 58.66543578], [24.96835581, 58.66531677], [24.96837359, 58.66523787], [24.96840666, 58.66519602], [24.96836907, 58.6649719], [24.96836205, 58.6649244], [24.96824918, 58.66486581], [24.96816132, 58.66478325], [24.96783529, 58.66464898], [24.96782796, 58.66438451], [24.96782677, 58.66434143], [24.96782286, 58.66420028], [24.96786696, 58.66414496], [24.96799108, 58.66409499], [24.96827944, 58.66410471], [24.96840826, 58.66412157], [24.9684641, 58.66407806], [24.96842109, 58.66396693], [24.96811361, 58.66388453], [24.96802938, 58.66383018], [24.96778091, 58.66381868], [24.96771434, 58.66378351], [24.96769786, 58.66370339], [24.96769096, 58.66366034], [24.96774048, 58.66359458], [24.96789812, 58.66351909], [24.96826157, 58.66345989], [24.96832055, 58.66342675], [24.96837007, 58.66336099], [24.96844452, 58.66316576], [24.96844317, 58.66301419], [24.96831689, 58.66288288], [24.96819767, 58.66280056], [24.96801885, 58.66272908], [24.96795252, 58.66270283], [24.96776068, 58.66267604], [24.96758546, 58.66263129], [24.96753967, 58.66262569], [24.96738531, 58.66261347], [24.96728302, 58.66262762], [24.96707434, 58.66271389], [24.9669247, 58.66266597], [24.96688065, 58.66262024], [24.96687848, 58.66254149], [24.96691745, 58.66250702], [24.96709597, 58.66236153], [24.96728339, 58.66233189], [24.96726121, 58.6622518], [24.967206, 58.66221507], [24.96704594, 58.66220289], [24.96702202, 58.66216295], [24.96708307, 58.66210156], [24.96730814, 58.66209244], [24.96754405, 58.66195989], [24.96764167, 58.6618804], [24.96774347, 58.66184843], [24.9679463, 58.66186028], [24.96803768, 58.66176151], [24.9680389, 58.66159952], [24.96811123, 58.66153359], [24.96854712, 58.66131037], [24.96865549, 58.66120701], [24.96880149, 58.66081508], [24.96885931, 58.66074034], [24.96894651, 58.66069659], [24.96901044, 58.6607392], [24.96902642, 58.6608015], [24.96916656, 58.6608153], [24.96934084, 58.66072334], [24.96940241, 58.66068127], [24.96950598, 58.66061064], [24.96948744, 58.66045623], [24.96948017, 58.66039981], [24.96943872, 58.66034514], [24.96946382, 58.66022161], [24.96967925, 58.66007138], [24.96994412, 58.65985242], [24.97010702, 58.65976202], [24.97041072, 58.65960667], [24.97073467, 58.6595641], [24.97063078, 58.65941776], [24.97067521, 58.65937433], [24.97082249, 58.65933756], [24.97090513, 58.65933545], [24.97095551, 58.65930089], [24.97089785, 58.65845723], [24.97109153, 58.6583458], [24.97112492, 58.65831583], [24.97110687, 58.65828179], [24.97100331, 58.65824987], [24.97086017, 58.65823015], [24.97084955, 58.65815592], [24.97089658, 58.65810356], [24.9709008, 58.65805003], [24.9708434, 58.65803708], [24.97054394, 58.65803637], [24.96993286, 58.65811082], [24.96932029, 58.65823432], [24.96905789, 58.65823333], [24.96898194, 58.65816851], [24.96901489, 58.65801966], [24.96890482, 58.65785553], [24.96891511, 58.65781533], [24.9690712, 58.65768487], [24.96919232, 58.65763045], [24.96943331, 58.6575796], [24.96941535, 58.65744599], [24.96937634, 58.65737644], [24.96876422, 58.65720717], [24.96865944, 58.65713069], [24.96855858, 58.65709281], [24.96841056, 58.65710284], [24.96778117, 58.6573394], [24.96721862, 58.65731242], [24.9669772, 58.65745095], [24.96683219, 58.65756944], [24.96678814, 58.65783281], [24.96676074, 58.65787314], [24.96665395, 58.65793041], [24.96643886, 58.65798998], [24.966217, 58.65801097], [24.96595192, 58.65801593], [24.96573139, 58.65798192], [24.96551467, 58.65787952], [24.96534878, 58.65775891], [24.96510943, 58.65766262], [24.96505507, 58.65755306], [24.96511472, 58.65744116], [24.96524741, 58.65739261], [24.96560453, 58.65731265], [24.96565763, 58.65727362], [24.96562809, 58.65723668], [24.96534796, 58.6571095], [24.96490886, 58.65700877], [24.96479448, 58.65699773], [24.9645844, 58.657032], [24.96448596, 58.65708178], [24.96436621, 58.65708268], [24.96422725, 58.6569039], [24.96403387, 58.65651006], [24.96397542, 58.65645848], [24.96391241, 58.65644855], [24.96377307, 58.65646297], [24.96367218, 58.6564236], [24.96368814, 58.65638187], [24.96372014, 58.65630139], [24.96386081, 58.65623197], [24.96445739, 58.6560462], [24.96455305, 58.65599942], [24.964924, 58.6559045], [24.96489122, 58.65575019], [24.96477179, 58.65565895], [24.96445598, 58.65547853], [24.96415159, 58.65509146], [24.96399056, 58.6549396], [24.96402369, 58.65479669], [24.96408045, 58.65468333], [24.96401746, 58.65457086], [24.9638573, 58.6544502], [24.96381739, 58.6544505], [24.96343996, 58.65420664], [24.96339981, 58.65419802], [24.96322051, 58.65410722], [24.9630238, 58.6541087], [24.96275289, 58.65421178], [24.9622631, 58.65423624], [24.96172833, 58.65407677], [24.96150529, 58.65384661], [24.96154181, 58.653723], [24.96163555, 58.65360638], [24.96157489, 58.65347458], [24.9615715, 58.65335126], [24.96157032, 58.65330817], [24.96156786, 58.65321902], [24.96117077, 58.65308824], [24.96110751, 58.65296537], [24.96122165, 58.65276093], [24.96115839, 58.65263806], [24.96081782, 58.652385], [24.96067396, 58.65213046], [24.96033922, 58.65188182], [24.95998128, 58.65172251], [24.95970004, 58.65165624], [24.95934545, 58.65161876], [24.95916756, 58.65157848], [24.95886159, 58.65113048], [24.95888712, 58.65102181], [24.95889453, 58.65098014], [24.9589783, 58.65091562], [24.95952481, 58.6507778], [24.95961435, 58.6507162], [24.95961125, 58.65060328], [24.95939179, 58.65050238], [24.95881006, 58.65029123], [24.95876107, 58.65027228], [24.95846089, 58.65013928], [24.95826986, 58.6500352], [24.95811561, 58.64992043], [24.95799022, 58.6497148], [24.95798212, 58.64962718], [24.9579754, 58.64938203], [24.95786692, 58.64927287], [24.95735688, 58.64897202], [24.95735444, 58.64888287], [24.95775535, 58.64853066], [24.95809643, 58.64828441], [24.95814847, 58.64820675], [24.95810808, 58.64798116], [24.95821859, 58.64785254], [24.95838155, 58.64766111], [24.9584579, 58.64753422], [24.95831831, 58.64618591], [24.95826839, 58.64602876], [24.95809798, 58.64584427], [24.95808129, 58.64575523], [24.95812486, 58.6456806], [24.95823626, 58.64558466], [24.95834318, 58.64553334], [24.95875687, 58.64544109], [24.95898965, 58.64540518], [24.95921494, 58.64530393], [24.95931775, 58.64520657], [24.9593892, 58.64510944], [24.95944257, 58.64487276], [24.95935409, 58.64466091], [24.95931882, 58.64441449], [24.9593702, 58.64431305], [24.95948388, 58.64419629], [24.95964181, 58.64413418], [24.96052868, 58.64404137], [24.96099584, 58.64392494], [24.96115849, 58.64382713], [24.96117493, 58.64369921], [24.96113889, 58.64352858], [24.96102283, 58.64335111], [24.9608433, 58.64314589], [24.9605014, 58.64284083], [24.9602883, 58.64276217], [24.95996285, 58.6424332], [24.95996582, 58.64233362], [24.96001361, 58.64220546], [24.96019249, 58.64186827], [24.96028136, 58.6417829], [24.96058417, 58.64159934], [24.96059609, 58.64151454], [24.96016924, 58.64122943], [24.95960768, 58.64091709], [24.95951436, 58.64073648], [24.9595841, 58.64057695], [24.95979311, 58.64050703], [24.96000566, 58.64046235], [24.96007206, 58.64038904], [24.95982639, 58.64005799], [24.95982529, 58.64001787], [24.9598855, 58.63992677], [24.96004532, 58.63983047], [24.9602963, 58.63973201], [24.96052635, 58.63959803], [24.96061918, 58.63924216], [24.96063175, 58.63907711], [24.96061171, 58.63897027], [24.96060512, 58.63893762], [24.96065197, 58.63887932], [24.96087994, 58.63887761], [24.96122599, 58.63902364], [24.9618368, 58.63895071], [24.96270748, 58.63910321], [24.96290932, 58.63908386], [24.96303022, 58.63902352], [24.96317082, 58.6389541], [24.96323879, 58.63883471], [24.96321176, 58.63857782], [24.96334258, 58.6384639], [24.96395918, 58.63808479], [24.96415366, 58.63790203], [24.96446903, 58.63765892], [24.96454773, 58.6373091], [24.96444214, 58.63709739], [24.96436723, 58.63706823], [24.96415692, 58.63698658], [24.96381445, 58.63696983], [24.9632533, 58.63698146], [24.96296121, 58.63693164], [24.96264238, 58.63684189], [24.962334, 58.63671788], [24.96237104, 58.63661358], [24.96267806, 58.63637797], [24.9627713, 58.63624501], [24.96285954, 58.63613735], [24.96287538, 58.6358846], [24.96264471, 58.63568422], [24.96260809, 58.63549279], [24.96276568, 58.63531625], [24.96294709, 58.63517669], [24.96309092, 58.63501809], [24.96330815, 58.63462711], [24.96352783, 58.63432528], [24.96364283, 58.634155], [24.96375054, 58.63392683], [24.96369069, 58.63382325], [24.96370455, 58.63370574], [24.96385639, 58.63352776], [24.96403542, 58.63340605], [24.96429116, 58.63337887], [24.96533963, 58.63316295], [24.9654906, 58.63295377], [24.96549921, 58.63285265], [24.9653014, 58.63229389], [24.96512744, 58.63228925], [24.96494817, 58.63219548], [24.96459237, 58.6321075], [24.96445648, 58.63193316], [24.96443689, 58.63184266], [24.96445806, 58.63168052], [24.96451336, 58.63161917], [24.96498351, 58.63141057], [24.96511635, 58.63137093], [24.96539162, 58.6312262], [24.96546682, 58.63116322], [24.96549701, 58.63112139], [24.96547285, 58.6309685], [24.96539928, 58.63088435], [24.96521045, 58.63075351], [24.96491175, 58.63035896], [24.96481915, 58.63030765], [24.96464932, 58.63014248], [24.96444897, 58.6298007], [24.96421141, 58.62955579], [24.96410715, 58.62939162], [24.96410548, 58.6293307], [24.96412118, 58.62928006], [24.96419324, 58.6292067], [24.96446985, 58.629111], [24.96459494, 58.62899712], [24.96460757, 58.62883504], [24.96456363, 58.62868825], [24.96459123, 58.62855281], [24.96471747, 58.62848053], [24.96489286, 58.62843463], [24.96505752, 58.62841259], [24.96524411, 58.62835918], [24.96537352, 58.62829877], [24.96577946, 58.62803714], [24.96594897, 58.62788132], [24.96601117, 58.62776048], [24.96602332, 58.6276846], [24.96592502, 58.62742676], [24.96580272, 58.62722854], [24.96565469, 58.62713008], [24.96562036, 58.62681529], [24.96544259, 58.62656845], [24.96539869, 58.62642315], [24.96550564, 58.62627225], [24.96551845, 58.62601358], [24.96557688, 58.62596261], [24.96549346, 58.62583098], [24.9654742, 58.62575236], [24.96547061, 58.62572564], [24.96548957, 58.62548326], [24.96559172, 58.6253651], [24.96591701, 58.62527943], [24.96612985, 58.62514557], [24.96616153, 58.62505468], [24.96613091, 58.62497764], [24.96598328, 58.62479001], [24.96576537, 58.6246371], [24.9657517, 58.62445144], [24.96578457, 58.62440364], [24.96584205, 58.6243185], [24.96585668, 58.62422923], [24.96596166, 58.62400701], [24.96614016, 58.62376493], [24.96660759, 58.62356525], [24.96671713, 58.62340542], [24.96674836, 58.62329819], [24.96644117, 58.62311028], [24.96637356, 58.62303499], [24.96635819, 58.62289096], [24.96635085, 58.62283157], [24.96635261, 58.62268889], [24.96660449, 58.62252502], [24.96704654, 58.62233594], [24.96723521, 58.62225575], [24.9679673, 58.62194411], [24.96804256, 58.6218841], [24.96802981, 58.62183516], [24.96799792, 58.62171205], [24.96785279, 58.62161506], [24.96773678, 58.62143761], [24.96771995, 58.62134411], [24.96775562, 58.6212948], [24.96790316, 58.62117035], [24.96789533, 58.62109313], [24.96775453, 58.62104961], [24.96737254, 58.62104059], [24.96725974, 58.62097903], [24.96725553, 58.62093002], [24.9673329, 58.62084324], [24.96751215, 58.62073192], [24.96773856, 58.62067821], [24.96791734, 58.62065308], [24.96807061, 58.62063261], [24.96858931, 58.62064059], [24.96879674, 58.6206212], [24.96884359, 58.62056437], [24.96882713, 58.62048425], [24.96865559, 58.62035922], [24.96865724, 58.62031612], [24.96875586, 58.62027673], [24.96908134, 58.62019998], [24.96956587, 58.62010567], [24.96964459, 58.62006793], [24.96966003, 58.62000837], [24.96975943, 58.61989468], [24.96988187, 58.61968719], [24.96994102, 58.61966296], [24.96997752, 58.61954083], [24.97016067, 58.61936558], [24.97016513, 58.61932096], [24.97014339, 58.61925574], [24.97007929, 58.61920421], [24.96980109, 58.61913646], [24.96970587, 58.6190926], [24.9696785, 58.61903039], [24.96997571, 58.61875619], [24.97011667, 58.61870312], [24.97032111, 58.61857674], [24.97038493, 58.61851533], [24.97038287, 58.61844104], [24.97031436, 58.61833308], [24.9702936, 58.61820097], [24.97036378, 58.61806075], [24.97070117, 58.61779814], [24.97074406, 58.61770122], [24.97092183, 58.61753789], [24.97099436, 58.61748236], [24.97121134, 58.6173975], [24.97127544, 58.61734649], [24.97128233, 58.61718446], [24.97134718, 58.61705765], [24.97146291, 58.61701962], [24.97163102, 58.61702132], [24.97180895, 58.61706902], [24.97182443, 58.61701095], [24.97180821, 58.61693974], [24.97178431, 58.61689979], [24.97171798, 58.61687057], [24.97153473, 58.61683629], [24.97138656, 58.61683444], [24.97108039, 58.61688728], [24.97087819, 58.61688881], [24.97086985, 58.61679376], [24.97095319, 58.61671734], [24.97104886, 58.61667501], [24.97106558, 58.61655897], [24.97079132, 58.61642729], [24.97080693, 58.61627113], [24.97091007, 58.61619011], [24.97100946, 58.61617895], [24.97142087, 58.6162234], [24.97147766, 58.61621703], [24.97156116, 58.61614655], [24.97150391, 58.6159315], [24.97141501, 58.61580734], [24.97137078, 58.61554761], [24.97141122, 58.61546557], [24.97149992, 58.61537722], [24.97164078, 58.61532117], [24.97175688, 58.61529652], [24.97242362, 58.61520231], [24.97246943, 58.6150058], [24.97265606, 58.61495683], [24.97277897, 58.61497225], [24.97291537, 58.61496082], [24.9730197, 58.61492287], [24.97321673, 58.61473562], [24.97344434, 58.61472647], [24.97359048, 58.61465552], [24.97374434, 58.61465732], [24.97395606, 58.61469139], [24.97419539, 58.61469403], [24.97446876, 58.61458942], [24.97465815, 58.61453746], [24.97473838, 58.61455468], [24.97490034, 58.61464262], [24.97497336, 58.61480999], [24.97504353, 58.61487485], [24.97514097, 58.6148964], [24.97530053, 58.61489816], [24.975394, 58.61487962], [24.97545017, 58.61485096], [24.97547769, 58.61471403], [24.97565382, 58.61459529], [24.97581201, 58.61454802], [24.97628034, 58.61448948], [24.97643811, 58.61442735], [24.97660863, 58.61431163], [24.97656109, 58.61403706], [24.97659344, 58.61397143], [24.97655827, 58.61393603], [24.97631427, 58.61386804], [24.97624055, 58.61377795], [24.97623489, 58.61367694], [24.97639546, 58.6136133], [24.97639669, 58.61355534], [24.97629764, 58.61347584], [24.97629444, 58.61336144], [24.97664348, 58.61321315], [24.97696538, 58.61321516], [24.97705295, 58.61318923], [24.97704951, 58.61306591], [24.97712792, 58.61301776], [24.97704628, 58.61295002], [24.97704416, 58.61287425], [24.97807301, 58.61269404], [24.97768772, 58.61215603], [24.97763693, 58.61145945], [24.97754545, 58.61124317], [24.97744659, 58.61106857], [24.97685899, 58.61052615], [24.97681706, 58.61045217], [24.97683764, 58.61037325], [24.97694751, 58.61022826], [24.97729343, 58.60986749], [24.9774215, 58.60976249], [24.97722498, 58.60965996], [24.97701977, 58.60934795], [24.97690104, 58.60927752], [24.97663986, 58.6092052], [24.97642969, 58.60912358], [24.9763741, 58.6090705], [24.9758496, 58.60874606], [24.97566761, 58.60865382], [24.97554369, 58.60860126], [24.97528579, 58.60854377], [24.97486403, 58.6085336], [24.97462297, 58.60856961], [24.9744535, 58.60861993], [24.97432162, 58.60869078], [24.97421838, 58.60876735], [24.97409452, 58.60892136], [24.97407072, 58.60908946], [24.97411358, 58.60950376], [24.97418139, 58.60979154], [24.97410142, 58.60988577], [24.97398621, 58.60994163], [24.97371304, 58.60994965], [24.97322288, 58.60983596], [24.97263447, 58.60956846], [24.97184887, 58.6092757], [24.97087396, 58.60893383], [24.96973732, 58.60850996], [24.96908785, 58.60829789], [24.96876254, 58.60817106], [24.96853028, 58.60801082], [24.96838369, 58.60785886], [24.96807773, 58.60740197], [24.96801433, 58.60727167], [24.96797722, 58.60706241], [24.96803842, 58.6069074], [24.96816998, 58.60682467], [24.96837386, 58.60678301], [24.96855347, 58.60679058], [24.96898234, 58.60685273], [24.9693237, 58.60683975], [24.96947332, 58.60679256], [24.96957826, 58.60657182], [24.96954695, 58.60646952], [24.96933682, 58.60628535], [24.96857279, 58.60584231], [24.96842183, 58.60573793], [24.96818415, 58.60548412], [24.96775137, 58.60486768], [24.96759944, 58.60462511], [24.96701621, 58.60340645], [24.96678389, 58.60313922], [24.96631288, 58.60247699], [24.96615136, 58.60219585], [24.96612662, 58.60212471], [24.96621134, 58.60199627], [24.96621471, 58.60180899], [24.96625475, 58.6017121], [24.96621813, 58.60162321], [24.96609109, 58.60145623], [24.96593075, 58.60132072], [24.96578967, 58.60126382], [24.96506952, 58.60106415], [24.9649765, 58.60099501], [24.96487322, 58.60086352], [24.96480972, 58.60072876], [24.96479998, 58.60016858], [24.96479742, 58.59997244], [24.96455174, 58.59963248], [24.96444644, 58.59953074], [24.96390843, 58.59912015], [24.96361669, 58.59896779], [24.96353658, 58.59895353], [24.96328288, 58.59894206], [24.96244047, 58.59905685], [24.96230339, 58.59904153], [24.9620938, 58.59897772], [24.96196977, 58.5989192], [24.96074261, 58.59798175], [24.96040045, 58.59765142], [24.95998312, 58.59717454], [24.95953323, 58.59685987], [24.95937558, 58.5967169], [24.95926827, 58.59643683], [24.95928379, 58.59627622], [24.95933413, 58.59613912], [24.95941329, 58.59601519], [24.95955428, 58.5956545], [24.95948881, 58.59544694], [24.95937496, 58.59534377], [24.95905505, 58.59520052], [24.95847786, 58.59501758], [24.95815799, 58.59487581], [24.95751499, 58.59436791], [24.95726531, 58.59429398], [24.95707137, 58.59428056], [24.95701628, 58.59424382], [24.95703145, 58.59406984], [24.95728679, 58.59372614], [24.95729988, 58.5935804], [24.95736222, 58.59336148], [24.95761088, 58.59287814], [24.95766093, 58.59273064], [24.95762874, 58.59259416], [24.95752336, 58.59248795], [24.95724568, 58.59232655], [24.95697349, 58.59226171], [24.95614645, 58.59199591], [24.95588692, 58.59187301], [24.95563527, 58.59172627], [24.95537367, 58.5915276], [24.95524509, 58.59140521], [24.95501229, 58.59111418], [24.95493357, 58.59083687], [24.95496204, 58.59073263], [24.95505283, 58.59061753], [24.95532587, 58.5904015], [24.95563047, 58.59009013], [24.95572846, 58.58982191], [24.95573868, 58.58967471], [24.95554064, 58.58940572], [24.95551105, 58.58936433], [24.95534418, 58.58919467], [24.95494456, 58.58894352], [24.95447275, 58.58855024], [24.95442984, 58.58843762], [24.95444464, 58.58835429], [24.95449352, 58.58826773], [24.95462097, 58.58814047], [24.95598046, 58.58737543], [24.95627343, 58.58726476], [24.95632018, 58.58720497], [24.95632259, 58.58708458], [24.95611801, 58.58688845], [24.95554675, 58.58650038], [24.9551694, 58.58612572], [24.95482678, 58.58566758], [24.95446837, 58.58504758], [24.95440767, 58.58480431], [24.95419194, 58.58461569], [24.95416386, 58.58452525], [24.95417173, 58.58429188], [24.95405379, 58.58414117], [24.95402613, 58.58396156], [24.95415193, 58.58366935], [24.95432596, 58.58337233], [24.95428642, 58.583279], [24.95401152, 58.58311163], [24.95388183, 58.58305166], [24.95335737, 58.58291587], [24.95280851, 58.58282483], [24.9526783, 58.58274555], [24.95260539, 58.5826807], [24.9524748, 58.58248253], [24.95234393, 58.5819604], [24.95228769, 58.58188057], [24.95211936, 58.58175996], [24.95186946, 58.58167413], [24.9516738, 58.58169936], [24.95159313, 58.58166281], [24.95148738, 58.58164576], [24.95140203, 58.58164639], [24.95102882, 58.58173535], [24.95095098, 58.5818028], [24.9508605, 58.58182427], [24.95071536, 58.58182386], [24.95051972, 58.58174506], [24.95043514, 58.58156438], [24.95040583, 58.58142788], [24.95031136, 58.58130226], [24.95029756, 58.5812132], [24.95067146, 58.58093997], [24.95092739, 58.58072407], [24.95090949, 58.58058897], [24.95086319, 58.58045557], [24.95063489, 58.58011695], [24.95037159, 58.5798514], [24.95014847, 58.57970296], [24.94980594, 58.57955837], [24.9496001, 58.57952274], [24.9495204, 58.57952184], [24.94890008, 58.57962599], [24.94872198, 58.57966892], [24.94824589, 58.5797408], [24.94805869, 58.57976298], [24.94785955, 58.57976445], [24.94773385, 58.57974606], [24.94762494, 58.57971714], [24.94671888, 58.57935676], [24.94643699, 58.5791389], [24.94624938, 58.5789352], [24.94619264, 58.57883605], [24.94612985, 58.57861806], [24.94614442, 58.57831479], [24.94605615, 58.57831247], [24.94598215, 58.57831153], [24.94565343, 58.578256], [24.94548912, 58.57838798], [24.9452841, 58.57848757], [24.94443916, 58.57870333], [24.94380156, 58.57880015], [24.94339215, 58.57881207], [24.94309885, 58.57880383], [24.94271829, 58.5788304], [24.94188911, 58.57899846], [24.94042561, 58.57917414], [24.93980846, 58.5792916], [24.93888873, 58.57958515], [24.93848931, 58.57965197], [24.93821332, 58.5796525], [24.93785317, 58.57969822], [24.93744949, 58.57981857], [24.93668511, 58.58028335], [24.93617889, 58.58071949], [24.93602402, 58.58088706], [24.93583579, 58.58097759], [24.93547622, 58.5810456], [24.93504943, 58.58104722], [24.93323519, 58.58098611], [24.92536192, 58.58067602], [24.92482001, 58.58062791], [24.92374618, 58.5804796], [24.91819619, 58.57956237], [24.9173536, 58.57944059], [24.91697722, 58.57941058], [24.91665002, 58.57941143], [24.91632126, 58.57946133], [24.91580333, 58.57956757], [24.91029336, 58.58072427], [24.90835222, 58.58114371], [24.90786619, 58.58127495], [24.90766731, 58.58139672], [24.90711285, 58.58207234], [24.90671635, 58.5824749], [24.90660639, 58.58262428], [24.90641007, 58.58273563], [24.90320396, 58.58376578], [24.90070459, 58.58461998], [24.89883936, 58.58523788], [24.89720115, 58.5857219], [24.89647115, 58.58588749], [24.89675659, 58.58625404], [24.89755004, 58.5874537], [24.89865859, 58.58928421], [24.8992756, 58.59025773], [24.89974825, 58.59092909], [24.9006658, 58.59207585], [24.90115995, 58.59258508], [24.90197403, 58.59335806], [24.90471951, 58.59572687], [24.90595644, 58.59677326], [24.90709055, 58.59769405], [24.90801362, 58.59848852], [24.90574665, 58.59955814], [24.90563067, 58.59958719], [24.90548996, 58.5996506], [24.90434394, 58.60003316], [24.90329034, 58.6003571], [24.90284642, 58.60047613], [24.90234517, 58.60058071], [24.90211722, 58.60057339], [24.90102756, 58.60049336], [24.90053649, 58.60044033], [24.89993479, 58.60040294], [24.89918029, 58.60040227], [24.89900695, 58.60041537], [24.89836842, 58.60049563], [24.89774191, 58.60060106], [24.89701345, 58.600728], [24.89695033, 58.60070913], [24.89685514, 58.60066075], [24.89680974, 58.60055556], [24.89674159, 58.60034055], [24.89666096, 58.60008254], [24.89649579, 58.59952493], [24.89610472, 58.59959602], [24.8956599, 58.59968086], [24.89348772, 58.60013139], [24.893196, 58.60019138], [24.89118788, 58.6006021], [24.88901285, 58.60105704], [24.88675285, 58.60153185], [24.88611273, 58.60166406], [24.8832747, 58.60225276], [24.88279037, 58.60235417], [24.88088426, 58.60275511], [24.87923298, 58.60310078], [24.87782245, 58.60339723], [24.87762137, 58.60344021], [24.87540401, 58.60141944], [24.87396762, 58.60010811], [24.87380739, 58.59996208], [24.8736493, 58.5997878], [24.87358929, 58.59966487], [24.86013118, 58.60255241], [24.8305564, 58.60889471], [24.83044008, 58.60999364], [24.83041258, 58.61027468], [24.83033075, 58.6121075], [24.83031383, 58.61247466], [24.8301497, 58.61612098], [24.83005801, 58.61633854], [24.82971046, 58.61633632], [24.82856218, 58.61631995], [24.82741391, 58.61630357], [24.82589526, 58.61628361], [24.82502623, 58.61627136], [24.82483246, 58.61626814], [24.82337648, 58.61624776], [24.8218578, 58.61622627], [24.81980633, 58.61619776], [24.81966956, 58.61619566], [24.81882334, 58.6161847], [24.81859256, 58.61618171], [24.81798279, 58.61617222], [24.81777479, 58.61616909], [24.81726761, 58.61616191], [24.81712234, 58.61616135], [24.81711851, 58.61624162], [24.81705717, 58.61788408], [24.81699732, 58.61946857], [24.81176437, 58.61946605], [24.81160484, 58.61946557], [24.80990131, 58.61946294], [24.80897832, 58.61946132], [24.80892706, 58.61946164], [24.80798125, 58.61945868], [24.80276811, 58.61944972], [24.80015865, 58.6194437], [24.80011593, 58.61944396], [24.79960888, 58.61944414], [24.79934122, 58.61944878], [24.80066456, 58.62138576], [24.80105114, 58.62197034], [24.80122351, 58.62215799], [24.80138531, 58.62238137], [24.80162753, 58.62275731], [24.80170408, 58.62286532], [24.80188332, 58.62310345], [24.80192232, 58.6231894], [24.80216754, 58.62357126], [24.80222645, 58.6236556], [24.80281939, 58.62454055], [24.80293997, 58.62470474], [24.80312626, 58.62500079], [24.8031385, 58.62503786], [24.80317663, 58.62508518], [24.80356946, 58.62569051], [24.80364944, 58.62582375], [24.8041732, 58.62667049], [24.80422931, 58.62675633], [24.80456291, 58.62726246], [24.80495554, 58.62785739], [24.8050353, 58.62798023], [24.80576461, 58.6290887], [24.80585021, 58.62921745], [24.80500022, 58.62955119], [24.80295564, 58.63035305], [24.80114885, 58.63071651], [24.80096162, 58.63075334], [24.79934113, 58.63104131], [24.79744234, 58.63137259], [24.797363, 58.6313924], [24.7974264, 58.63229848], [24.79742694, 58.63232226]]]}, "geometry_name": "shape", "properties": {"sys_id": 81, "versioon": 1482327296656.0, "id": -149829341, "nimi": "Pärnjõe", "tyyp": "Jahipiirkond", "kr_kood": "JAH1000125"}}], "totalFeatures": 1, "numberMatched": 1, "numberReturned": 1, "timeStamp": "2026-09-13T08:36:09.942Z", "source": {"name": "EELIS (Eesti looduse infosüsteem), Keskkonnaagentuur", "license": "CC BY 4.0", "retrieved_at": "2026-09-13T08:36:09.942Z", "code": "JAH1000125"}}