<?xml version='1.0' encoding='utf-8'?>
<gpx xmlns="http://www.topografix.com/GPX/1/1" xmlns:gpxx="http://www.garmin.com/xmlschemas/GpxExtensions/v3" version="1.1" creator="Pärnjõe jahiseltsi kaart"><metadata><name>Pärnjõe jahiseltsi kaart</name><desc>JAH1000125 püsivad seltsiobjektid</desc><time>2026-10-02T14:12:25.522Z</time></metadata><wpt lat="58.660678209" lon="24.855310971"><name>Gängsteri maja</name><desc>Maja · Gängster elab siin</desc><type>Maja</type><sym>Residence</sym><extensions><gpxx:WaypointExtension><gpxx:SymbolColor>Blue</gpxx:SymbolColor><gpxx:SymbolStyle>1</gpxx:SymbolStyle></gpxx:WaypointExtension></extensions></wpt><wpt lat="58.673225353" lon="24.951346204"><name>Elmari söögikoht</name><desc>Söödakoht · Elmar käib söömas</desc><type>Söödakoht</type><sym>Food Source</sym><extensions><gpxx:WaypointExtension><gpxx:SymbolColor>Green</gpxx:SymbolColor><gpxx:SymbolStyle>1</gpxx:SymbolStyle></gpxx:WaypointExtension></extensions></wpt><wpt lat="58.677842182" lon="24.869226847"><name>Paane kelder</name><desc>Kõrvalhoone</desc><type>Kõrvalhoone</type><sym>Building</sym><extensions><gpxx:WaypointExtension><gpxx:SymbolColor>Gray</gpxx:SymbolColor><gpxx:SymbolStyle>1</gpxx:SymbolStyle></gpxx:WaypointExtension></extensions></wpt><wpt lat="58.622904087" lon="24.807861398"><name>Rail baltica ökodukt</name><desc>Sild / ületuskoht</desc><type>Sild / ületuskoht</type><sym>Bridge</sym><extensions><gpxx:WaypointExtension><gpxx:SymbolColor>Blue</gpxx:SymbolColor><gpxx:SymbolStyle>1</gpxx:SymbolStyle></gpxx:WaypointExtension></extensions></wpt><wpt lat="58.655685575" lon="24.941269283"><name>Eieri laut</name><desc>Kõrvalhoone</desc><type>Kõrvalhoone</type><sym>Building</sym><extensions><gpxx:WaypointExtension><gpxx:SymbolColor>Gray</gpxx:SymbolColor><gpxx:SymbolStyle>1</gpxx:SymbolStyle></gpxx:WaypointExtension></extensions></wpt><wpt lat="58.600113654" lon="24.873929563"><name>Tõhu tipp</name><desc>Orientiir</desc><type>Orientiir</type><sym>Flag, Blue</sym><extensions><gpxx:WaypointExtension><gpxx:SymbolColor>Blue</gpxx:SymbolColor><gpxx:SymbolStyle>1</gpxx:SymbolStyle></gpxx:WaypointExtension></extensions></wpt><wpt lat="58.603461202" lon="24.904870775"><name>Villu maja / Võiga</name><desc>Maja</desc><type>Maja</type><sym>Residence</sym><extensions><gpxx:WaypointExtension><gpxx:SymbolColor>Blue</gpxx:SymbolColor><gpxx:SymbolStyle>1</gpxx:SymbolStyle></gpxx:WaypointExtension></extensions></wpt><wpt lat="58.580909124" lon="24.936009822"><name>Kiisa S-kurv</name><desc>Orientiir</desc><type>Orientiir</type><sym>Flag, Blue</sym><extensions><gpxx:WaypointExtension><gpxx:SymbolColor>Blue</gpxx:SymbolColor><gpxx:SymbolStyle>1</gpxx:SymbolStyle></gpxx:WaypointExtension></extensions></wpt><wpt lat="58.61559527" lon="24.93874106"><name>Aluste lauda pumbajaam</name><desc>Kõrvalhoone</desc><type>Kõrvalhoone</type><sym>Building</sym><extensions><gpxx:WaypointExtension><gpxx:SymbolColor>Gray</gpxx:SymbolColor><gpxx:SymbolStyle>1</gpxx:SymbolStyle></gpxx:WaypointExtension></extensions></wpt><wpt lat="58.627094243" lon="24.960621255"><name>Massu meierei</name><desc>Kõrvalhoone</desc><type>Kõrvalhoone</type><sym>Building</sym><extensions><gpxx:WaypointExtension><gpxx:SymbolColor>Gray</gpxx:SymbolColor><gpxx:SymbolStyle>1</gpxx:SymbolStyle></gpxx:WaypointExtension></extensions></wpt><wpt lat="58.626388127" lon="24.901750908"><name>Asko purre üle sauga jõe</name><desc>Sild / ületuskoht</desc><type>Sild / ületuskoht</type><sym>Bridge</sym><extensions><gpxx:WaypointExtension><gpxx:SymbolColor>Blue</gpxx:SymbolColor><gpxx:SymbolStyle>1</gpxx:SymbolStyle></gpxx:WaypointExtension></extensions></wpt><wpt lat="58.646401908" lon="24.913297321"><name>Roosi talu / karpo maja</name><desc>Maja</desc><type>Maja</type><sym>Residence</sym><extensions><gpxx:WaypointExtension><gpxx:SymbolColor>Blue</gpxx:SymbolColor><gpxx:SymbolStyle>1</gpxx:SymbolStyle></gpxx:WaypointExtension></extensions></wpt><wpt lat="58.644760795" lon="24.872921148"><name>Ärni vana maja</name><desc>Maja</desc><type>Maja</type><sym>Residence</sym><extensions><gpxx:WaypointExtension><gpxx:SymbolColor>Blue</gpxx:SymbolColor><gpxx:SymbolStyle>1</gpxx:SymbolStyle></gpxx:WaypointExtension></extensions></wpt><wpt lat="58.644725532" lon="24.87105556"><name>Kõrviku maja</name><desc>Maja</desc><type>Maja</type><sym>Residence</sym><extensions><gpxx:WaypointExtension><gpxx:SymbolColor>Blue</gpxx:SymbolColor><gpxx:SymbolStyle>1</gpxx:SymbolStyle></gpxx:WaypointExtension></extensions></wpt><wpt lat="58.64710922" lon="24.862210686"><name>Viluvere koolimaja</name><desc>Maja</desc><type>Maja</type><sym>Residence</sym><extensions><gpxx:WaypointExtension><gpxx:SymbolColor>Blue</gpxx:SymbolColor><gpxx:SymbolStyle>1</gpxx:SymbolStyle></gpxx:WaypointExtension></extensions></wpt><wpt lat="58.650276588" lon="24.842466274"><name>Viluvere kultuurimaja</name><desc>Maja</desc><type>Maja</type><sym>Residence</sym><extensions><gpxx:WaypointExtension><gpxx:SymbolColor>Blue</gpxx:SymbolColor><gpxx:SymbolStyle>1</gpxx:SymbolStyle></gpxx:WaypointExtension></extensions></wpt><wpt lat="58.648140237" lon="24.892774274"><name>Hirve kraavi raudteesild</name><desc>Sild / ületuskoht</desc><type>Sild / ületuskoht</type><sym>Bridge</sym><extensions><gpxx:WaypointExtension><gpxx:SymbolColor>Blue</gpxx:SymbolColor><gpxx:SymbolStyle>1</gpxx:SymbolStyle></gpxx:WaypointExtension></extensions></wpt><wpt lat="58.649321835" lon="24.921086728"><name>Sauga jõe raudteesild</name><desc>Sild / ületuskoht</desc><type>Sild / ületuskoht</type><sym>Bridge</sym><extensions><gpxx:WaypointExtension><gpxx:SymbolColor>Blue</gpxx:SymbolColor><gpxx:SymbolStyle>1</gpxx:SymbolStyle></gpxx:WaypointExtension></extensions></wpt><wpt lat="58.648128686" lon="24.958157995"><name>Massu jõe raudteesild</name><desc>Sild / ületuskoht</desc><type>Sild / ületuskoht</type><sym>Bridge</sym><extensions><gpxx:WaypointExtension><gpxx:SymbolColor>Blue</gpxx:SymbolColor><gpxx:SymbolStyle>1</gpxx:SymbolStyle></gpxx:WaypointExtension></extensions></wpt><wpt lat="58.651859211" lon="24.957843763"><name>Sõnajala maja</name><desc>Maja</desc><type>Maja</type><sym>Residence</sym><extensions><gpxx:WaypointExtension><gpxx:SymbolColor>Blue</gpxx:SymbolColor><gpxx:SymbolStyle>1</gpxx:SymbolStyle></gpxx:WaypointExtension></extensions></wpt><wpt lat="58.637384614" lon="24.928625188"><name>Pärnjõe saun</name><desc>Kõrvalhoone</desc><type>Kõrvalhoone</type><sym>Building</sym><extensions><gpxx:WaypointExtension><gpxx:SymbolColor>Gray</gpxx:SymbolColor><gpxx:SymbolStyle>1</gpxx:SymbolStyle></gpxx:WaypointExtension></extensions></wpt><wpt lat="58.637013149" lon="24.930060373"><name>Villu kuivati / talumeeste kuivati</name><desc>Kõrvalhoone</desc><type>Kõrvalhoone</type><sym>Building</sym><extensions><gpxx:WaypointExtension><gpxx:SymbolColor>Gray</gpxx:SymbolColor><gpxx:SymbolStyle>1</gpxx:SymbolStyle></gpxx:WaypointExtension></extensions></wpt><wpt lat="58.632818777" lon="24.933759622"><name>Punane küün</name><desc>Kõrvalhoone</desc><type>Kõrvalhoone</type><sym>Building</sym><extensions><gpxx:WaypointExtension><gpxx:SymbolColor>Gray</gpxx:SymbolColor><gpxx:SymbolStyle>1</gpxx:SymbolStyle></gpxx:WaypointExtension></extensions></wpt><wpt lat="58.634578773" lon="24.943526809"><name>Ärnitsa maja</name><desc>Maja</desc><type>Maja</type><sym>Residence</sym><extensions><gpxx:WaypointExtension><gpxx:SymbolColor>Blue</gpxx:SymbolColor><gpxx:SymbolStyle>1</gpxx:SymbolStyle></gpxx:WaypointExtension></extensions></wpt><wpt lat="58.632301836" lon="24.940347233"><name>Luige hannese maja</name><desc>Maja</desc><type>Maja</type><sym>Residence</sym><extensions><gpxx:WaypointExtension><gpxx:SymbolColor>Blue</gpxx:SymbolColor><gpxx:SymbolStyle>1</gpxx:SymbolStyle></gpxx:WaypointExtension></extensions></wpt><wpt lat="58.639543902" lon="24.949192367"><name>Karulava</name><desc>Orientiir</desc><type>Orientiir</type><sym>Flag, Blue</sym><extensions><gpxx:WaypointExtension><gpxx:SymbolColor>Blue</gpxx:SymbolColor><gpxx:SymbolStyle>1</gpxx:SymbolStyle></gpxx:WaypointExtension></extensions></wpt><wpt lat="58.647628749" lon="24.935743538"><name>Luuri väetiseküün</name><desc>Kõrvalhoone</desc><type>Kõrvalhoone</type><sym>Building</sym><extensions><gpxx:WaypointExtension><gpxx:SymbolColor>Gray</gpxx:SymbolColor><gpxx:SymbolStyle>1</gpxx:SymbolStyle></gpxx:WaypointExtension></extensions></wpt><wpt lat="58.649193121" lon="24.933740295"><name>Luuri raudteejaam</name><desc>Orientiir</desc><type>Orientiir</type><sym>Flag, Blue</sym><extensions><gpxx:WaypointExtension><gpxx:SymbolColor>Blue</gpxx:SymbolColor><gpxx:SymbolStyle>1</gpxx:SymbolStyle></gpxx:WaypointExtension></extensions></wpt><wpt lat="58.650359197" lon="24.930404215"><name>Gelenitsa maja</name><desc>Maja</desc><type>Maja</type><sym>Residence</sym><extensions><gpxx:WaypointExtension><gpxx:SymbolColor>Blue</gpxx:SymbolColor><gpxx:SymbolStyle>1</gpxx:SymbolStyle></gpxx:WaypointExtension></extensions></wpt><wpt lat="58.654697964" lon="24.930733569"><name>Pärtli aare / loti maja</name><desc>Maja</desc><type>Maja</type><sym>Residence</sym><extensions><gpxx:WaypointExtension><gpxx:SymbolColor>Blue</gpxx:SymbolColor><gpxx:SymbolStyle>1</gpxx:SymbolStyle></gpxx:WaypointExtension></extensions></wpt><wpt lat="58.662781861" lon="24.940410294"><name>Kirnasoo</name><desc>Orientiir</desc><type>Orientiir</type><sym>Flag, Blue</sym><extensions><gpxx:WaypointExtension><gpxx:SymbolColor>Blue</gpxx:SymbolColor><gpxx:SymbolStyle>1</gpxx:SymbolStyle></gpxx:WaypointExtension></extensions></wpt><wpt lat="58.664029893" lon="24.950362258"><name>Luuri prügimägi</name><desc>Orientiir</desc><type>Orientiir</type><sym>Flag, Blue</sym><extensions><gpxx:WaypointExtension><gpxx:SymbolColor>Blue</gpxx:SymbolColor><gpxx:SymbolStyle>1</gpxx:SymbolStyle></gpxx:WaypointExtension></extensions></wpt><wpt lat="58.679853392" lon="24.965389511"><name>Leili talukoht</name><desc>Maja</desc><type>Maja</type><sym>Residence</sym><extensions><gpxx:WaypointExtension><gpxx:SymbolColor>Blue</gpxx:SymbolColor><gpxx:SymbolStyle>1</gpxx:SymbolStyle></gpxx:WaypointExtension></extensions></wpt><wpt lat="58.64490591" lon="24.902816436"><name>Rosina tiik</name><desc>Orientiir</desc><type>Orientiir</type><sym>Flag, Blue</sym><extensions><gpxx:WaypointExtension><gpxx:SymbolColor>Blue</gpxx:SymbolColor><gpxx:SymbolStyle>1</gpxx:SymbolStyle></gpxx:WaypointExtension></extensions></wpt><wpt lat="58.625925596" lon="24.83414764"><name>Ärni maja</name><desc>Maja</desc><type>Maja</type><sym>Residence</sym><extensions><gpxx:WaypointExtension><gpxx:SymbolColor>Blue</gpxx:SymbolColor><gpxx:SymbolStyle>1</gpxx:SymbolStyle></gpxx:WaypointExtension></extensions></wpt><wpt lat="58.618386764" lon="24.913794377"><name>Aadamsoo karli maja</name><desc>Maja</desc><type>Maja</type><sym>Residence</sym><extensions><gpxx:WaypointExtension><gpxx:SymbolColor>Blue</gpxx:SymbolColor><gpxx:SymbolStyle>1</gpxx:SymbolStyle></gpxx:WaypointExtension></extensions></wpt><wpt lat="58.615602266" lon="24.921364865"><name>Aluste kuivati</name><desc>Kõrvalhoone</desc><type>Kõrvalhoone</type><sym>Building</sym><extensions><gpxx:WaypointExtension><gpxx:SymbolColor>Gray</gpxx:SymbolColor><gpxx:SymbolStyle>1</gpxx:SymbolStyle></gpxx:WaypointExtension></extensions></wpt><wpt lat="58.611614677" lon="24.914481561"><name>Aluste mürgikuur</name><desc>Kõrvalhoone</desc><type>Kõrvalhoone</type><sym>Building</sym><extensions><gpxx:WaypointExtension><gpxx:SymbolColor>Gray</gpxx:SymbolColor><gpxx:SymbolStyle>1</gpxx:SymbolStyle></gpxx:WaypointExtension></extensions></wpt><wpt lat="58.600274805" lon="24.901731965"><name>Laua gunnari maja / varese maja</name><desc>Maja</desc><type>Maja</type><sym>Residence</sym><extensions><gpxx:WaypointExtension><gpxx:SymbolColor>Blue</gpxx:SymbolColor><gpxx:SymbolStyle>1</gpxx:SymbolStyle></gpxx:WaypointExtension></extensions></wpt><wpt lat="58.616828807" lon="24.883732055"><name>Manguse soo teine jahipukk</name><desc>Jahitorn</desc><type>Jahitorn</type><sym>Hunting Area</sym><extensions><gpxx:WaypointExtension><gpxx:SymbolColor>Orange</gpxx:SymbolColor><gpxx:SymbolStyle>1</gpxx:SymbolStyle></gpxx:WaypointExtension></extensions></wpt><wpt lat="58.616838556" lon="24.886737403"><name>Manguse soo esimene jahipukk</name><desc>Jahitorn</desc><type>Jahitorn</type><sym>Hunting Area</sym><extensions><gpxx:WaypointExtension><gpxx:SymbolColor>Orange</gpxx:SymbolColor><gpxx:SymbolStyle>1</gpxx:SymbolStyle></gpxx:WaypointExtension></extensions></wpt><wpt lat="58.622933669" lon="24.872154282"><name>Tõhu binokkel</name><desc>Orientiir</desc><type>Orientiir</type><sym>Flag, Blue</sym><extensions><gpxx:WaypointExtension><gpxx:SymbolColor>Blue</gpxx:SymbolColor><gpxx:SymbolStyle>1</gpxx:SymbolStyle></gpxx:WaypointExtension></extensions></wpt><wpt lat="58.664530664" lon="24.826472111"><name>Riima soolakivi</name><desc>Soolakivi</desc><type>Soolakivi</type><sym>Forest</sym><extensions><gpxx:WaypointExtension><gpxx:SymbolColor>Green</gpxx:SymbolColor><gpxx:SymbolStyle>1</gpxx:SymbolStyle></gpxx:WaypointExtension></extensions></wpt><wpt lat="58.672736117" lon="24.905352109"><name>Rahingu pikenduse tiik</name><desc>Orientiir</desc><type>Orientiir</type><sym>Flag, Blue</sym><extensions><gpxx:WaypointExtension><gpxx:SymbolColor>Blue</gpxx:SymbolColor><gpxx:SymbolStyle>1</gpxx:SymbolStyle></gpxx:WaypointExtension></extensions></wpt><wpt lat="58.649919152" lon="24.832063305"><name>Raini vanemate maja</name><desc>Maja</desc><type>Maja</type><sym>Residence</sym><extensions><gpxx:WaypointExtension><gpxx:SymbolColor>Blue</gpxx:SymbolColor><gpxx:SymbolStyle>1</gpxx:SymbolStyle></gpxx:WaypointExtension></extensions></wpt><wpt lat="58.631107535" lon="24.815372576"><name>Anti maja</name><desc>Maja</desc><type>Maja</type><sym>Residence</sym><extensions><gpxx:WaypointExtension><gpxx:SymbolColor>Blue</gpxx:SymbolColor><gpxx:SymbolStyle>1</gpxx:SymbolStyle></gpxx:WaypointExtension></extensions></wpt><wpt lat="58.617852257" lon="24.830002378"><name>Oja lohk</name><desc>Orientiir</desc><type>Orientiir</type><sym>Flag, Blue</sym><extensions><gpxx:WaypointExtension><gpxx:SymbolColor>Blue</gpxx:SymbolColor><gpxx:SymbolStyle>1</gpxx:SymbolStyle></gpxx:WaypointExtension></extensions></wpt><wpt lat="58.61651926" lon="24.838267259"><name>Oja raudteeülesõit</name><desc>Sild / ületuskoht</desc><type>Sild / ületuskoht</type><sym>Bridge</sym><extensions><gpxx:WaypointExtension><gpxx:SymbolColor>Blue</gpxx:SymbolColor><gpxx:SymbolStyle>1</gpxx:SymbolStyle></gpxx:WaypointExtension></extensions></wpt><wpt lat="58.623639645" lon="24.856247615"><name>Linnameeste soolakivi</name><desc>Soolakivi</desc><type>Soolakivi</type><sym>Forest</sym><extensions><gpxx:WaypointExtension><gpxx:SymbolColor>Green</gpxx:SymbolColor><gpxx:SymbolStyle>1</gpxx:SymbolStyle></gpxx:WaypointExtension></extensions></wpt><wpt lat="58.591232107" lon="24.913514761"><name>Nikolai maja</name><desc>Maja</desc><type>Maja</type><sym>Residence</sym><extensions><gpxx:WaypointExtension><gpxx:SymbolColor>Blue</gpxx:SymbolColor><gpxx:SymbolStyle>1</gpxx:SymbolStyle></gpxx:WaypointExtension></extensions></wpt><wpt lat="58.591992107" lon="24.922502748"><name>Nikolai puka koht</name><desc>Jahitorn</desc><type>Jahitorn</type><sym>Hunting Area</sym><extensions><gpxx:WaypointExtension><gpxx:SymbolColor>Orange</gpxx:SymbolColor><gpxx:SymbolStyle>1</gpxx:SymbolStyle></gpxx:WaypointExtension></extensions></wpt><wpt lat="58.582912485" lon="24.946147748"><name>Villu saeraam</name><desc>Orientiir</desc><type>Orientiir</type><sym>Flag, Blue</sym><extensions><gpxx:WaypointExtension><gpxx:SymbolColor>Blue</gpxx:SymbolColor><gpxx:SymbolStyle>1</gpxx:SymbolStyle></gpxx:WaypointExtension></extensions></wpt><wpt lat="58.59017337" lon="24.953817613"><name>Männa lohk</name><desc>Orientiir</desc><type>Orientiir</type><sym>Flag, Blue</sym><extensions><gpxx:WaypointExtension><gpxx:SymbolColor>Blue</gpxx:SymbolColor><gpxx:SymbolStyle>1</gpxx:SymbolStyle></gpxx:WaypointExtension></extensions></wpt><wpt lat="58.624547263" lon="24.936079179"><name>Ridaelamu</name><desc>Maja</desc><type>Maja</type><sym>Residence</sym><extensions><gpxx:WaypointExtension><gpxx:SymbolColor>Blue</gpxx:SymbolColor><gpxx:SymbolStyle>1</gpxx:SymbolStyle></gpxx:WaypointExtension></extensions></wpt><wpt lat="58.621780917" lon="24.933089051"><name>Mini-Priidud</name><desc>Orientiir</desc><type>Orientiir</type><sym>Flag, Blue</sym><extensions><gpxx:WaypointExtension><gpxx:SymbolColor>Blue</gpxx:SymbolColor><gpxx:SymbolStyle>1</gpxx:SymbolStyle></gpxx:WaypointExtension></extensions></wpt><wpt lat="58.596064803" lon="24.953149831"><name>Taksojuhi maja</name><desc>Maja</desc><type>Maja</type><sym>Residence</sym><extensions><gpxx:WaypointExtension><gpxx:SymbolColor>Blue</gpxx:SymbolColor><gpxx:SymbolStyle>1</gpxx:SymbolStyle></gpxx:WaypointExtension></extensions></wpt><wpt lat="58.579587958" lon="24.946106395"><name>Vana jahimaja</name><desc>Jahimaja</desc><type>Jahimaja</type><sym>Lodge</sym><extensions><gpxx:WaypointExtension><gpxx:SymbolColor>Red</gpxx:SymbolColor><gpxx:SymbolStyle>1</gpxx:SymbolStyle></gpxx:WaypointExtension></extensions></wpt><wpt lat="58.586785018" lon="24.915585576"><name>Silveri kask</name><desc>Orientiir · Silver sõitis autoga kase pihta</desc><type>Orientiir</type><sym>Flag, Blue</sym><extensions><gpxx:WaypointExtension><gpxx:SymbolColor>Blue</gpxx:SymbolColor><gpxx:SymbolStyle>1</gpxx:SymbolStyle></gpxx:WaypointExtension></extensions></wpt><wpt lat="58.647430621" lon="24.876355094"><name>Kogunemiskoht</name><desc>Kogunemiskoht · Jahi kogunemiskoht</desc><type>Kogunemiskoht</type><sym>Meeting Point</sym><extensions><gpxx:WaypointExtension><gpxx:SymbolColor>Red</gpxx:SymbolColor><gpxx:SymbolStyle>1</gpxx:SymbolStyle></gpxx:WaypointExtension></extensions></wpt><wpt lat="58.667735909" lon="24.863740038"><name>Jahimaja</name><desc>Jahimaja · Pärnjõe Jahiselts · Jahimaja</desc><type>Jahimaja</type><sym>Lodge</sym><extensions><gpxx:WaypointExtension><gpxx:SymbolColor>Red</gpxx:SymbolColor><gpxx:SymbolStyle>1</gpxx:SymbolStyle></gpxx:WaypointExtension></extensions></wpt><trk><name>Hirve kraav</name><desc>Siht</desc><trkseg><trkpt lat="58.688139828" lon="24.868451541" /><trkpt lat="58.687270541" lon="24.87054237" /><trkpt lat="58.686944552" lon="24.87360892" /><trkpt lat="58.68636501" lon="24.874445252" /><trkpt lat="58.683648277" lon="24.874863418" /><trkpt lat="58.679337292" lon="24.882529792" /><trkpt lat="58.672344393" lon="24.902253283" /><trkpt lat="58.670315103" lon="24.903438086" /><trkpt lat="58.668938018" lon="24.906434942" /><trkpt lat="58.667742084" lon="24.908386383" /><trkpt lat="58.665893741" lon="24.909780269" /><trkpt lat="58.662776707" lon="24.915007342" /><trkpt lat="58.65984064" lon="24.914449788" /><trkpt lat="58.653133883" lon="24.902183589" /><trkpt lat="58.64918173" lon="24.8934718" /><trkpt lat="58.644902749" lon="24.89138097" /><trkpt lat="58.643053196" lon="24.89040525" /><trkpt lat="58.642037714" lon="24.889359835" /></trkseg></trk><trk><name>Vana aluste kruusakarjäär</name><desc>Ala</desc><trkseg><trkpt lat="58.621518513" lon="24.922608376" /><trkpt lat="58.617035768" lon="24.921198961" /><trkpt lat="58.616900105" lon="24.921897746" /><trkpt lat="58.617442753" lon="24.922857095" /><trkpt lat="58.618787005" lon="24.92367432" /><trkpt lat="58.620562818" lon="24.924704731" /><trkpt lat="58.621518513" lon="24.922608376" /></trkseg></trk><trk><name>Massu karjäär</name><desc>Ala</desc><trkseg><trkpt lat="58.633553976" lon="24.954686233" /><trkpt lat="58.631092721" lon="24.950230613" /><trkpt lat="58.630356685" lon="24.950276234" /><trkpt lat="58.629399024" lon="24.957864473" /><trkpt lat="58.629034948" lon="24.958518369" /><trkpt lat="58.629707695" lon="24.959111437" /><trkpt lat="58.630681176" lon="24.957818851" /><trkpt lat="58.631686287" lon="24.955978819" /><trkpt lat="58.633553976" lon="24.954686233" /></trkseg></trk><trk><name>Tamme väli</name><desc>Ala</desc><trkseg><trkpt lat="58.62810146" lon="24.94888972" /><trkpt lat="58.625532884" lon="24.948017108" /><trkpt lat="58.61860932" lon="24.952560719" /><trkpt lat="58.617606699" lon="24.952380179" /><trkpt lat="58.615147023" lon="24.953974955" /><trkpt lat="58.613251231" lon="24.955208653" /><trkpt lat="58.612284386" lon="24.970133274" /><trkpt lat="58.614167977" lon="24.970359357" /><trkpt lat="58.619465031" lon="24.967307201" /><trkpt lat="58.621318811" lon="24.963689822" /><trkpt lat="58.627173753" lon="24.959789845" /><trkpt lat="58.626908979" lon="24.954702913" /><trkpt lat="58.62810146" lon="24.94888972" /></trkseg></trk><trk><name>Karpo mets</name><desc>Ala</desc><trkseg><trkpt lat="58.641139309" lon="24.909895073" /><trkpt lat="58.641918366" lon="24.907782349" /><trkpt lat="58.643380386" lon="24.909997632" /><trkpt lat="58.643230986" lon="24.911341161" /><trkpt lat="58.642622705" lon="24.911679605" /><trkpt lat="58.641139309" lon="24.909895073" /></trkseg></trk><trk><name>Rabasiht</name><desc>Siht</desc><trkseg><trkpt lat="58.682913849" lon="24.868771695" /><trkpt lat="58.682899888" lon="24.864043466" /></trkseg></trk><trk><name>Verekivi siht</name><desc>Siht</desc><trkseg><trkpt lat="58.65539679" lon="24.871548922" /><trkpt lat="58.655973871" lon="24.907109376" /></trkseg></trk><trk><name>Miti mets</name><desc>Ala</desc><trkseg><trkpt lat="58.647440228" lon="24.939818368" /><trkpt lat="58.644316303" lon="24.939481504" /><trkpt lat="58.644743002" lon="24.946702154" /><trkpt lat="58.642975216" lon="24.946790033" /><trkpt lat="58.643036176" lon="24.952253122" /><trkpt lat="58.646899275" lon="24.952751097" /><trkpt lat="58.647440228" lon="24.939818368" /></trkseg></trk><trk><name>Nõelasilm</name><desc>Ala</desc><trkseg><trkpt lat="58.612662714" lon="24.830273665" /><trkpt lat="58.610197939" lon="24.830273665" /><trkpt lat="58.611350841" lon="24.833174709" /><trkpt lat="58.615763315" lon="24.851268049" /><trkpt lat="58.619420079" lon="24.865620561" /><trkpt lat="58.622996977" lon="24.871957048" /><trkpt lat="58.633447378" lon="24.871346301" /><trkpt lat="58.633089812" lon="24.856688409" /><trkpt lat="58.619340589" lon="24.843557382" /><trkpt lat="58.612662714" lon="24.830273665" /></trkseg></trk><trk><name>Saapasoo kraav</name><desc>Kraav</desc><trkseg><trkpt lat="58.681113341" lon="24.834916776" /><trkpt lat="58.671721279" lon="24.839636506" /><trkpt lat="58.670015483" lon="24.839501656" /><trkpt lat="58.662653904" lon="24.832309686" /><trkpt lat="58.660669468" lon="24.83084422" /><trkpt lat="58.658508093" lon="24.831294914" /><trkpt lat="58.657801712" lon="24.831269874" /><trkpt lat="58.648995439" lon="24.81866015" /><trkpt lat="58.62668318" lon="24.804178468" /></trkseg></trk><trk><name>Ussama</name><desc>Ala</desc><trkseg><trkpt lat="58.658389495" lon="24.831021476" /><trkpt lat="58.663081941" lon="24.815191318" /><trkpt lat="58.644029873" lon="24.807467419" /><trkpt lat="58.636589188" lon="24.797984622" /><trkpt lat="58.631534982" lon="24.797602251" /><trkpt lat="58.629226521" lon="24.805784989" /><trkpt lat="58.64892315" lon="24.818479711" /><trkpt lat="58.658389495" lon="24.831021476" /></trkseg></trk><trk><name>Viluvere koolimaja tagune</name><desc>Ala</desc><trkseg><trkpt lat="58.64449957" lon="24.8671777" /><trkpt lat="58.64449957" lon="24.859377436" /><trkpt lat="58.648362587" lon="24.859190237" /><trkpt lat="58.650861958" lon="24.852825214" /><trkpt lat="58.645765648" lon="24.849018691" /><trkpt lat="58.63313528" lon="24.850204327" /><trkpt lat="58.63313528" lon="24.856444539" /><trkpt lat="58.64449957" lon="24.8671777" /></trkseg></trk><trk><name>Aadamsoo karli siht</name><desc>Siht</desc><trkseg><trkpt lat="58.618420635" lon="24.913496051" /><trkpt lat="58.619170983" lon="24.908926818" /><trkpt lat="58.618817832" lon="24.893118369" /></trkseg></trk><trk><name>Aluste soo</name><desc>Ala</desc><trkseg><trkpt lat="58.603521847" lon="24.877821602" /><trkpt lat="58.599609282" lon="24.896709615" /><trkpt lat="58.600634948" lon="24.897001317" /><trkpt lat="58.600786896" lon="24.902324969" /><trkpt lat="58.603939671" lon="24.905971304" /><trkpt lat="58.621673469" lon="24.916253974" /><trkpt lat="58.620838245" lon="24.894667665" /><trkpt lat="58.603521847" lon="24.877821602" /></trkseg></trk><trk><name>Manguse soo</name><desc>Ala</desc><trkseg><trkpt lat="58.599900772" lon="24.873960784" /><trkpt lat="58.623141637" lon="24.872137616" /><trkpt lat="58.628493962" lon="24.883076622" /><trkpt lat="58.628797615" lon="24.901745852" /><trkpt lat="58.625950761" lon="24.90145415" /><trkpt lat="58.620142461" lon="24.893650995" /><trkpt lat="58.599900772" lon="24.873960784" /></trkseg></trk><trk><name>Manguse soo siht</name><desc>Siht</desc><trkseg><trkpt lat="58.616804026" lon="24.87267131" /><trkpt lat="58.616841389" lon="24.890755418" /></trkseg></trk><trk><name>Vana koksi tee</name><desc>Siht</desc><trkseg><trkpt lat="58.667196039" lon="24.860123534" /><trkpt lat="58.677456413" lon="24.857825438" /></trkseg></trk><trk><name>Rahingu tee pikendus</name><desc>Siht</desc><trkseg><trkpt lat="58.672331857" lon="24.902282539" /><trkpt lat="58.672605982" lon="24.916570972" /></trkseg></trk><trk><name>Rahingu tee</name><desc>Siht</desc><trkseg><trkpt lat="58.671978333" lon="24.870040534" /><trkpt lat="58.672340158" lon="24.901837217" /></trkseg></trk><trk><name>Uue tee pikendus</name><desc>Siht</desc><trkseg><trkpt lat="58.661690145" lon="24.914880774" /><trkpt lat="58.661966583" lon="24.922988093" /></trkseg></trk><trk><name>Uus tee</name><desc>Siht</desc><trkseg><trkpt lat="58.660712699" lon="24.870567865" /><trkpt lat="58.661626917" lon="24.914626808" /></trkseg></trk><trk><name>Pärtli aare siht</name><desc>Siht</desc><trkseg><trkpt lat="58.655962116" lon="24.907514273" /><trkpt lat="58.656165748" lon="24.923735551" /></trkseg></trk><trk><name>Vana raudtee</name><desc>Siht</desc><trkseg><trkpt lat="58.645254014" lon="24.868456428" /><trkpt lat="58.646841344" lon="24.871064782" /><trkpt lat="58.647378974" lon="24.873525496" /><trkpt lat="58.647455778" lon="24.876478353" /><trkpt lat="58.649299008" lon="24.921017279" /><trkpt lat="58.649452607" lon="24.924757559" /><trkpt lat="58.64904301" lon="24.936322915" /><trkpt lat="58.6480958" lon="24.958321696" /></trkseg></trk><trk><name>Keeru siht</name><desc>Siht</desc><trkseg><trkpt lat="58.647058069" lon="24.817238006" /><trkpt lat="58.647411218" lon="24.826690012" /></trkseg></trk><trk><name>Via baltica</name><desc>Siht</desc><trkseg><trkpt lat="58.635140877" lon="24.809753717" /><trkpt lat="58.635047276" lon="24.815124122" /><trkpt lat="58.627157154" lon="24.831646471" /><trkpt lat="58.626528542" lon="24.833907695" /></trkseg></trk><trk><name>Naima siht</name><desc>Siht</desc><trkseg><trkpt lat="58.636694902" lon="24.839265442" /><trkpt lat="58.637867152" lon="24.831740565" /><trkpt lat="58.643256577" lon="24.822473823" /><trkpt lat="58.643111581" lon="24.814856048" /></trkseg></trk><trk><name>Hobuseraud</name><desc>Siht</desc><trkseg><trkpt lat="58.621318028" lon="24.800777459" /><trkpt lat="58.621164392" lon="24.813636248" /><trkpt lat="58.625828027" lon="24.813804888" /><trkpt lat="58.626563179" lon="24.811992009" /><trkpt lat="58.62671679" lon="24.804276737" /></trkseg></trk><trk><name>Punase männiku siht</name><desc>Siht</desc><trkseg><trkpt lat="58.633364903" lon="24.871406277" /><trkpt lat="58.634054374" lon="24.904398054" /></trkseg></trk><trk><name>Gaasitrass</name><desc>Siht</desc><trkseg><trkpt lat="58.62090664" lon="24.894629964" /><trkpt lat="58.621937917" lon="24.918401925" /><trkpt lat="58.621449421" lon="24.923693272" /></trkseg></trk><trk><name>Tõhu kraav</name><desc>Kraav</desc><trkseg><trkpt lat="58.600024618" lon="24.873660626" /><trkpt lat="58.623101854" lon="24.872226785" /></trkseg></trk><trk><name>Filtri põllud</name><desc>Ala</desc><trkseg><trkpt lat="58.603494325" lon="24.87752611" /><trkpt lat="58.601607556" lon="24.875459656" /><trkpt lat="58.597466439" lon="24.895151741" /><trkpt lat="58.599467407" lon="24.896391611" /><trkpt lat="58.603494325" lon="24.87752611" /></trkseg></trk><trk><name>Aluste karjatee</name><desc>Siht</desc><trkseg><trkpt lat="58.61780045" lon="24.939172477" /><trkpt lat="58.619493316" lon="24.951924291" /></trkseg></trk><trk><name>Pilli siht</name><desc>Siht</desc><trkseg><trkpt lat="58.612262613" lon="24.94065841" /><trkpt lat="58.613157663" lon="24.953092244" /><trkpt lat="58.612170597" lon="24.970136555" /></trkseg></trk><trk><name>Kirbu mets</name><desc>Ala</desc><trkseg><trkpt lat="58.592932797" lon="24.924132376" /><trkpt lat="58.594360554" lon="24.923496915" /><trkpt lat="58.594195019" lon="24.921550815" /><trkpt lat="58.595912398" lon="24.920895495" /><trkpt lat="58.597919347" lon="24.923238759" /><trkpt lat="58.598240034" lon="24.928143723" /><trkpt lat="58.595384778" lon="24.929077056" /><trkpt lat="58.595498579" lon="24.93088415" /><trkpt lat="58.593532876" lon="24.931559326" /><trkpt lat="58.592932797" lon="24.924132376" /></trkseg></trk><trk><name>Kiisa mets</name><desc>Ala</desc><trkseg><trkpt lat="58.591271541" lon="24.922798422" /><trkpt lat="58.588610675" lon="24.923712583" /><trkpt lat="58.588807782" lon="24.91649385" /><trkpt lat="58.586885932" lon="24.915926437" /><trkpt lat="58.584898265" lon="24.919740705" /><trkpt lat="58.584159022" lon="24.922010351" /><trkpt lat="58.584175449" lon="24.924941978" /><trkpt lat="58.584766845" lon="24.924847408" /><trkpt lat="58.58499683" lon="24.926234412" /><trkpt lat="58.585440367" lon="24.926423551" /><trkpt lat="58.585637493" lon="24.934808634" /><trkpt lat="58.582516202" lon="24.935565181" /><trkpt lat="58.582598345" lon="24.942657825" /><trkpt lat="58.58473399" lon="24.94272087" /><trkpt lat="58.587707249" lon="24.940924068" /><trkpt lat="58.588758506" lon="24.935817365" /><trkpt lat="58.592371963" lon="24.93477711" /><trkpt lat="58.591271541" lon="24.922798422" /></trkseg></trk><trk><name>Veversoni ringtee</name><desc>Metsatee · Vaatlusring</desc><trkseg><trkpt lat="58.638712998" lon="24.905802014" /><trkpt lat="58.63396859" lon="24.904600141" /><trkpt lat="58.633253457" lon="24.871305504" /><trkpt lat="58.644495348" lon="24.870665328" /></trkseg></trk><trk><name>Pärnjõe jahipiirkonna piir</name><desc>Ametlik EELIS jahipiirkond JAH1000125</desc><type>Jahipiirkonna piir</type><trkseg><trkpt lat="58.63232226" lon="24.79742694"></trkpt><trkpt lat="58.63366652" lon="24.79752313"></trkpt><trkpt lat="58.63551135" lon="24.79765355"></trkpt><trkpt lat="58.63656894" lon="24.79772897"></trkpt><trkpt lat="58.63673530" lon="24.79774131"></trkpt><trkpt lat="58.63736907" lon="24.79858229"></trkpt><trkpt lat="58.63826664" lon="24.79977704"></trkpt><trkpt lat="58.63948256" lon="24.80139242"></trkpt><trkpt lat="58.64164245" lon="24.80437784"></trkpt><trkpt lat="58.64274356" lon="24.80580847"></trkpt><trkpt lat="58.64402089" lon="24.80757107"></trkpt><trkpt lat="58.64934806" lon="24.80950168"></trkpt><trkpt lat="58.65229556" lon="24.81057074"></trkpt><trkpt lat="58.65234151" lon="24.81058891"></trkpt><trkpt lat="58.65309619" lon="24.81086018"></trkpt><trkpt lat="58.65522525" lon="24.81163385"></trkpt><trkpt lat="58.65554847" lon="24.81174972"></trkpt><trkpt lat="58.65673161" lon="24.81217928"></trkpt><trkpt lat="58.65705037" lon="24.81229505"></trkpt><trkpt lat="58.65911865" lon="24.81304467"></trkpt><trkpt lat="58.66111426" lon="24.81376987"></trkpt><trkpt lat="58.66115874" lon="24.81378517"></trkpt><trkpt lat="58.66231074" lon="24.81420273"></trkpt><trkpt lat="58.66236241" lon="24.81425812"></trkpt><trkpt lat="58.66305320" lon="24.81499581"></trkpt><trkpt lat="58.66349237" lon="24.81533976"></trkpt><trkpt lat="58.66370678" lon="24.81550734"></trkpt><trkpt lat="58.66387075" lon="24.81566234"></trkpt><trkpt lat="58.66401698" lon="24.81580266"></trkpt><trkpt lat="58.66452029" lon="24.81634208"></trkpt><trkpt lat="58.66519775" lon="24.81707099"></trkpt><trkpt lat="58.66554317" lon="24.81743561"></trkpt><trkpt lat="58.66584579" lon="24.81775360"></trkpt><trkpt lat="58.66647299" lon="24.81843860"></trkpt><trkpt lat="58.66658514" lon="24.81856388"></trkpt><trkpt lat="58.66690833" lon="24.81891660"></trkpt><trkpt lat="58.66715619" lon="24.81919910"></trkpt><trkpt lat="58.66773755" lon="24.81984885"></trkpt><trkpt lat="58.66783936" lon="24.81996249"></trkpt><trkpt lat="58.66845915" lon="24.82064454"></trkpt><trkpt lat="58.66913495" lon="24.82139640"></trkpt><trkpt lat="58.66977971" lon="24.82212189"></trkpt><trkpt lat="58.67028590" lon="24.82267297"></trkpt><trkpt lat="58.67048376" lon="24.82287161"></trkpt><trkpt lat="58.67097652" lon="24.82343096"></trkpt><trkpt lat="58.67121847" lon="24.82370483"></trkpt><trkpt lat="58.67157701" lon="24.82410697"></trkpt><trkpt lat="58.67222909" lon="24.82484700"></trkpt><trkpt lat="58.67231764" lon="24.82494323"></trkpt><trkpt lat="58.67238877" lon="24.82497344"></trkpt><trkpt lat="58.67259382" lon="24.82520937"></trkpt><trkpt lat="58.67271768" lon="24.82536065"></trkpt><trkpt lat="58.67290051" lon="24.82558465"></trkpt><trkpt lat="58.67340046" lon="24.82617848"></trkpt><trkpt lat="58.67391808" lon="24.82679842"></trkpt><trkpt lat="58.67457882" lon="24.82757584"></trkpt><trkpt lat="58.67472625" lon="24.82775907"></trkpt><trkpt lat="58.67504786" lon="24.82812334"></trkpt><trkpt lat="58.67602151" lon="24.82923064"></trkpt><trkpt lat="58.67773608" lon="24.83112318"></trkpt><trkpt lat="58.67962179" lon="24.83320261"></trkpt><trkpt lat="58.68114856" lon="24.83494266"></trkpt><trkpt lat="58.68165601" lon="24.83551982"></trkpt><trkpt lat="58.68173567" lon="24.83561019"></trkpt><trkpt lat="58.68188613" lon="24.83578216"></trkpt><trkpt lat="58.68323142" lon="24.83731546"></trkpt><trkpt lat="58.68584233" lon="24.84028917"></trkpt><trkpt lat="58.68905823" lon="24.84662317"></trkpt><trkpt lat="58.69220048" lon="24.85281383"></trkpt><trkpt lat="58.69396805" lon="24.85629692"></trkpt><trkpt lat="58.69410153" lon="24.85655997"></trkpt><trkpt lat="58.69412060" lon="24.85659755"></trkpt><trkpt lat="58.69549449" lon="24.85937761"></trkpt><trkpt lat="58.69551941" lon="24.85942961"></trkpt><trkpt lat="58.69638594" lon="24.86118387"></trkpt><trkpt lat="58.69672317" lon="24.86186595"></trkpt><trkpt lat="58.69701493" lon="24.86245842"></trkpt><trkpt lat="58.69722655" lon="24.86281196"></trkpt><trkpt lat="58.69769011" lon="24.86371132"></trkpt><trkpt lat="58.69789824" lon="24.86414187"></trkpt><trkpt lat="58.69834575" lon="24.86499519"></trkpt><trkpt lat="58.69841588" lon="24.86517394"></trkpt><trkpt lat="58.69845363" lon="24.86530621"></trkpt><trkpt lat="58.69844294" lon="24.86534878"></trkpt><trkpt lat="58.69725916" lon="24.86747209"></trkpt><trkpt lat="58.69582529" lon="24.87009434"></trkpt><trkpt lat="58.69520796" lon="24.87128654"></trkpt><trkpt lat="58.69404324" lon="24.87343278"></trkpt><trkpt lat="58.69279572" lon="24.87573094"></trkpt><trkpt lat="58.69217728" lon="24.87686011"></trkpt><trkpt lat="58.69106530" lon="24.87888456"></trkpt><trkpt lat="58.69002340" lon="24.88087069"></trkpt><trkpt lat="58.68966222" lon="24.88153235"></trkpt><trkpt lat="58.68871770" lon="24.88318113"></trkpt><trkpt lat="58.69639746" lon="24.90799629"></trkpt><trkpt lat="58.69569824" lon="24.90810657"></trkpt><trkpt lat="58.69360960" lon="24.90842336"></trkpt><trkpt lat="58.68909464" lon="24.90910512"></trkpt><trkpt lat="58.68649440" lon="24.90947697"></trkpt><trkpt lat="58.68610412" lon="24.90982071"></trkpt><trkpt lat="58.68470145" lon="24.91105990"></trkpt><trkpt lat="58.68233722" lon="24.91314713"></trkpt><trkpt lat="58.68224639" lon="24.91422063"></trkpt><trkpt lat="58.68222696" lon="24.91444557"></trkpt><trkpt lat="58.68212971" lon="24.91558454"></trkpt><trkpt lat="58.67789927" lon="24.91218365"></trkpt><trkpt lat="58.67762471" lon="24.91631962"></trkpt><trkpt lat="58.67752832" lon="24.91754406"></trkpt><trkpt lat="58.67572927" lon="24.91725713"></trkpt><trkpt lat="58.67512810" lon="24.91716146"></trkpt><trkpt lat="58.67452554" lon="24.91705148"></trkpt><trkpt lat="58.67264066" lon="24.91671385"></trkpt><trkpt lat="58.67264133" lon="24.91682799"></trkpt><trkpt lat="58.67255819" lon="24.91681725"></trkpt><trkpt lat="58.67168834" lon="24.91709683"></trkpt><trkpt lat="58.67102292" lon="24.91725910"></trkpt><trkpt lat="58.67069670" lon="24.91736750"></trkpt><trkpt lat="58.67001038" lon="24.91775172"></trkpt><trkpt lat="58.66894425" lon="24.91909016"></trkpt><trkpt lat="58.66826514" lon="24.91991953"></trkpt><trkpt lat="58.66799829" lon="24.92024626"></trkpt><trkpt lat="58.66712712" lon="24.92133296"></trkpt><trkpt lat="58.66641055" lon="24.92220405"></trkpt><trkpt lat="58.66638957" lon="24.92222917"></trkpt><trkpt lat="58.66541148" lon="24.92350976"></trkpt><trkpt lat="58.66511311" lon="24.92387839"></trkpt><trkpt lat="58.66494517" lon="24.92408787"></trkpt><trkpt lat="58.66446302" lon="24.92397244"></trkpt><trkpt lat="58.66354808" lon="24.92370010"></trkpt><trkpt lat="58.66284367" lon="24.92349609"></trkpt><trkpt lat="58.66245924" lon="24.92343174"></trkpt><trkpt lat="58.66234276" lon="24.92330317"></trkpt><trkpt lat="58.66230884" lon="24.92326804"></trkpt><trkpt lat="58.66216580" lon="24.92311310"></trkpt><trkpt lat="58.66216284" lon="24.92331838"></trkpt><trkpt lat="58.66215789" lon="24.92359491"></trkpt><trkpt lat="58.66215468" lon="24.92383440"></trkpt><trkpt lat="58.66215180" lon="24.92402827"></trkpt><trkpt lat="58.66180048" lon="24.92700800"></trkpt><trkpt lat="58.66127969" lon="24.93121811"></trkpt><trkpt lat="58.66132829" lon="24.93127930"></trkpt><trkpt lat="58.66168890" lon="24.93196486"></trkpt><trkpt lat="58.66361392" lon="24.93557298"></trkpt><trkpt lat="58.66369008" lon="24.93572619"></trkpt><trkpt lat="58.66465660" lon="24.93768883"></trkpt><trkpt lat="58.66446153" lon="24.93957755"></trkpt><trkpt lat="58.66432207" lon="24.94097144"></trkpt><trkpt lat="58.66433149" lon="24.94110575"></trkpt><trkpt lat="58.66433538" lon="24.94118287"></trkpt><trkpt lat="58.66423069" lon="24.94228961"></trkpt><trkpt lat="58.66420985" lon="24.94249726"></trkpt><trkpt lat="58.66393532" lon="24.94528226"></trkpt><trkpt lat="58.66385236" lon="24.94605585"></trkpt><trkpt lat="58.66444518" lon="24.94627441"></trkpt><trkpt lat="58.66510456" lon="24.94653472"></trkpt><trkpt lat="58.66575652" lon="24.94679484"></trkpt><trkpt lat="58.66640847" lon="24.94705497"></trkpt><trkpt lat="58.66685142" lon="24.94724383"></trkpt><trkpt lat="58.66695216" lon="24.94728650"></trkpt><trkpt lat="58.66706920" lon="24.94733531"></trkpt><trkpt lat="58.66758482" lon="24.94754327"></trkpt><trkpt lat="58.66773299" lon="24.94760149"></trkpt><trkpt lat="58.66838478" lon="24.94788446"></trkpt><trkpt lat="58.66902782" lon="24.94814439"></trkpt><trkpt lat="58.67094052" lon="24.94893234"></trkpt><trkpt lat="58.67157759" lon="24.94919499"></trkpt><trkpt lat="58.67221908" lon="24.94946348"></trkpt><trkpt lat="58.67285757" lon="24.94973475"></trkpt><trkpt lat="58.67350217" lon="24.94998338"></trkpt><trkpt lat="58.67415096" lon="24.95026922"></trkpt><trkpt lat="58.67480418" lon="24.95055804"></trkpt><trkpt lat="58.67546517" lon="24.95080143"></trkpt><trkpt lat="58.67613055" lon="24.95105351"></trkpt><trkpt lat="58.67741307" lon="24.95165055"></trkpt><trkpt lat="58.67803965" lon="24.95192443"></trkpt><trkpt lat="58.67868406" lon="24.95219881"></trkpt><trkpt lat="58.68062666" lon="24.95295948"></trkpt><trkpt lat="58.68127563" lon="24.95321975"></trkpt><trkpt lat="58.68188907" lon="24.95346194"></trkpt><trkpt lat="58.68241654" lon="24.95367326"></trkpt><trkpt lat="58.68282987" lon="24.95384721"></trkpt><trkpt lat="58.68285060" lon="24.95385634"></trkpt><trkpt lat="58.68285566" lon="24.95397634"></trkpt><trkpt lat="58.68284433" lon="24.95410160"></trkpt><trkpt lat="58.68290623" lon="24.95437155"></trkpt><trkpt lat="58.68300441" lon="24.95475951"></trkpt><trkpt lat="58.68303906" lon="24.95509721"></trkpt><trkpt lat="58.68304863" lon="24.95520877"></trkpt><trkpt lat="58.68303743" lon="24.95531691"></trkpt><trkpt lat="58.68303102" lon="24.95537952"></trkpt><trkpt lat="58.68298781" lon="24.95579501"></trkpt><trkpt lat="58.68298673" lon="24.95594052"></trkpt><trkpt lat="58.68296823" lon="24.95603134"></trkpt><trkpt lat="58.68294172" lon="24.95619899"></trkpt><trkpt lat="58.68289732" lon="24.95637472"></trkpt><trkpt lat="58.68284700" lon="24.95654742"></trkpt><trkpt lat="58.68283180" lon="24.95659267"></trkpt><trkpt lat="58.68280117" lon="24.95671455"></trkpt><trkpt lat="58.68278046" lon="24.95690233"></trkpt><trkpt lat="58.68280005" lon="24.95706554"></trkpt><trkpt lat="58.68290416" lon="24.95745366"></trkpt><trkpt lat="58.68293452" lon="24.95756865"></trkpt><trkpt lat="58.68295912" lon="24.95765779"></trkpt><trkpt lat="58.68297784" lon="24.95773822"></trkpt><trkpt lat="58.68298639" lon="24.95778697"></trkpt><trkpt lat="58.68302073" lon="24.95796485"></trkpt><trkpt lat="58.68302432" lon="24.95808196"></trkpt><trkpt lat="58.68299652" lon="24.95822389"></trkpt><trkpt lat="58.68288922" lon="24.95846352"></trkpt><trkpt lat="58.68264589" lon="24.95901049"></trkpt><trkpt lat="58.68246204" lon="24.95935361"></trkpt><trkpt lat="58.68236557" lon="24.95953645"></trkpt><trkpt lat="58.68229052" lon="24.95963713"></trkpt><trkpt lat="58.68220226" lon="24.95971461"></trkpt><trkpt lat="58.68205468" lon="24.95977619"></trkpt><trkpt lat="58.68190424" lon="24.95982343"></trkpt><trkpt lat="58.68173745" lon="24.95987021"></trkpt><trkpt lat="58.68161855" lon="24.95987265"></trkpt><trkpt lat="58.68151125" lon="24.95991251"></trkpt><trkpt lat="58.68145749" lon="24.95994813"></trkpt><trkpt lat="58.68134523" lon="24.96005634"></trkpt><trkpt lat="58.68126550" lon="24.96018542"></trkpt><trkpt lat="58.68120163" lon="24.96038057"></trkpt><trkpt lat="58.68115146" lon="24.96053329"></trkpt><trkpt lat="58.68112621" lon="24.96072951"></trkpt><trkpt lat="58.68110781" lon="24.96100581"></trkpt><trkpt lat="58.68108248" lon="24.96121343"></trkpt><trkpt lat="58.68105575" lon="24.96160936"></trkpt><trkpt lat="58.68099242" lon="24.96212985"></trkpt><trkpt lat="58.68097976" lon="24.96223223"></trkpt><trkpt lat="58.68091143" lon="24.96262702"></trkpt><trkpt lat="58.68084421" lon="24.96307034"></trkpt><trkpt lat="58.68077959" lon="24.96336534"></trkpt><trkpt lat="58.68076724" lon="24.96342778"></trkpt><trkpt lat="58.68071905" lon="24.96351206"></trkpt><trkpt lat="58.68067129" lon="24.96353928"></trkpt><trkpt lat="58.68051282" lon="24.96366618"></trkpt><trkpt lat="58.68039313" lon="24.96377417"></trkpt><trkpt lat="58.68032697" lon="24.96387793"></trkpt><trkpt lat="58.68027659" lon="24.96405632"></trkpt><trkpt lat="58.68021753" lon="24.96420308"></trkpt><trkpt lat="58.68015986" lon="24.96436415"></trkpt><trkpt lat="58.68004951" lon="24.96441532"></trkpt><trkpt lat="58.67987132" lon="24.96439613"></trkpt><trkpt lat="58.67977320" lon="24.96440198"></trkpt><trkpt lat="58.67971372" lon="24.96440605"></trkpt><trkpt lat="58.67968089" lon="24.96442511"></trkpt><trkpt lat="58.67964504" lon="24.96444981"></trkpt><trkpt lat="58.67962508" lon="24.96453486"></trkpt><trkpt lat="58.67961951" lon="24.96468310"></trkpt><trkpt lat="58.67962872" lon="24.96484315"></trkpt><trkpt lat="58.67963143" lon="24.96487747"></trkpt><trkpt lat="58.67964687" lon="24.96519750"></trkpt><trkpt lat="58.67965259" lon="24.96542595"></trkpt><trkpt lat="58.67965074" lon="24.96547441"></trkpt><trkpt lat="58.67961722" lon="24.96558477"></trkpt><trkpt lat="58.67956901" lon="24.96567190"></trkpt><trkpt lat="58.67951359" lon="24.96573029"></trkpt><trkpt lat="58.67938680" lon="24.96579242"></trkpt><trkpt lat="58.67929424" lon="24.96584978"></trkpt><trkpt lat="58.67919851" lon="24.96593274"></trkpt><trkpt lat="58.67912767" lon="24.96606490"></trkpt><trkpt lat="58.67902932" lon="24.96629903"></trkpt><trkpt lat="58.67888479" lon="24.96674589"></trkpt><trkpt lat="58.67873667" lon="24.96727540"></trkpt><trkpt lat="58.67861993" lon="24.96758320"></trkpt><trkpt lat="58.67859456" lon="24.96759676"></trkpt><trkpt lat="58.67850802" lon="24.96764288"></trkpt><trkpt lat="58.67842497" lon="24.96762060"></trkpt><trkpt lat="58.67832988" lon="24.96761797"></trkpt><trkpt lat="58.67820495" lon="24.96763163"></trkpt><trkpt lat="58.67802905" lon="24.96770380"></trkpt><trkpt lat="58.67793481" lon="24.96778679"></trkpt><trkpt lat="58.67789549" lon="24.96787701"></trkpt><trkpt lat="58.67788072" lon="24.96806208"></trkpt><trkpt lat="58.67788738" lon="24.96816499"></trkpt><trkpt lat="58.67793101" lon="24.96829175"></trkpt><trkpt lat="58.67797120" lon="24.96848119"></trkpt><trkpt lat="58.67797045" lon="24.96858104"></trkpt><trkpt lat="58.67795734" lon="24.96874333"></trkpt><trkpt lat="58.67788964" lon="24.96885273"></trkpt><trkpt lat="58.67782076" lon="24.96892216"></trkpt><trkpt lat="58.67757665" lon="24.96917220"></trkpt><trkpt lat="58.67749418" lon="24.96926978"></trkpt><trkpt lat="58.67732225" lon="24.96960456"></trkpt><trkpt lat="58.67726603" lon="24.96976850"></trkpt><trkpt lat="58.67718152" lon="24.96994021"></trkpt><trkpt lat="58.67697026" lon="24.97016832"></trkpt><trkpt lat="58.67680295" lon="24.97028352"></trkpt><trkpt lat="58.67673319" lon="24.97027302"></trkpt><trkpt lat="58.67669755" lon="24.97026918"></trkpt><trkpt lat="58.67658274" lon="24.97032020"></trkpt><trkpt lat="58.67648856" lon="24.97039463"></trkpt><trkpt lat="58.67644521" lon="24.97042766"></trkpt><trkpt lat="58.67640275" lon="24.97054062"></trkpt><trkpt lat="58.67637704" lon="24.97059982"></trkpt><trkpt lat="58.67630347" lon="24.97070050"></trkpt><trkpt lat="58.67620855" lon="24.97087191"></trkpt><trkpt lat="58.67611402" lon="24.97099198"></trkpt><trkpt lat="58.67600548" lon="24.97100037"></trkpt><trkpt lat="58.67593707" lon="24.97100703"></trkpt><trkpt lat="58.67587290" lon="24.97104234"></trkpt><trkpt lat="58.67569678" lon="24.97114302"></trkpt><trkpt lat="58.67552698" lon="24.97119536"></trkpt><trkpt lat="58.67539160" lon="24.97121442"></trkpt><trkpt lat="58.67537076" lon="24.97121955"></trkpt><trkpt lat="58.67532311" lon="24.97123249"></trkpt><trkpt lat="58.67521837" lon="24.97132659"></trkpt><trkpt lat="58.67501700" lon="24.97142656"></trkpt><trkpt lat="58.67493668" lon="24.97143574"></trkpt><trkpt lat="58.67478345" lon="24.97145716"></trkpt><trkpt lat="58.67468391" lon="24.97145439"></trkpt><trkpt lat="58.67459211" lon="24.97140904"></trkpt><trkpt lat="58.67456257" lon="24.97138539"></trkpt><trkpt lat="58.67449815" lon="24.97125806"></trkpt><trkpt lat="58.67440801" lon="24.97118993"></trkpt><trkpt lat="58.67434309" lon="24.97112821"></trkpt><trkpt lat="58.67420357" lon="24.97090749"></trkpt><trkpt lat="58.67405907" lon="24.97075797"></trkpt><trkpt lat="58.67392449" lon="24.97067149"></trkpt><trkpt lat="58.67385474" lon="24.97065814"></trkpt><trkpt lat="58.67373857" lon="24.97069200"></trkpt><trkpt lat="58.67360298" lon="24.97073959"></trkpt><trkpt lat="58.67355649" lon="24.97079536"></trkpt><trkpt lat="58.67341681" lon="24.97099119"></trkpt><trkpt lat="58.67332325" lon="24.97117975"></trkpt><trkpt lat="58.67321150" lon="24.97141630"></trkpt><trkpt lat="58.67310918" lon="24.97158464"></trkpt><trkpt lat="58.67290249" lon="24.97179858"></trkpt><trkpt lat="58.67276345" lon="24.97190883"></trkpt><trkpt lat="58.67263048" lon="24.97200213"></trkpt><trkpt lat="58.67255620" lon="24.97200007"></trkpt><trkpt lat="58.67246283" lon="24.97196609"></trkpt><trkpt lat="58.67242579" lon="24.97195079"></trkpt><trkpt lat="58.67235448" lon="24.97194881"></trkpt><trkpt lat="58.67218353" lon="24.97195546"></trkpt><trkpt lat="58.67185800" lon="24.97196638"></trkpt><trkpt lat="58.67179829" lon="24.97200181"></trkpt><trkpt lat="58.67173378" lon="24.97208275"></trkpt><trkpt lat="58.67169478" lon="24.97213016"></trkpt><trkpt lat="58.67159310" lon="24.97221292"></trkpt><trkpt lat="58.67152004" lon="24.97224512"></trkpt><trkpt lat="58.67141864" lon="24.97229080"></trkpt><trkpt lat="58.67129584" lon="24.97241577"></trkpt><trkpt lat="58.67124477" lon="24.97248852"></trkpt><trkpt lat="58.67115543" lon="24.97270856"></trkpt><trkpt lat="58.67097991" lon="24.97312305"></trkpt><trkpt lat="58.67087102" lon="24.97337392"></trkpt><trkpt lat="58.67085213" lon="24.97351319"></trkpt><trkpt lat="58.67081983" lon="24.97365779"></trkpt><trkpt lat="58.67079054" lon="24.97379676"></trkpt><trkpt lat="58.67071113" lon="24.97388299"></trkpt><trkpt lat="58.67058725" lon="24.97395371"></trkpt><trkpt lat="58.67045312" lon="24.97400417"></trkpt><trkpt lat="58.67035935" lon="24.97402438"></trkpt><trkpt lat="58.67025554" lon="24.97399581"></trkpt><trkpt lat="58.67012848" lon="24.97370128"></trkpt><trkpt lat="58.67008623" lon="24.97358884"></trkpt><trkpt lat="58.67002362" lon="24.97341878"></trkpt><trkpt lat="58.66999942" lon="24.97327832"></trkpt><trkpt lat="58.66999677" lon="24.97323545"></trkpt><trkpt lat="58.67001135" lon="24.97287926"></trkpt><trkpt lat="58.66997954" lon="24.97276141"></trkpt><trkpt lat="58.66990558" lon="24.97251971"></trkpt><trkpt lat="58.66989932" lon="24.97236549"></trkpt><trkpt lat="58.66989919" lon="24.97218576"></trkpt><trkpt lat="58.66987027" lon="24.97207940"></trkpt><trkpt lat="58.66984378" lon="24.97204443"></trkpt><trkpt lat="58.66982309" lon="24.97202959"></trkpt><trkpt lat="58.66974159" lon="24.97199879"></trkpt><trkpt lat="58.66961381" lon="24.97199524"></trkpt><trkpt lat="58.66957540" lon="24.97196564"></trkpt><trkpt lat="58.66942413" lon="24.97192435"></trkpt><trkpt lat="58.66939734" lon="24.97192931"></trkpt><trkpt lat="58.66933925" lon="24.97194766"></trkpt><trkpt lat="58.66928042" lon="24.97206299"></trkpt><trkpt lat="58.66920921" lon="24.97224358"></trkpt><trkpt lat="58.66914082" lon="24.97224738"></trkpt><trkpt lat="58.66896152" lon="24.97217964"></trkpt><trkpt lat="58.66885900" lon="24.97217678"></trkpt><trkpt lat="58.66867184" lon="24.97216587"></trkpt><trkpt lat="58.66857824" lon="24.97216327"></trkpt><trkpt lat="58.66839698" lon="24.97215822"></trkpt><trkpt lat="58.66826218" lon="24.97210027"></trkpt><trkpt lat="58.66823255" lon="24.97208804"></trkpt><trkpt lat="58.66812129" lon="24.97206212"></trkpt><trkpt lat="58.66804270" lon="24.97203996"></trkpt><trkpt lat="58.66790002" lon="24.97204170"></trkpt><trkpt lat="58.66778837" lon="24.97206712"></trkpt><trkpt lat="58.66758418" lon="24.97214702"></trkpt><trkpt lat="58.66750996" lon="24.97213640"></trkpt><trkpt lat="58.66745675" lon="24.97209783"></trkpt><trkpt lat="58.66739510" lon="24.97199628"></trkpt><trkpt lat="58.66734960" lon="24.97192084"></trkpt><trkpt lat="58.66728442" lon="24.97189336"></trkpt><trkpt lat="58.66723091" lon="24.97189472"></trkpt><trkpt lat="58.66717103" lon="24.97195296"></trkpt><trkpt lat="58.66707678" lon="24.97203591"></trkpt><trkpt lat="58.66704646" lon="24.97211494"></trkpt><trkpt lat="58.66703434" lon="24.97214598"></trkpt><trkpt lat="58.66700850" lon="24.97222228"></trkpt><trkpt lat="58.66695217" lon="24.97220360"></trkpt><trkpt lat="58.66687961" lon="24.97217020"></trkpt><trkpt lat="58.66682935" lon="24.97193775"></trkpt><trkpt lat="58.66683064" lon="24.97176663"></trkpt><trkpt lat="58.66685545" lon="24.97163040"></trkpt><trkpt lat="58.66692622" lon="24.97131003"></trkpt><trkpt lat="58.66695796" lon="24.97084594"></trkpt><trkpt lat="58.66694120" lon="24.97050602"></trkpt><trkpt lat="58.66685033" lon="24.97033805"></trkpt><trkpt lat="58.66673042" lon="24.97027767"></trkpt><trkpt lat="58.66667835" lon="24.97028478"></trkpt><trkpt lat="58.66659299" lon="24.97037084"></trkpt><trkpt lat="58.66650818" lon="24.97038560"></trkpt><trkpt lat="58.66643301" lon="24.97050046"></trkpt><trkpt lat="58.66636167" lon="24.97050133"></trkpt><trkpt lat="58.66621092" lon="24.97058843"></trkpt><trkpt lat="58.66612317" lon="24.97059740"></trkpt><trkpt lat="58.66603125" lon="24.97056917"></trkpt><trkpt lat="58.66599294" lon="24.97052532"></trkpt><trkpt lat="58.66595530" lon="24.97039306"></trkpt><trkpt lat="58.66595203" lon="24.97023609"></trkpt><trkpt lat="58.66593705" lon="24.96965947"></trkpt><trkpt lat="58.66583043" lon="24.96921438"></trkpt><trkpt lat="58.66576077" lon="24.96899280"></trkpt><trkpt lat="58.66575836" lon="24.96891857"></trkpt><trkpt lat="58.66577532" lon="24.96883632"></trkpt><trkpt lat="58.66578303" lon="24.96879945"></trkpt><trkpt lat="58.66585230" lon="24.96867872"></trkpt><trkpt lat="58.66593173" lon="24.96858964"></trkpt><trkpt lat="58.66595167" lon="24.96850747"></trkpt><trkpt lat="58.66595214" lon="24.96844473"></trkpt><trkpt lat="58.66593480" lon="24.96837864"></trkpt><trkpt lat="58.66589957" lon="24.96832062"></trkpt><trkpt lat="58.66581256" lon="24.96823263"></trkpt><trkpt lat="58.66566648" lon="24.96809452"></trkpt><trkpt lat="58.66559936" lon="24.96812689"></trkpt><trkpt lat="58.66556185" lon="24.96817434"></trkpt><trkpt lat="58.66545227" lon="24.96831963"></trkpt><trkpt lat="58.66543578" lon="24.96833914"></trkpt><trkpt lat="58.66531677" lon="24.96835581"></trkpt><trkpt lat="58.66523787" lon="24.96837359"></trkpt><trkpt lat="58.66519602" lon="24.96840666"></trkpt><trkpt lat="58.66497190" lon="24.96836907"></trkpt><trkpt lat="58.66492440" lon="24.96836205"></trkpt><trkpt lat="58.66486581" lon="24.96824918"></trkpt><trkpt lat="58.66478325" lon="24.96816132"></trkpt><trkpt lat="58.66464898" lon="24.96783529"></trkpt><trkpt lat="58.66438451" lon="24.96782796"></trkpt><trkpt lat="58.66434143" lon="24.96782677"></trkpt><trkpt lat="58.66420028" lon="24.96782286"></trkpt><trkpt lat="58.66414496" lon="24.96786696"></trkpt><trkpt lat="58.66409499" lon="24.96799108"></trkpt><trkpt lat="58.66410471" lon="24.96827944"></trkpt><trkpt lat="58.66412157" lon="24.96840826"></trkpt><trkpt lat="58.66407806" lon="24.96846410"></trkpt><trkpt lat="58.66396693" lon="24.96842109"></trkpt><trkpt lat="58.66388453" lon="24.96811361"></trkpt><trkpt lat="58.66383018" lon="24.96802938"></trkpt><trkpt lat="58.66381868" lon="24.96778091"></trkpt><trkpt lat="58.66378351" lon="24.96771434"></trkpt><trkpt lat="58.66370339" lon="24.96769786"></trkpt><trkpt lat="58.66366034" lon="24.96769096"></trkpt><trkpt lat="58.66359458" lon="24.96774048"></trkpt><trkpt lat="58.66351909" lon="24.96789812"></trkpt><trkpt lat="58.66345989" lon="24.96826157"></trkpt><trkpt lat="58.66342675" lon="24.96832055"></trkpt><trkpt lat="58.66336099" lon="24.96837007"></trkpt><trkpt lat="58.66316576" lon="24.96844452"></trkpt><trkpt lat="58.66301419" lon="24.96844317"></trkpt><trkpt lat="58.66288288" lon="24.96831689"></trkpt><trkpt lat="58.66280056" lon="24.96819767"></trkpt><trkpt lat="58.66272908" lon="24.96801885"></trkpt><trkpt lat="58.66270283" lon="24.96795252"></trkpt><trkpt lat="58.66267604" lon="24.96776068"></trkpt><trkpt lat="58.66263129" lon="24.96758546"></trkpt><trkpt lat="58.66262569" lon="24.96753967"></trkpt><trkpt lat="58.66261347" lon="24.96738531"></trkpt><trkpt lat="58.66262762" lon="24.96728302"></trkpt><trkpt lat="58.66271389" lon="24.96707434"></trkpt><trkpt lat="58.66266597" lon="24.96692470"></trkpt><trkpt lat="58.66262024" lon="24.96688065"></trkpt><trkpt lat="58.66254149" lon="24.96687848"></trkpt><trkpt lat="58.66250702" lon="24.96691745"></trkpt><trkpt lat="58.66236153" lon="24.96709597"></trkpt><trkpt lat="58.66233189" lon="24.96728339"></trkpt><trkpt lat="58.66225180" lon="24.96726121"></trkpt><trkpt lat="58.66221507" lon="24.96720600"></trkpt><trkpt lat="58.66220289" lon="24.96704594"></trkpt><trkpt lat="58.66216295" lon="24.96702202"></trkpt><trkpt lat="58.66210156" lon="24.96708307"></trkpt><trkpt lat="58.66209244" lon="24.96730814"></trkpt><trkpt lat="58.66195989" lon="24.96754405"></trkpt><trkpt lat="58.66188040" lon="24.96764167"></trkpt><trkpt lat="58.66184843" lon="24.96774347"></trkpt><trkpt lat="58.66186028" lon="24.96794630"></trkpt><trkpt lat="58.66176151" lon="24.96803768"></trkpt><trkpt lat="58.66159952" lon="24.96803890"></trkpt><trkpt lat="58.66153359" lon="24.96811123"></trkpt><trkpt lat="58.66131037" lon="24.96854712"></trkpt><trkpt lat="58.66120701" lon="24.96865549"></trkpt><trkpt lat="58.66081508" lon="24.96880149"></trkpt><trkpt lat="58.66074034" lon="24.96885931"></trkpt><trkpt lat="58.66069659" lon="24.96894651"></trkpt><trkpt lat="58.66073920" lon="24.96901044"></trkpt><trkpt lat="58.66080150" lon="24.96902642"></trkpt><trkpt lat="58.66081530" lon="24.96916656"></trkpt><trkpt lat="58.66072334" lon="24.96934084"></trkpt><trkpt lat="58.66068127" lon="24.96940241"></trkpt><trkpt lat="58.66061064" lon="24.96950598"></trkpt><trkpt lat="58.66045623" lon="24.96948744"></trkpt><trkpt lat="58.66039981" lon="24.96948017"></trkpt><trkpt lat="58.66034514" lon="24.96943872"></trkpt><trkpt lat="58.66022161" lon="24.96946382"></trkpt><trkpt lat="58.66007138" lon="24.96967925"></trkpt><trkpt lat="58.65985242" lon="24.96994412"></trkpt><trkpt lat="58.65976202" lon="24.97010702"></trkpt><trkpt lat="58.65960667" lon="24.97041072"></trkpt><trkpt lat="58.65956410" lon="24.97073467"></trkpt><trkpt lat="58.65941776" lon="24.97063078"></trkpt><trkpt lat="58.65937433" lon="24.97067521"></trkpt><trkpt lat="58.65933756" lon="24.97082249"></trkpt><trkpt lat="58.65933545" lon="24.97090513"></trkpt><trkpt lat="58.65930089" lon="24.97095551"></trkpt><trkpt lat="58.65845723" lon="24.97089785"></trkpt><trkpt lat="58.65834580" lon="24.97109153"></trkpt><trkpt lat="58.65831583" lon="24.97112492"></trkpt><trkpt lat="58.65828179" lon="24.97110687"></trkpt><trkpt lat="58.65824987" lon="24.97100331"></trkpt><trkpt lat="58.65823015" lon="24.97086017"></trkpt><trkpt lat="58.65815592" lon="24.97084955"></trkpt><trkpt lat="58.65810356" lon="24.97089658"></trkpt><trkpt lat="58.65805003" lon="24.97090080"></trkpt><trkpt lat="58.65803708" lon="24.97084340"></trkpt><trkpt lat="58.65803637" lon="24.97054394"></trkpt><trkpt lat="58.65811082" lon="24.96993286"></trkpt><trkpt lat="58.65823432" lon="24.96932029"></trkpt><trkpt lat="58.65823333" lon="24.96905789"></trkpt><trkpt lat="58.65816851" lon="24.96898194"></trkpt><trkpt lat="58.65801966" lon="24.96901489"></trkpt><trkpt lat="58.65785553" lon="24.96890482"></trkpt><trkpt lat="58.65781533" lon="24.96891511"></trkpt><trkpt lat="58.65768487" lon="24.96907120"></trkpt><trkpt lat="58.65763045" lon="24.96919232"></trkpt><trkpt lat="58.65757960" lon="24.96943331"></trkpt><trkpt lat="58.65744599" lon="24.96941535"></trkpt><trkpt lat="58.65737644" lon="24.96937634"></trkpt><trkpt lat="58.65720717" lon="24.96876422"></trkpt><trkpt lat="58.65713069" lon="24.96865944"></trkpt><trkpt lat="58.65709281" lon="24.96855858"></trkpt><trkpt lat="58.65710284" lon="24.96841056"></trkpt><trkpt lat="58.65733940" lon="24.96778117"></trkpt><trkpt lat="58.65731242" lon="24.96721862"></trkpt><trkpt lat="58.65745095" lon="24.96697720"></trkpt><trkpt lat="58.65756944" lon="24.96683219"></trkpt><trkpt lat="58.65783281" lon="24.96678814"></trkpt><trkpt lat="58.65787314" lon="24.96676074"></trkpt><trkpt lat="58.65793041" lon="24.96665395"></trkpt><trkpt lat="58.65798998" lon="24.96643886"></trkpt><trkpt lat="58.65801097" lon="24.96621700"></trkpt><trkpt lat="58.65801593" lon="24.96595192"></trkpt><trkpt lat="58.65798192" lon="24.96573139"></trkpt><trkpt lat="58.65787952" lon="24.96551467"></trkpt><trkpt lat="58.65775891" lon="24.96534878"></trkpt><trkpt lat="58.65766262" lon="24.96510943"></trkpt><trkpt lat="58.65755306" lon="24.96505507"></trkpt><trkpt lat="58.65744116" lon="24.96511472"></trkpt><trkpt lat="58.65739261" lon="24.96524741"></trkpt><trkpt lat="58.65731265" lon="24.96560453"></trkpt><trkpt lat="58.65727362" lon="24.96565763"></trkpt><trkpt lat="58.65723668" lon="24.96562809"></trkpt><trkpt lat="58.65710950" lon="24.96534796"></trkpt><trkpt lat="58.65700877" lon="24.96490886"></trkpt><trkpt lat="58.65699773" lon="24.96479448"></trkpt><trkpt lat="58.65703200" lon="24.96458440"></trkpt><trkpt lat="58.65708178" lon="24.96448596"></trkpt><trkpt lat="58.65708268" lon="24.96436621"></trkpt><trkpt lat="58.65690390" lon="24.96422725"></trkpt><trkpt lat="58.65651006" lon="24.96403387"></trkpt><trkpt lat="58.65645848" lon="24.96397542"></trkpt><trkpt lat="58.65644855" lon="24.96391241"></trkpt><trkpt lat="58.65646297" lon="24.96377307"></trkpt><trkpt lat="58.65642360" lon="24.96367218"></trkpt><trkpt lat="58.65638187" lon="24.96368814"></trkpt><trkpt lat="58.65630139" lon="24.96372014"></trkpt><trkpt lat="58.65623197" lon="24.96386081"></trkpt><trkpt lat="58.65604620" lon="24.96445739"></trkpt><trkpt lat="58.65599942" lon="24.96455305"></trkpt><trkpt lat="58.65590450" lon="24.96492400"></trkpt><trkpt lat="58.65575019" lon="24.96489122"></trkpt><trkpt lat="58.65565895" lon="24.96477179"></trkpt><trkpt lat="58.65547853" lon="24.96445598"></trkpt><trkpt lat="58.65509146" lon="24.96415159"></trkpt><trkpt lat="58.65493960" lon="24.96399056"></trkpt><trkpt lat="58.65479669" lon="24.96402369"></trkpt><trkpt lat="58.65468333" lon="24.96408045"></trkpt><trkpt lat="58.65457086" lon="24.96401746"></trkpt><trkpt lat="58.65445020" lon="24.96385730"></trkpt><trkpt lat="58.65445050" lon="24.96381739"></trkpt><trkpt lat="58.65420664" lon="24.96343996"></trkpt><trkpt lat="58.65419802" lon="24.96339981"></trkpt><trkpt lat="58.65410722" lon="24.96322051"></trkpt><trkpt lat="58.65410870" lon="24.96302380"></trkpt><trkpt lat="58.65421178" lon="24.96275289"></trkpt><trkpt lat="58.65423624" lon="24.96226310"></trkpt><trkpt lat="58.65407677" lon="24.96172833"></trkpt><trkpt lat="58.65384661" lon="24.96150529"></trkpt><trkpt lat="58.65372300" lon="24.96154181"></trkpt><trkpt lat="58.65360638" lon="24.96163555"></trkpt><trkpt lat="58.65347458" lon="24.96157489"></trkpt><trkpt lat="58.65335126" lon="24.96157150"></trkpt><trkpt lat="58.65330817" lon="24.96157032"></trkpt><trkpt lat="58.65321902" lon="24.96156786"></trkpt><trkpt lat="58.65308824" lon="24.96117077"></trkpt><trkpt lat="58.65296537" lon="24.96110751"></trkpt><trkpt lat="58.65276093" lon="24.96122165"></trkpt><trkpt lat="58.65263806" lon="24.96115839"></trkpt><trkpt lat="58.65238500" lon="24.96081782"></trkpt><trkpt lat="58.65213046" lon="24.96067396"></trkpt><trkpt lat="58.65188182" lon="24.96033922"></trkpt><trkpt lat="58.65172251" lon="24.95998128"></trkpt><trkpt lat="58.65165624" lon="24.95970004"></trkpt><trkpt lat="58.65161876" lon="24.95934545"></trkpt><trkpt lat="58.65157848" lon="24.95916756"></trkpt><trkpt lat="58.65113048" lon="24.95886159"></trkpt><trkpt lat="58.65102181" lon="24.95888712"></trkpt><trkpt lat="58.65098014" lon="24.95889453"></trkpt><trkpt lat="58.65091562" lon="24.95897830"></trkpt><trkpt lat="58.65077780" lon="24.95952481"></trkpt><trkpt lat="58.65071620" lon="24.95961435"></trkpt><trkpt lat="58.65060328" lon="24.95961125"></trkpt><trkpt lat="58.65050238" lon="24.95939179"></trkpt><trkpt lat="58.65029123" lon="24.95881006"></trkpt><trkpt lat="58.65027228" lon="24.95876107"></trkpt><trkpt lat="58.65013928" lon="24.95846089"></trkpt><trkpt lat="58.65003520" lon="24.95826986"></trkpt><trkpt lat="58.64992043" lon="24.95811561"></trkpt><trkpt lat="58.64971480" lon="24.95799022"></trkpt><trkpt lat="58.64962718" lon="24.95798212"></trkpt><trkpt lat="58.64938203" lon="24.95797540"></trkpt><trkpt lat="58.64927287" lon="24.95786692"></trkpt><trkpt lat="58.64897202" lon="24.95735688"></trkpt><trkpt lat="58.64888287" lon="24.95735444"></trkpt><trkpt lat="58.64853066" lon="24.95775535"></trkpt><trkpt lat="58.64828441" lon="24.95809643"></trkpt><trkpt lat="58.64820675" lon="24.95814847"></trkpt><trkpt lat="58.64798116" lon="24.95810808"></trkpt><trkpt lat="58.64785254" lon="24.95821859"></trkpt><trkpt lat="58.64766111" lon="24.95838155"></trkpt><trkpt lat="58.64753422" lon="24.95845790"></trkpt><trkpt lat="58.64618591" lon="24.95831831"></trkpt><trkpt lat="58.64602876" lon="24.95826839"></trkpt><trkpt lat="58.64584427" lon="24.95809798"></trkpt><trkpt lat="58.64575523" lon="24.95808129"></trkpt><trkpt lat="58.64568060" lon="24.95812486"></trkpt><trkpt lat="58.64558466" lon="24.95823626"></trkpt><trkpt lat="58.64553334" lon="24.95834318"></trkpt><trkpt lat="58.64544109" lon="24.95875687"></trkpt><trkpt lat="58.64540518" lon="24.95898965"></trkpt><trkpt lat="58.64530393" lon="24.95921494"></trkpt><trkpt lat="58.64520657" lon="24.95931775"></trkpt><trkpt lat="58.64510944" lon="24.95938920"></trkpt><trkpt lat="58.64487276" lon="24.95944257"></trkpt><trkpt lat="58.64466091" lon="24.95935409"></trkpt><trkpt lat="58.64441449" lon="24.95931882"></trkpt><trkpt lat="58.64431305" lon="24.95937020"></trkpt><trkpt lat="58.64419629" lon="24.95948388"></trkpt><trkpt lat="58.64413418" lon="24.95964181"></trkpt><trkpt lat="58.64404137" lon="24.96052868"></trkpt><trkpt lat="58.64392494" lon="24.96099584"></trkpt><trkpt lat="58.64382713" lon="24.96115849"></trkpt><trkpt lat="58.64369921" lon="24.96117493"></trkpt><trkpt lat="58.64352858" lon="24.96113889"></trkpt><trkpt lat="58.64335111" lon="24.96102283"></trkpt><trkpt lat="58.64314589" lon="24.96084330"></trkpt><trkpt lat="58.64284083" lon="24.96050140"></trkpt><trkpt lat="58.64276217" lon="24.96028830"></trkpt><trkpt lat="58.64243320" lon="24.95996285"></trkpt><trkpt lat="58.64233362" lon="24.95996582"></trkpt><trkpt lat="58.64220546" lon="24.96001361"></trkpt><trkpt lat="58.64186827" lon="24.96019249"></trkpt><trkpt lat="58.64178290" lon="24.96028136"></trkpt><trkpt lat="58.64159934" lon="24.96058417"></trkpt><trkpt lat="58.64151454" lon="24.96059609"></trkpt><trkpt lat="58.64122943" lon="24.96016924"></trkpt><trkpt lat="58.64091709" lon="24.95960768"></trkpt><trkpt lat="58.64073648" lon="24.95951436"></trkpt><trkpt lat="58.64057695" lon="24.95958410"></trkpt><trkpt lat="58.64050703" lon="24.95979311"></trkpt><trkpt lat="58.64046235" lon="24.96000566"></trkpt><trkpt lat="58.64038904" lon="24.96007206"></trkpt><trkpt lat="58.64005799" lon="24.95982639"></trkpt><trkpt lat="58.64001787" lon="24.95982529"></trkpt><trkpt lat="58.63992677" lon="24.95988550"></trkpt><trkpt lat="58.63983047" lon="24.96004532"></trkpt><trkpt lat="58.63973201" lon="24.96029630"></trkpt><trkpt lat="58.63959803" lon="24.96052635"></trkpt><trkpt lat="58.63924216" lon="24.96061918"></trkpt><trkpt lat="58.63907711" lon="24.96063175"></trkpt><trkpt lat="58.63897027" lon="24.96061171"></trkpt><trkpt lat="58.63893762" lon="24.96060512"></trkpt><trkpt lat="58.63887932" lon="24.96065197"></trkpt><trkpt lat="58.63887761" lon="24.96087994"></trkpt><trkpt lat="58.63902364" lon="24.96122599"></trkpt><trkpt lat="58.63895071" lon="24.96183680"></trkpt><trkpt lat="58.63910321" lon="24.96270748"></trkpt><trkpt lat="58.63908386" lon="24.96290932"></trkpt><trkpt lat="58.63902352" lon="24.96303022"></trkpt><trkpt lat="58.63895410" lon="24.96317082"></trkpt><trkpt lat="58.63883471" lon="24.96323879"></trkpt><trkpt lat="58.63857782" lon="24.96321176"></trkpt><trkpt lat="58.63846390" lon="24.96334258"></trkpt><trkpt lat="58.63808479" lon="24.96395918"></trkpt><trkpt lat="58.63790203" lon="24.96415366"></trkpt><trkpt lat="58.63765892" lon="24.96446903"></trkpt><trkpt lat="58.63730910" lon="24.96454773"></trkpt><trkpt lat="58.63709739" lon="24.96444214"></trkpt><trkpt lat="58.63706823" lon="24.96436723"></trkpt><trkpt lat="58.63698658" lon="24.96415692"></trkpt><trkpt lat="58.63696983" lon="24.96381445"></trkpt><trkpt lat="58.63698146" lon="24.96325330"></trkpt><trkpt lat="58.63693164" lon="24.96296121"></trkpt><trkpt lat="58.63684189" lon="24.96264238"></trkpt><trkpt lat="58.63671788" lon="24.96233400"></trkpt><trkpt lat="58.63661358" lon="24.96237104"></trkpt><trkpt lat="58.63637797" lon="24.96267806"></trkpt><trkpt lat="58.63624501" lon="24.96277130"></trkpt><trkpt lat="58.63613735" lon="24.96285954"></trkpt><trkpt lat="58.63588460" lon="24.96287538"></trkpt><trkpt lat="58.63568422" lon="24.96264471"></trkpt><trkpt lat="58.63549279" lon="24.96260809"></trkpt><trkpt lat="58.63531625" lon="24.96276568"></trkpt><trkpt lat="58.63517669" lon="24.96294709"></trkpt><trkpt lat="58.63501809" lon="24.96309092"></trkpt><trkpt lat="58.63462711" lon="24.96330815"></trkpt><trkpt lat="58.63432528" lon="24.96352783"></trkpt><trkpt lat="58.63415500" lon="24.96364283"></trkpt><trkpt lat="58.63392683" lon="24.96375054"></trkpt><trkpt lat="58.63382325" lon="24.96369069"></trkpt><trkpt lat="58.63370574" lon="24.96370455"></trkpt><trkpt lat="58.63352776" lon="24.96385639"></trkpt><trkpt lat="58.63340605" lon="24.96403542"></trkpt><trkpt lat="58.63337887" lon="24.96429116"></trkpt><trkpt lat="58.63316295" lon="24.96533963"></trkpt><trkpt lat="58.63295377" lon="24.96549060"></trkpt><trkpt lat="58.63285265" lon="24.96549921"></trkpt><trkpt lat="58.63229389" lon="24.96530140"></trkpt><trkpt lat="58.63228925" lon="24.96512744"></trkpt><trkpt lat="58.63219548" lon="24.96494817"></trkpt><trkpt lat="58.63210750" lon="24.96459237"></trkpt><trkpt lat="58.63193316" lon="24.96445648"></trkpt><trkpt lat="58.63184266" lon="24.96443689"></trkpt><trkpt lat="58.63168052" lon="24.96445806"></trkpt><trkpt lat="58.63161917" lon="24.96451336"></trkpt><trkpt lat="58.63141057" lon="24.96498351"></trkpt><trkpt lat="58.63137093" lon="24.96511635"></trkpt><trkpt lat="58.63122620" lon="24.96539162"></trkpt><trkpt lat="58.63116322" lon="24.96546682"></trkpt><trkpt lat="58.63112139" lon="24.96549701"></trkpt><trkpt lat="58.63096850" lon="24.96547285"></trkpt><trkpt lat="58.63088435" lon="24.96539928"></trkpt><trkpt lat="58.63075351" lon="24.96521045"></trkpt><trkpt lat="58.63035896" lon="24.96491175"></trkpt><trkpt lat="58.63030765" lon="24.96481915"></trkpt><trkpt lat="58.63014248" lon="24.96464932"></trkpt><trkpt lat="58.62980070" lon="24.96444897"></trkpt><trkpt lat="58.62955579" lon="24.96421141"></trkpt><trkpt lat="58.62939162" lon="24.96410715"></trkpt><trkpt lat="58.62933070" lon="24.96410548"></trkpt><trkpt lat="58.62928006" lon="24.96412118"></trkpt><trkpt lat="58.62920670" lon="24.96419324"></trkpt><trkpt lat="58.62911100" lon="24.96446985"></trkpt><trkpt lat="58.62899712" lon="24.96459494"></trkpt><trkpt lat="58.62883504" lon="24.96460757"></trkpt><trkpt lat="58.62868825" lon="24.96456363"></trkpt><trkpt lat="58.62855281" lon="24.96459123"></trkpt><trkpt lat="58.62848053" lon="24.96471747"></trkpt><trkpt lat="58.62843463" lon="24.96489286"></trkpt><trkpt lat="58.62841259" lon="24.96505752"></trkpt><trkpt lat="58.62835918" lon="24.96524411"></trkpt><trkpt lat="58.62829877" lon="24.96537352"></trkpt><trkpt lat="58.62803714" lon="24.96577946"></trkpt><trkpt lat="58.62788132" lon="24.96594897"></trkpt><trkpt lat="58.62776048" lon="24.96601117"></trkpt><trkpt lat="58.62768460" lon="24.96602332"></trkpt><trkpt lat="58.62742676" lon="24.96592502"></trkpt><trkpt lat="58.62722854" lon="24.96580272"></trkpt><trkpt lat="58.62713008" lon="24.96565469"></trkpt><trkpt lat="58.62681529" lon="24.96562036"></trkpt><trkpt lat="58.62656845" lon="24.96544259"></trkpt><trkpt lat="58.62642315" lon="24.96539869"></trkpt><trkpt lat="58.62627225" lon="24.96550564"></trkpt><trkpt lat="58.62601358" lon="24.96551845"></trkpt><trkpt lat="58.62596261" lon="24.96557688"></trkpt><trkpt lat="58.62583098" lon="24.96549346"></trkpt><trkpt lat="58.62575236" lon="24.96547420"></trkpt><trkpt lat="58.62572564" lon="24.96547061"></trkpt><trkpt lat="58.62548326" lon="24.96548957"></trkpt><trkpt lat="58.62536510" lon="24.96559172"></trkpt><trkpt lat="58.62527943" lon="24.96591701"></trkpt><trkpt lat="58.62514557" lon="24.96612985"></trkpt><trkpt lat="58.62505468" lon="24.96616153"></trkpt><trkpt lat="58.62497764" lon="24.96613091"></trkpt><trkpt lat="58.62479001" lon="24.96598328"></trkpt><trkpt lat="58.62463710" lon="24.96576537"></trkpt><trkpt lat="58.62445144" lon="24.96575170"></trkpt><trkpt lat="58.62440364" lon="24.96578457"></trkpt><trkpt lat="58.62431850" lon="24.96584205"></trkpt><trkpt lat="58.62422923" lon="24.96585668"></trkpt><trkpt lat="58.62400701" lon="24.96596166"></trkpt><trkpt lat="58.62376493" lon="24.96614016"></trkpt><trkpt lat="58.62356525" lon="24.96660759"></trkpt><trkpt lat="58.62340542" lon="24.96671713"></trkpt><trkpt lat="58.62329819" lon="24.96674836"></trkpt><trkpt lat="58.62311028" lon="24.96644117"></trkpt><trkpt lat="58.62303499" lon="24.96637356"></trkpt><trkpt lat="58.62289096" lon="24.96635819"></trkpt><trkpt lat="58.62283157" lon="24.96635085"></trkpt><trkpt lat="58.62268889" lon="24.96635261"></trkpt><trkpt lat="58.62252502" lon="24.96660449"></trkpt><trkpt lat="58.62233594" lon="24.96704654"></trkpt><trkpt lat="58.62225575" lon="24.96723521"></trkpt><trkpt lat="58.62194411" lon="24.96796730"></trkpt><trkpt lat="58.62188410" lon="24.96804256"></trkpt><trkpt lat="58.62183516" lon="24.96802981"></trkpt><trkpt lat="58.62171205" lon="24.96799792"></trkpt><trkpt lat="58.62161506" lon="24.96785279"></trkpt><trkpt lat="58.62143761" lon="24.96773678"></trkpt><trkpt lat="58.62134411" lon="24.96771995"></trkpt><trkpt lat="58.62129480" lon="24.96775562"></trkpt><trkpt lat="58.62117035" lon="24.96790316"></trkpt><trkpt lat="58.62109313" lon="24.96789533"></trkpt><trkpt lat="58.62104961" lon="24.96775453"></trkpt><trkpt lat="58.62104059" lon="24.96737254"></trkpt><trkpt lat="58.62097903" lon="24.96725974"></trkpt><trkpt lat="58.62093002" lon="24.96725553"></trkpt><trkpt lat="58.62084324" lon="24.96733290"></trkpt><trkpt lat="58.62073192" lon="24.96751215"></trkpt><trkpt lat="58.62067821" lon="24.96773856"></trkpt><trkpt lat="58.62065308" lon="24.96791734"></trkpt><trkpt lat="58.62063261" lon="24.96807061"></trkpt><trkpt lat="58.62064059" lon="24.96858931"></trkpt><trkpt lat="58.62062120" lon="24.96879674"></trkpt><trkpt lat="58.62056437" lon="24.96884359"></trkpt><trkpt lat="58.62048425" lon="24.96882713"></trkpt><trkpt lat="58.62035922" lon="24.96865559"></trkpt><trkpt lat="58.62031612" lon="24.96865724"></trkpt><trkpt lat="58.62027673" lon="24.96875586"></trkpt><trkpt lat="58.62019998" lon="24.96908134"></trkpt><trkpt lat="58.62010567" lon="24.96956587"></trkpt><trkpt lat="58.62006793" lon="24.96964459"></trkpt><trkpt lat="58.62000837" lon="24.96966003"></trkpt><trkpt lat="58.61989468" lon="24.96975943"></trkpt><trkpt lat="58.61968719" lon="24.96988187"></trkpt><trkpt lat="58.61966296" lon="24.96994102"></trkpt><trkpt lat="58.61954083" lon="24.96997752"></trkpt><trkpt lat="58.61936558" lon="24.97016067"></trkpt><trkpt lat="58.61932096" lon="24.97016513"></trkpt><trkpt lat="58.61925574" lon="24.97014339"></trkpt><trkpt lat="58.61920421" lon="24.97007929"></trkpt><trkpt lat="58.61913646" lon="24.96980109"></trkpt><trkpt lat="58.61909260" lon="24.96970587"></trkpt><trkpt lat="58.61903039" lon="24.96967850"></trkpt><trkpt lat="58.61875619" lon="24.96997571"></trkpt><trkpt lat="58.61870312" lon="24.97011667"></trkpt><trkpt lat="58.61857674" lon="24.97032111"></trkpt><trkpt lat="58.61851533" lon="24.97038493"></trkpt><trkpt lat="58.61844104" lon="24.97038287"></trkpt><trkpt lat="58.61833308" lon="24.97031436"></trkpt><trkpt lat="58.61820097" lon="24.97029360"></trkpt><trkpt lat="58.61806075" lon="24.97036378"></trkpt><trkpt lat="58.61779814" lon="24.97070117"></trkpt><trkpt lat="58.61770122" lon="24.97074406"></trkpt><trkpt lat="58.61753789" lon="24.97092183"></trkpt><trkpt lat="58.61748236" lon="24.97099436"></trkpt><trkpt lat="58.61739750" lon="24.97121134"></trkpt><trkpt lat="58.61734649" lon="24.97127544"></trkpt><trkpt lat="58.61718446" lon="24.97128233"></trkpt><trkpt lat="58.61705765" lon="24.97134718"></trkpt><trkpt lat="58.61701962" lon="24.97146291"></trkpt><trkpt lat="58.61702132" lon="24.97163102"></trkpt><trkpt lat="58.61706902" lon="24.97180895"></trkpt><trkpt lat="58.61701095" lon="24.97182443"></trkpt><trkpt lat="58.61693974" lon="24.97180821"></trkpt><trkpt lat="58.61689979" lon="24.97178431"></trkpt><trkpt lat="58.61687057" lon="24.97171798"></trkpt><trkpt lat="58.61683629" lon="24.97153473"></trkpt><trkpt lat="58.61683444" lon="24.97138656"></trkpt><trkpt lat="58.61688728" lon="24.97108039"></trkpt><trkpt lat="58.61688881" lon="24.97087819"></trkpt><trkpt lat="58.61679376" lon="24.97086985"></trkpt><trkpt lat="58.61671734" lon="24.97095319"></trkpt><trkpt lat="58.61667501" lon="24.97104886"></trkpt><trkpt lat="58.61655897" lon="24.97106558"></trkpt><trkpt lat="58.61642729" lon="24.97079132"></trkpt><trkpt lat="58.61627113" lon="24.97080693"></trkpt><trkpt lat="58.61619011" lon="24.97091007"></trkpt><trkpt lat="58.61617895" lon="24.97100946"></trkpt><trkpt lat="58.61622340" lon="24.97142087"></trkpt><trkpt lat="58.61621703" lon="24.97147766"></trkpt><trkpt lat="58.61614655" lon="24.97156116"></trkpt><trkpt lat="58.61593150" lon="24.97150391"></trkpt><trkpt lat="58.61580734" lon="24.97141501"></trkpt><trkpt lat="58.61554761" lon="24.97137078"></trkpt><trkpt lat="58.61546557" lon="24.97141122"></trkpt><trkpt lat="58.61537722" lon="24.97149992"></trkpt><trkpt lat="58.61532117" lon="24.97164078"></trkpt><trkpt lat="58.61529652" lon="24.97175688"></trkpt><trkpt lat="58.61520231" lon="24.97242362"></trkpt><trkpt lat="58.61500580" lon="24.97246943"></trkpt><trkpt lat="58.61495683" lon="24.97265606"></trkpt><trkpt lat="58.61497225" lon="24.97277897"></trkpt><trkpt lat="58.61496082" lon="24.97291537"></trkpt><trkpt lat="58.61492287" lon="24.97301970"></trkpt><trkpt lat="58.61473562" lon="24.97321673"></trkpt><trkpt lat="58.61472647" lon="24.97344434"></trkpt><trkpt lat="58.61465552" lon="24.97359048"></trkpt><trkpt lat="58.61465732" lon="24.97374434"></trkpt><trkpt lat="58.61469139" lon="24.97395606"></trkpt><trkpt lat="58.61469403" lon="24.97419539"></trkpt><trkpt lat="58.61458942" lon="24.97446876"></trkpt><trkpt lat="58.61453746" lon="24.97465815"></trkpt><trkpt lat="58.61455468" lon="24.97473838"></trkpt><trkpt lat="58.61464262" lon="24.97490034"></trkpt><trkpt lat="58.61480999" lon="24.97497336"></trkpt><trkpt lat="58.61487485" lon="24.97504353"></trkpt><trkpt lat="58.61489640" lon="24.97514097"></trkpt><trkpt lat="58.61489816" lon="24.97530053"></trkpt><trkpt lat="58.61487962" lon="24.97539400"></trkpt><trkpt lat="58.61485096" lon="24.97545017"></trkpt><trkpt lat="58.61471403" lon="24.97547769"></trkpt><trkpt lat="58.61459529" lon="24.97565382"></trkpt><trkpt lat="58.61454802" lon="24.97581201"></trkpt><trkpt lat="58.61448948" lon="24.97628034"></trkpt><trkpt lat="58.61442735" lon="24.97643811"></trkpt><trkpt lat="58.61431163" lon="24.97660863"></trkpt><trkpt lat="58.61403706" lon="24.97656109"></trkpt><trkpt lat="58.61397143" lon="24.97659344"></trkpt><trkpt lat="58.61393603" lon="24.97655827"></trkpt><trkpt lat="58.61386804" lon="24.97631427"></trkpt><trkpt lat="58.61377795" lon="24.97624055"></trkpt><trkpt lat="58.61367694" lon="24.97623489"></trkpt><trkpt lat="58.61361330" lon="24.97639546"></trkpt><trkpt lat="58.61355534" lon="24.97639669"></trkpt><trkpt lat="58.61347584" lon="24.97629764"></trkpt><trkpt lat="58.61336144" lon="24.97629444"></trkpt><trkpt lat="58.61321315" lon="24.97664348"></trkpt><trkpt lat="58.61321516" lon="24.97696538"></trkpt><trkpt lat="58.61318923" lon="24.97705295"></trkpt><trkpt lat="58.61306591" lon="24.97704951"></trkpt><trkpt lat="58.61301776" lon="24.97712792"></trkpt><trkpt lat="58.61295002" lon="24.97704628"></trkpt><trkpt lat="58.61287425" lon="24.97704416"></trkpt><trkpt lat="58.61269404" lon="24.97807301"></trkpt><trkpt lat="58.61215603" lon="24.97768772"></trkpt><trkpt lat="58.61145945" lon="24.97763693"></trkpt><trkpt lat="58.61124317" lon="24.97754545"></trkpt><trkpt lat="58.61106857" lon="24.97744659"></trkpt><trkpt lat="58.61052615" lon="24.97685899"></trkpt><trkpt lat="58.61045217" lon="24.97681706"></trkpt><trkpt lat="58.61037325" lon="24.97683764"></trkpt><trkpt lat="58.61022826" lon="24.97694751"></trkpt><trkpt lat="58.60986749" lon="24.97729343"></trkpt><trkpt lat="58.60976249" lon="24.97742150"></trkpt><trkpt lat="58.60965996" lon="24.97722498"></trkpt><trkpt lat="58.60934795" lon="24.97701977"></trkpt><trkpt lat="58.60927752" lon="24.97690104"></trkpt><trkpt lat="58.60920520" lon="24.97663986"></trkpt><trkpt lat="58.60912358" lon="24.97642969"></trkpt><trkpt lat="58.60907050" lon="24.97637410"></trkpt><trkpt lat="58.60874606" lon="24.97584960"></trkpt><trkpt lat="58.60865382" lon="24.97566761"></trkpt><trkpt lat="58.60860126" lon="24.97554369"></trkpt><trkpt lat="58.60854377" lon="24.97528579"></trkpt><trkpt lat="58.60853360" lon="24.97486403"></trkpt><trkpt lat="58.60856961" lon="24.97462297"></trkpt><trkpt lat="58.60861993" lon="24.97445350"></trkpt><trkpt lat="58.60869078" lon="24.97432162"></trkpt><trkpt lat="58.60876735" lon="24.97421838"></trkpt><trkpt lat="58.60892136" lon="24.97409452"></trkpt><trkpt lat="58.60908946" lon="24.97407072"></trkpt><trkpt lat="58.60950376" lon="24.97411358"></trkpt><trkpt lat="58.60979154" lon="24.97418139"></trkpt><trkpt lat="58.60988577" lon="24.97410142"></trkpt><trkpt lat="58.60994163" lon="24.97398621"></trkpt><trkpt lat="58.60994965" lon="24.97371304"></trkpt><trkpt lat="58.60983596" lon="24.97322288"></trkpt><trkpt lat="58.60956846" lon="24.97263447"></trkpt><trkpt lat="58.60927570" lon="24.97184887"></trkpt><trkpt lat="58.60893383" lon="24.97087396"></trkpt><trkpt lat="58.60850996" lon="24.96973732"></trkpt><trkpt lat="58.60829789" lon="24.96908785"></trkpt><trkpt lat="58.60817106" lon="24.96876254"></trkpt><trkpt lat="58.60801082" lon="24.96853028"></trkpt><trkpt lat="58.60785886" lon="24.96838369"></trkpt><trkpt lat="58.60740197" lon="24.96807773"></trkpt><trkpt lat="58.60727167" lon="24.96801433"></trkpt><trkpt lat="58.60706241" lon="24.96797722"></trkpt><trkpt lat="58.60690740" lon="24.96803842"></trkpt><trkpt lat="58.60682467" lon="24.96816998"></trkpt><trkpt lat="58.60678301" lon="24.96837386"></trkpt><trkpt lat="58.60679058" lon="24.96855347"></trkpt><trkpt lat="58.60685273" lon="24.96898234"></trkpt><trkpt lat="58.60683975" lon="24.96932370"></trkpt><trkpt lat="58.60679256" lon="24.96947332"></trkpt><trkpt lat="58.60657182" lon="24.96957826"></trkpt><trkpt lat="58.60646952" lon="24.96954695"></trkpt><trkpt lat="58.60628535" lon="24.96933682"></trkpt><trkpt lat="58.60584231" lon="24.96857279"></trkpt><trkpt lat="58.60573793" lon="24.96842183"></trkpt><trkpt lat="58.60548412" lon="24.96818415"></trkpt><trkpt lat="58.60486768" lon="24.96775137"></trkpt><trkpt lat="58.60462511" lon="24.96759944"></trkpt><trkpt lat="58.60340645" lon="24.96701621"></trkpt><trkpt lat="58.60313922" lon="24.96678389"></trkpt><trkpt lat="58.60247699" lon="24.96631288"></trkpt><trkpt lat="58.60219585" lon="24.96615136"></trkpt><trkpt lat="58.60212471" lon="24.96612662"></trkpt><trkpt lat="58.60199627" lon="24.96621134"></trkpt><trkpt lat="58.60180899" lon="24.96621471"></trkpt><trkpt lat="58.60171210" lon="24.96625475"></trkpt><trkpt lat="58.60162321" lon="24.96621813"></trkpt><trkpt lat="58.60145623" lon="24.96609109"></trkpt><trkpt lat="58.60132072" lon="24.96593075"></trkpt><trkpt lat="58.60126382" lon="24.96578967"></trkpt><trkpt lat="58.60106415" lon="24.96506952"></trkpt><trkpt lat="58.60099501" lon="24.96497650"></trkpt><trkpt lat="58.60086352" lon="24.96487322"></trkpt><trkpt lat="58.60072876" lon="24.96480972"></trkpt><trkpt lat="58.60016858" lon="24.96479998"></trkpt><trkpt lat="58.59997244" lon="24.96479742"></trkpt><trkpt lat="58.59963248" lon="24.96455174"></trkpt><trkpt lat="58.59953074" lon="24.96444644"></trkpt><trkpt lat="58.59912015" lon="24.96390843"></trkpt><trkpt lat="58.59896779" lon="24.96361669"></trkpt><trkpt lat="58.59895353" lon="24.96353658"></trkpt><trkpt lat="58.59894206" lon="24.96328288"></trkpt><trkpt lat="58.59905685" lon="24.96244047"></trkpt><trkpt lat="58.59904153" lon="24.96230339"></trkpt><trkpt lat="58.59897772" lon="24.96209380"></trkpt><trkpt lat="58.59891920" lon="24.96196977"></trkpt><trkpt lat="58.59798175" lon="24.96074261"></trkpt><trkpt lat="58.59765142" lon="24.96040045"></trkpt><trkpt lat="58.59717454" lon="24.95998312"></trkpt><trkpt lat="58.59685987" lon="24.95953323"></trkpt><trkpt lat="58.59671690" lon="24.95937558"></trkpt><trkpt lat="58.59643683" lon="24.95926827"></trkpt><trkpt lat="58.59627622" lon="24.95928379"></trkpt><trkpt lat="58.59613912" lon="24.95933413"></trkpt><trkpt lat="58.59601519" lon="24.95941329"></trkpt><trkpt lat="58.59565450" lon="24.95955428"></trkpt><trkpt lat="58.59544694" lon="24.95948881"></trkpt><trkpt lat="58.59534377" lon="24.95937496"></trkpt><trkpt lat="58.59520052" lon="24.95905505"></trkpt><trkpt lat="58.59501758" lon="24.95847786"></trkpt><trkpt lat="58.59487581" lon="24.95815799"></trkpt><trkpt lat="58.59436791" lon="24.95751499"></trkpt><trkpt lat="58.59429398" lon="24.95726531"></trkpt><trkpt lat="58.59428056" lon="24.95707137"></trkpt><trkpt lat="58.59424382" lon="24.95701628"></trkpt><trkpt lat="58.59406984" lon="24.95703145"></trkpt><trkpt lat="58.59372614" lon="24.95728679"></trkpt><trkpt lat="58.59358040" lon="24.95729988"></trkpt><trkpt lat="58.59336148" lon="24.95736222"></trkpt><trkpt lat="58.59287814" lon="24.95761088"></trkpt><trkpt lat="58.59273064" lon="24.95766093"></trkpt><trkpt lat="58.59259416" lon="24.95762874"></trkpt><trkpt lat="58.59248795" lon="24.95752336"></trkpt><trkpt lat="58.59232655" lon="24.95724568"></trkpt><trkpt lat="58.59226171" lon="24.95697349"></trkpt><trkpt lat="58.59199591" lon="24.95614645"></trkpt><trkpt lat="58.59187301" lon="24.95588692"></trkpt><trkpt lat="58.59172627" lon="24.95563527"></trkpt><trkpt lat="58.59152760" lon="24.95537367"></trkpt><trkpt lat="58.59140521" lon="24.95524509"></trkpt><trkpt lat="58.59111418" lon="24.95501229"></trkpt><trkpt lat="58.59083687" lon="24.95493357"></trkpt><trkpt lat="58.59073263" lon="24.95496204"></trkpt><trkpt lat="58.59061753" lon="24.95505283"></trkpt><trkpt lat="58.59040150" lon="24.95532587"></trkpt><trkpt lat="58.59009013" lon="24.95563047"></trkpt><trkpt lat="58.58982191" lon="24.95572846"></trkpt><trkpt lat="58.58967471" lon="24.95573868"></trkpt><trkpt lat="58.58940572" lon="24.95554064"></trkpt><trkpt lat="58.58936433" lon="24.95551105"></trkpt><trkpt lat="58.58919467" lon="24.95534418"></trkpt><trkpt lat="58.58894352" lon="24.95494456"></trkpt><trkpt lat="58.58855024" lon="24.95447275"></trkpt><trkpt lat="58.58843762" lon="24.95442984"></trkpt><trkpt lat="58.58835429" lon="24.95444464"></trkpt><trkpt lat="58.58826773" lon="24.95449352"></trkpt><trkpt lat="58.58814047" lon="24.95462097"></trkpt><trkpt lat="58.58737543" lon="24.95598046"></trkpt><trkpt lat="58.58726476" lon="24.95627343"></trkpt><trkpt lat="58.58720497" lon="24.95632018"></trkpt><trkpt lat="58.58708458" lon="24.95632259"></trkpt><trkpt lat="58.58688845" lon="24.95611801"></trkpt><trkpt lat="58.58650038" lon="24.95554675"></trkpt><trkpt lat="58.58612572" lon="24.95516940"></trkpt><trkpt lat="58.58566758" lon="24.95482678"></trkpt><trkpt lat="58.58504758" lon="24.95446837"></trkpt><trkpt lat="58.58480431" lon="24.95440767"></trkpt><trkpt lat="58.58461569" lon="24.95419194"></trkpt><trkpt lat="58.58452525" lon="24.95416386"></trkpt><trkpt lat="58.58429188" lon="24.95417173"></trkpt><trkpt lat="58.58414117" lon="24.95405379"></trkpt><trkpt lat="58.58396156" lon="24.95402613"></trkpt><trkpt lat="58.58366935" lon="24.95415193"></trkpt><trkpt lat="58.58337233" lon="24.95432596"></trkpt><trkpt lat="58.58327900" lon="24.95428642"></trkpt><trkpt lat="58.58311163" lon="24.95401152"></trkpt><trkpt lat="58.58305166" lon="24.95388183"></trkpt><trkpt lat="58.58291587" lon="24.95335737"></trkpt><trkpt lat="58.58282483" lon="24.95280851"></trkpt><trkpt lat="58.58274555" lon="24.95267830"></trkpt><trkpt lat="58.58268070" lon="24.95260539"></trkpt><trkpt lat="58.58248253" lon="24.95247480"></trkpt><trkpt lat="58.58196040" lon="24.95234393"></trkpt><trkpt lat="58.58188057" lon="24.95228769"></trkpt><trkpt lat="58.58175996" lon="24.95211936"></trkpt><trkpt lat="58.58167413" lon="24.95186946"></trkpt><trkpt lat="58.58169936" lon="24.95167380"></trkpt><trkpt lat="58.58166281" lon="24.95159313"></trkpt><trkpt lat="58.58164576" lon="24.95148738"></trkpt><trkpt lat="58.58164639" lon="24.95140203"></trkpt><trkpt lat="58.58173535" lon="24.95102882"></trkpt><trkpt lat="58.58180280" lon="24.95095098"></trkpt><trkpt lat="58.58182427" lon="24.95086050"></trkpt><trkpt lat="58.58182386" lon="24.95071536"></trkpt><trkpt lat="58.58174506" lon="24.95051972"></trkpt><trkpt lat="58.58156438" lon="24.95043514"></trkpt><trkpt lat="58.58142788" lon="24.95040583"></trkpt><trkpt lat="58.58130226" lon="24.95031136"></trkpt><trkpt lat="58.58121320" lon="24.95029756"></trkpt><trkpt lat="58.58093997" lon="24.95067146"></trkpt><trkpt lat="58.58072407" lon="24.95092739"></trkpt><trkpt lat="58.58058897" lon="24.95090949"></trkpt><trkpt lat="58.58045557" lon="24.95086319"></trkpt><trkpt lat="58.58011695" lon="24.95063489"></trkpt><trkpt lat="58.57985140" lon="24.95037159"></trkpt><trkpt lat="58.57970296" lon="24.95014847"></trkpt><trkpt lat="58.57955837" lon="24.94980594"></trkpt><trkpt lat="58.57952274" lon="24.94960010"></trkpt><trkpt lat="58.57952184" lon="24.94952040"></trkpt><trkpt lat="58.57962599" lon="24.94890008"></trkpt><trkpt lat="58.57966892" lon="24.94872198"></trkpt><trkpt lat="58.57974080" lon="24.94824589"></trkpt><trkpt lat="58.57976298" lon="24.94805869"></trkpt><trkpt lat="58.57976445" lon="24.94785955"></trkpt><trkpt lat="58.57974606" lon="24.94773385"></trkpt><trkpt lat="58.57971714" lon="24.94762494"></trkpt><trkpt lat="58.57935676" lon="24.94671888"></trkpt><trkpt lat="58.57913890" lon="24.94643699"></trkpt><trkpt lat="58.57893520" lon="24.94624938"></trkpt><trkpt lat="58.57883605" lon="24.94619264"></trkpt><trkpt lat="58.57861806" lon="24.94612985"></trkpt><trkpt lat="58.57831479" lon="24.94614442"></trkpt><trkpt lat="58.57831247" lon="24.94605615"></trkpt><trkpt lat="58.57831153" lon="24.94598215"></trkpt><trkpt lat="58.57825600" lon="24.94565343"></trkpt><trkpt lat="58.57838798" lon="24.94548912"></trkpt><trkpt lat="58.57848757" lon="24.94528410"></trkpt><trkpt lat="58.57870333" lon="24.94443916"></trkpt><trkpt lat="58.57880015" lon="24.94380156"></trkpt><trkpt lat="58.57881207" lon="24.94339215"></trkpt><trkpt lat="58.57880383" lon="24.94309885"></trkpt><trkpt lat="58.57883040" lon="24.94271829"></trkpt><trkpt lat="58.57899846" lon="24.94188911"></trkpt><trkpt lat="58.57917414" lon="24.94042561"></trkpt><trkpt lat="58.57929160" lon="24.93980846"></trkpt><trkpt lat="58.57958515" lon="24.93888873"></trkpt><trkpt lat="58.57965197" lon="24.93848931"></trkpt><trkpt lat="58.57965250" lon="24.93821332"></trkpt><trkpt lat="58.57969822" lon="24.93785317"></trkpt><trkpt lat="58.57981857" lon="24.93744949"></trkpt><trkpt lat="58.58028335" lon="24.93668511"></trkpt><trkpt lat="58.58071949" lon="24.93617889"></trkpt><trkpt lat="58.58088706" lon="24.93602402"></trkpt><trkpt lat="58.58097759" lon="24.93583579"></trkpt><trkpt lat="58.58104560" lon="24.93547622"></trkpt><trkpt lat="58.58104722" lon="24.93504943"></trkpt><trkpt lat="58.58098611" lon="24.93323519"></trkpt><trkpt lat="58.58067602" lon="24.92536192"></trkpt><trkpt lat="58.58062791" lon="24.92482001"></trkpt><trkpt lat="58.58047960" lon="24.92374618"></trkpt><trkpt lat="58.57956237" lon="24.91819619"></trkpt><trkpt lat="58.57944059" lon="24.91735360"></trkpt><trkpt lat="58.57941058" lon="24.91697722"></trkpt><trkpt lat="58.57941143" lon="24.91665002"></trkpt><trkpt lat="58.57946133" lon="24.91632126"></trkpt><trkpt lat="58.57956757" lon="24.91580333"></trkpt><trkpt lat="58.58072427" lon="24.91029336"></trkpt><trkpt lat="58.58114371" lon="24.90835222"></trkpt><trkpt lat="58.58127495" lon="24.90786619"></trkpt><trkpt lat="58.58139672" lon="24.90766731"></trkpt><trkpt lat="58.58207234" lon="24.90711285"></trkpt><trkpt lat="58.58247490" lon="24.90671635"></trkpt><trkpt lat="58.58262428" lon="24.90660639"></trkpt><trkpt lat="58.58273563" lon="24.90641007"></trkpt><trkpt lat="58.58376578" lon="24.90320396"></trkpt><trkpt lat="58.58461998" lon="24.90070459"></trkpt><trkpt lat="58.58523788" lon="24.89883936"></trkpt><trkpt lat="58.58572190" lon="24.89720115"></trkpt><trkpt lat="58.58588749" lon="24.89647115"></trkpt><trkpt lat="58.58625404" lon="24.89675659"></trkpt><trkpt lat="58.58745370" lon="24.89755004"></trkpt><trkpt lat="58.58928421" lon="24.89865859"></trkpt><trkpt lat="58.59025773" lon="24.89927560"></trkpt><trkpt lat="58.59092909" lon="24.89974825"></trkpt><trkpt lat="58.59207585" lon="24.90066580"></trkpt><trkpt lat="58.59258508" lon="24.90115995"></trkpt><trkpt lat="58.59335806" lon="24.90197403"></trkpt><trkpt lat="58.59572687" lon="24.90471951"></trkpt><trkpt lat="58.59677326" lon="24.90595644"></trkpt><trkpt lat="58.59769405" lon="24.90709055"></trkpt><trkpt lat="58.59848852" lon="24.90801362"></trkpt><trkpt lat="58.59955814" lon="24.90574665"></trkpt><trkpt lat="58.59958719" lon="24.90563067"></trkpt><trkpt lat="58.59965060" lon="24.90548996"></trkpt><trkpt lat="58.60003316" lon="24.90434394"></trkpt><trkpt lat="58.60035710" lon="24.90329034"></trkpt><trkpt lat="58.60047613" lon="24.90284642"></trkpt><trkpt lat="58.60058071" lon="24.90234517"></trkpt><trkpt lat="58.60057339" lon="24.90211722"></trkpt><trkpt lat="58.60049336" lon="24.90102756"></trkpt><trkpt lat="58.60044033" lon="24.90053649"></trkpt><trkpt lat="58.60040294" lon="24.89993479"></trkpt><trkpt lat="58.60040227" lon="24.89918029"></trkpt><trkpt lat="58.60041537" lon="24.89900695"></trkpt><trkpt lat="58.60049563" lon="24.89836842"></trkpt><trkpt lat="58.60060106" lon="24.89774191"></trkpt><trkpt lat="58.60072800" lon="24.89701345"></trkpt><trkpt lat="58.60070913" lon="24.89695033"></trkpt><trkpt lat="58.60066075" lon="24.89685514"></trkpt><trkpt lat="58.60055556" lon="24.89680974"></trkpt><trkpt lat="58.60034055" lon="24.89674159"></trkpt><trkpt lat="58.60008254" lon="24.89666096"></trkpt><trkpt lat="58.59952493" lon="24.89649579"></trkpt><trkpt lat="58.59959602" lon="24.89610472"></trkpt><trkpt lat="58.59968086" lon="24.89565990"></trkpt><trkpt lat="58.60013139" lon="24.89348772"></trkpt><trkpt lat="58.60019138" lon="24.89319600"></trkpt><trkpt lat="58.60060210" lon="24.89118788"></trkpt><trkpt lat="58.60105704" lon="24.88901285"></trkpt><trkpt lat="58.60153185" lon="24.88675285"></trkpt><trkpt lat="58.60166406" lon="24.88611273"></trkpt><trkpt lat="58.60225276" lon="24.88327470"></trkpt><trkpt lat="58.60235417" lon="24.88279037"></trkpt><trkpt lat="58.60275511" lon="24.88088426"></trkpt><trkpt lat="58.60310078" lon="24.87923298"></trkpt><trkpt lat="58.60339723" lon="24.87782245"></trkpt><trkpt lat="58.60344021" lon="24.87762137"></trkpt><trkpt lat="58.60141944" lon="24.87540401"></trkpt><trkpt lat="58.60010811" lon="24.87396762"></trkpt><trkpt lat="58.59996208" lon="24.87380739"></trkpt><trkpt lat="58.59978780" lon="24.87364930"></trkpt><trkpt lat="58.59966487" lon="24.87358929"></trkpt><trkpt lat="58.60255241" lon="24.86013118"></trkpt><trkpt lat="58.60889471" lon="24.83055640"></trkpt><trkpt lat="58.60999364" lon="24.83044008"></trkpt><trkpt lat="58.61027468" lon="24.83041258"></trkpt><trkpt lat="58.61210750" lon="24.83033075"></trkpt><trkpt lat="58.61247466" lon="24.83031383"></trkpt><trkpt lat="58.61612098" lon="24.83014970"></trkpt><trkpt lat="58.61633854" lon="24.83005801"></trkpt><trkpt lat="58.61633632" lon="24.82971046"></trkpt><trkpt lat="58.61631995" lon="24.82856218"></trkpt><trkpt lat="58.61630357" lon="24.82741391"></trkpt><trkpt lat="58.61628361" lon="24.82589526"></trkpt><trkpt lat="58.61627136" lon="24.82502623"></trkpt><trkpt lat="58.61626814" lon="24.82483246"></trkpt><trkpt lat="58.61624776" lon="24.82337648"></trkpt><trkpt lat="58.61622627" lon="24.82185780"></trkpt><trkpt lat="58.61619776" lon="24.81980633"></trkpt><trkpt lat="58.61619566" lon="24.81966956"></trkpt><trkpt lat="58.61618470" lon="24.81882334"></trkpt><trkpt lat="58.61618171" lon="24.81859256"></trkpt><trkpt lat="58.61617222" lon="24.81798279"></trkpt><trkpt lat="58.61616909" lon="24.81777479"></trkpt><trkpt lat="58.61616191" lon="24.81726761"></trkpt><trkpt lat="58.61616135" lon="24.81712234"></trkpt><trkpt lat="58.61624162" lon="24.81711851"></trkpt><trkpt lat="58.61788408" lon="24.81705717"></trkpt><trkpt lat="58.61946857" lon="24.81699732"></trkpt><trkpt lat="58.61946605" lon="24.81176437"></trkpt><trkpt lat="58.61946557" lon="24.81160484"></trkpt><trkpt lat="58.61946294" lon="24.80990131"></trkpt><trkpt lat="58.61946132" lon="24.80897832"></trkpt><trkpt lat="58.61946164" lon="24.80892706"></trkpt><trkpt lat="58.61945868" lon="24.80798125"></trkpt><trkpt lat="58.61944972" lon="24.80276811"></trkpt><trkpt lat="58.61944370" lon="24.80015865"></trkpt><trkpt lat="58.61944396" lon="24.80011593"></trkpt><trkpt lat="58.61944414" lon="24.79960888"></trkpt><trkpt lat="58.61944878" lon="24.79934122"></trkpt><trkpt lat="58.62138576" lon="24.80066456"></trkpt><trkpt lat="58.62197034" lon="24.80105114"></trkpt><trkpt lat="58.62215799" lon="24.80122351"></trkpt><trkpt lat="58.62238137" lon="24.80138531"></trkpt><trkpt lat="58.62275731" lon="24.80162753"></trkpt><trkpt lat="58.62286532" lon="24.80170408"></trkpt><trkpt lat="58.62310345" lon="24.80188332"></trkpt><trkpt lat="58.62318940" lon="24.80192232"></trkpt><trkpt lat="58.62357126" lon="24.80216754"></trkpt><trkpt lat="58.62365560" lon="24.80222645"></trkpt><trkpt lat="58.62454055" lon="24.80281939"></trkpt><trkpt lat="58.62470474" lon="24.80293997"></trkpt><trkpt lat="58.62500079" lon="24.80312626"></trkpt><trkpt lat="58.62503786" lon="24.80313850"></trkpt><trkpt lat="58.62508518" lon="24.80317663"></trkpt><trkpt lat="58.62569051" lon="24.80356946"></trkpt><trkpt lat="58.62582375" lon="24.80364944"></trkpt><trkpt lat="58.62667049" lon="24.80417320"></trkpt><trkpt lat="58.62675633" lon="24.80422931"></trkpt><trkpt lat="58.62726246" lon="24.80456291"></trkpt><trkpt lat="58.62785739" lon="24.80495554"></trkpt><trkpt lat="58.62798023" lon="24.80503530"></trkpt><trkpt lat="58.62908870" lon="24.80576461"></trkpt><trkpt lat="58.62921745" lon="24.80585021"></trkpt><trkpt lat="58.62955119" lon="24.80500022"></trkpt><trkpt lat="58.63035305" lon="24.80295564"></trkpt><trkpt lat="58.63071651" lon="24.80114885"></trkpt><trkpt lat="58.63075334" lon="24.80096162"></trkpt><trkpt lat="58.63104131" lon="24.79934113"></trkpt><trkpt lat="58.63137259" lon="24.79744234"></trkpt><trkpt lat="58.63139240" lon="24.79736300"></trkpt><trkpt lat="58.63229848" lon="24.79742640"></trkpt><trkpt lat="58.63232226" lon="24.79742694"></trkpt></trkseg></trk></gpx>