<?xml version='1.0' encoding='utf-8'?>
<gpx xmlns="http://www.topografix.com/GPX/1/1" xmlns:gpxx="http://www.garmin.com/xmlschemas/GpxExtensions/v3" version="1.1" creator="Pärnjõe jahiseltsi kaart"><metadata><name>Pärnjõe jahiseltsi kaart</name><desc>JAH1000125 püsivad seltsiobjektid</desc><time>2026-10-02T14:12:25.522Z</time></metadata><wpt lat="58.660678209" lon="24.855310971"><name>Gängsteri maja</name><desc>Maja · Gängster elab siin</desc><type>Maja</type><sym>Residence</sym><extensions><gpxx:WaypointExtension><gpxx:SymbolColor>Blue</gpxx:SymbolColor><gpxx:SymbolStyle>1</gpxx:SymbolStyle></gpxx:WaypointExtension></extensions></wpt><wpt lat="58.673225353" lon="24.951346204"><name>Elmari söögikoht</name><desc>Söödakoht · Elmar käib söömas</desc><type>Söödakoht</type><sym>Food Source</sym><extensions><gpxx:WaypointExtension><gpxx:SymbolColor>Green</gpxx:SymbolColor><gpxx:SymbolStyle>1</gpxx:SymbolStyle></gpxx:WaypointExtension></extensions></wpt><wpt lat="58.677842182" lon="24.869226847"><name>Paane kelder</name><desc>Kõrvalhoone</desc><type>Kõrvalhoone</type><sym>Building</sym><extensions><gpxx:WaypointExtension><gpxx:SymbolColor>Gray</gpxx:SymbolColor><gpxx:SymbolStyle>1</gpxx:SymbolStyle></gpxx:WaypointExtension></extensions></wpt><wpt lat="58.622904087" lon="24.807861398"><name>Rail baltica ökodukt</name><desc>Sild / ületuskoht</desc><type>Sild / ületuskoht</type><sym>Bridge</sym><extensions><gpxx:WaypointExtension><gpxx:SymbolColor>Blue</gpxx:SymbolColor><gpxx:SymbolStyle>1</gpxx:SymbolStyle></gpxx:WaypointExtension></extensions></wpt><wpt lat="58.655685575" lon="24.941269283"><name>Eieri laut</name><desc>Kõrvalhoone</desc><type>Kõrvalhoone</type><sym>Building</sym><extensions><gpxx:WaypointExtension><gpxx:SymbolColor>Gray</gpxx:SymbolColor><gpxx:SymbolStyle>1</gpxx:SymbolStyle></gpxx:WaypointExtension></extensions></wpt><wpt lat="58.600113654" lon="24.873929563"><name>Tõhu tipp</name><desc>Orientiir</desc><type>Orientiir</type><sym>Flag, Blue</sym><extensions><gpxx:WaypointExtension><gpxx:SymbolColor>Blue</gpxx:SymbolColor><gpxx:SymbolStyle>1</gpxx:SymbolStyle></gpxx:WaypointExtension></extensions></wpt><wpt lat="58.603461202" lon="24.904870775"><name>Villu maja / Võiga</name><desc>Maja</desc><type>Maja</type><sym>Residence</sym><extensions><gpxx:WaypointExtension><gpxx:SymbolColor>Blue</gpxx:SymbolColor><gpxx:SymbolStyle>1</gpxx:SymbolStyle></gpxx:WaypointExtension></extensions></wpt><wpt lat="58.580909124" lon="24.936009822"><name>Kiisa S-kurv</name><desc>Orientiir</desc><type>Orientiir</type><sym>Flag, Blue</sym><extensions><gpxx:WaypointExtension><gpxx:SymbolColor>Blue</gpxx:SymbolColor><gpxx:SymbolStyle>1</gpxx:SymbolStyle></gpxx:WaypointExtension></extensions></wpt><wpt lat="58.61559527" lon="24.93874106"><name>Aluste lauda pumbajaam</name><desc>Kõrvalhoone</desc><type>Kõrvalhoone</type><sym>Building</sym><extensions><gpxx:WaypointExtension><gpxx:SymbolColor>Gray</gpxx:SymbolColor><gpxx:SymbolStyle>1</gpxx:SymbolStyle></gpxx:WaypointExtension></extensions></wpt><wpt lat="58.627094243" lon="24.960621255"><name>Massu meierei</name><desc>Kõrvalhoone</desc><type>Kõrvalhoone</type><sym>Building</sym><extensions><gpxx:WaypointExtension><gpxx:SymbolColor>Gray</gpxx:SymbolColor><gpxx:SymbolStyle>1</gpxx:SymbolStyle></gpxx:WaypointExtension></extensions></wpt><wpt lat="58.626388127" lon="24.901750908"><name>Asko purre üle sauga jõe</name><desc>Sild / ületuskoht</desc><type>Sild / ületuskoht</type><sym>Bridge</sym><extensions><gpxx:WaypointExtension><gpxx:SymbolColor>Blue</gpxx:SymbolColor><gpxx:SymbolStyle>1</gpxx:SymbolStyle></gpxx:WaypointExtension></extensions></wpt><wpt lat="58.646401908" lon="24.913297321"><name>Roosi talu / karpo maja</name><desc>Maja</desc><type>Maja</type><sym>Residence</sym><extensions><gpxx:WaypointExtension><gpxx:SymbolColor>Blue</gpxx:SymbolColor><gpxx:SymbolStyle>1</gpxx:SymbolStyle></gpxx:WaypointExtension></extensions></wpt><wpt lat="58.644760795" lon="24.872921148"><name>Ärni vana maja</name><desc>Maja</desc><type>Maja</type><sym>Residence</sym><extensions><gpxx:WaypointExtension><gpxx:SymbolColor>Blue</gpxx:SymbolColor><gpxx:SymbolStyle>1</gpxx:SymbolStyle></gpxx:WaypointExtension></extensions></wpt><wpt lat="58.644725532" lon="24.87105556"><name>Kõrviku maja</name><desc>Maja</desc><type>Maja</type><sym>Residence</sym><extensions><gpxx:WaypointExtension><gpxx:SymbolColor>Blue</gpxx:SymbolColor><gpxx:SymbolStyle>1</gpxx:SymbolStyle></gpxx:WaypointExtension></extensions></wpt><wpt lat="58.64710922" lon="24.862210686"><name>Viluvere koolimaja</name><desc>Maja</desc><type>Maja</type><sym>Residence</sym><extensions><gpxx:WaypointExtension><gpxx:SymbolColor>Blue</gpxx:SymbolColor><gpxx:SymbolStyle>1</gpxx:SymbolStyle></gpxx:WaypointExtension></extensions></wpt><wpt lat="58.650276588" lon="24.842466274"><name>Viluvere kultuurimaja</name><desc>Maja</desc><type>Maja</type><sym>Residence</sym><extensions><gpxx:WaypointExtension><gpxx:SymbolColor>Blue</gpxx:SymbolColor><gpxx:SymbolStyle>1</gpxx:SymbolStyle></gpxx:WaypointExtension></extensions></wpt><wpt lat="58.648140237" lon="24.892774274"><name>Hirve kraavi raudteesild</name><desc>Sild / ületuskoht</desc><type>Sild / ületuskoht</type><sym>Bridge</sym><extensions><gpxx:WaypointExtension><gpxx:SymbolColor>Blue</gpxx:SymbolColor><gpxx:SymbolStyle>1</gpxx:SymbolStyle></gpxx:WaypointExtension></extensions></wpt><wpt lat="58.649321835" lon="24.921086728"><name>Sauga jõe raudteesild</name><desc>Sild / ületuskoht</desc><type>Sild / ületuskoht</type><sym>Bridge</sym><extensions><gpxx:WaypointExtension><gpxx:SymbolColor>Blue</gpxx:SymbolColor><gpxx:SymbolStyle>1</gpxx:SymbolStyle></gpxx:WaypointExtension></extensions></wpt><wpt lat="58.648128686" lon="24.958157995"><name>Massu jõe raudteesild</name><desc>Sild / ületuskoht</desc><type>Sild / ületuskoht</type><sym>Bridge</sym><extensions><gpxx:WaypointExtension><gpxx:SymbolColor>Blue</gpxx:SymbolColor><gpxx:SymbolStyle>1</gpxx:SymbolStyle></gpxx:WaypointExtension></extensions></wpt><wpt lat="58.651859211" lon="24.957843763"><name>Sõnajala maja</name><desc>Maja</desc><type>Maja</type><sym>Residence</sym><extensions><gpxx:WaypointExtension><gpxx:SymbolColor>Blue</gpxx:SymbolColor><gpxx:SymbolStyle>1</gpxx:SymbolStyle></gpxx:WaypointExtension></extensions></wpt><wpt lat="58.637384614" lon="24.928625188"><name>Pärnjõe saun</name><desc>Kõrvalhoone</desc><type>Kõrvalhoone</type><sym>Building</sym><extensions><gpxx:WaypointExtension><gpxx:SymbolColor>Gray</gpxx:SymbolColor><gpxx:SymbolStyle>1</gpxx:SymbolStyle></gpxx:WaypointExtension></extensions></wpt><wpt lat="58.637013149" lon="24.930060373"><name>Villu kuivati / talumeeste kuivati</name><desc>Kõrvalhoone</desc><type>Kõrvalhoone</type><sym>Building</sym><extensions><gpxx:WaypointExtension><gpxx:SymbolColor>Gray</gpxx:SymbolColor><gpxx:SymbolStyle>1</gpxx:SymbolStyle></gpxx:WaypointExtension></extensions></wpt><wpt lat="58.632818777" lon="24.933759622"><name>Punane küün</name><desc>Kõrvalhoone</desc><type>Kõrvalhoone</type><sym>Building</sym><extensions><gpxx:WaypointExtension><gpxx:SymbolColor>Gray</gpxx:SymbolColor><gpxx:SymbolStyle>1</gpxx:SymbolStyle></gpxx:WaypointExtension></extensions></wpt><wpt lat="58.634578773" lon="24.943526809"><name>Ärnitsa maja</name><desc>Maja</desc><type>Maja</type><sym>Residence</sym><extensions><gpxx:WaypointExtension><gpxx:SymbolColor>Blue</gpxx:SymbolColor><gpxx:SymbolStyle>1</gpxx:SymbolStyle></gpxx:WaypointExtension></extensions></wpt><wpt lat="58.632301836" lon="24.940347233"><name>Luige hannese maja</name><desc>Maja</desc><type>Maja</type><sym>Residence</sym><extensions><gpxx:WaypointExtension><gpxx:SymbolColor>Blue</gpxx:SymbolColor><gpxx:SymbolStyle>1</gpxx:SymbolStyle></gpxx:WaypointExtension></extensions></wpt><wpt lat="58.639543902" lon="24.949192367"><name>Karulava</name><desc>Orientiir</desc><type>Orientiir</type><sym>Flag, Blue</sym><extensions><gpxx:WaypointExtension><gpxx:SymbolColor>Blue</gpxx:SymbolColor><gpxx:SymbolStyle>1</gpxx:SymbolStyle></gpxx:WaypointExtension></extensions></wpt><wpt lat="58.647628749" lon="24.935743538"><name>Luuri väetiseküün</name><desc>Kõrvalhoone</desc><type>Kõrvalhoone</type><sym>Building</sym><extensions><gpxx:WaypointExtension><gpxx:SymbolColor>Gray</gpxx:SymbolColor><gpxx:SymbolStyle>1</gpxx:SymbolStyle></gpxx:WaypointExtension></extensions></wpt><wpt lat="58.649193121" lon="24.933740295"><name>Luuri raudteejaam</name><desc>Orientiir</desc><type>Orientiir</type><sym>Flag, Blue</sym><extensions><gpxx:WaypointExtension><gpxx:SymbolColor>Blue</gpxx:SymbolColor><gpxx:SymbolStyle>1</gpxx:SymbolStyle></gpxx:WaypointExtension></extensions></wpt><wpt lat="58.650359197" lon="24.930404215"><name>Gelenitsa maja</name><desc>Maja</desc><type>Maja</type><sym>Residence</sym><extensions><gpxx:WaypointExtension><gpxx:SymbolColor>Blue</gpxx:SymbolColor><gpxx:SymbolStyle>1</gpxx:SymbolStyle></gpxx:WaypointExtension></extensions></wpt><wpt lat="58.654697964" lon="24.930733569"><name>Pärtli aare / loti maja</name><desc>Maja</desc><type>Maja</type><sym>Residence</sym><extensions><gpxx:WaypointExtension><gpxx:SymbolColor>Blue</gpxx:SymbolColor><gpxx:SymbolStyle>1</gpxx:SymbolStyle></gpxx:WaypointExtension></extensions></wpt><wpt lat="58.662781861" lon="24.940410294"><name>Kirnasoo</name><desc>Orientiir</desc><type>Orientiir</type><sym>Flag, Blue</sym><extensions><gpxx:WaypointExtension><gpxx:SymbolColor>Blue</gpxx:SymbolColor><gpxx:SymbolStyle>1</gpxx:SymbolStyle></gpxx:WaypointExtension></extensions></wpt><wpt lat="58.664029893" lon="24.950362258"><name>Luuri prügimägi</name><desc>Orientiir</desc><type>Orientiir</type><sym>Flag, Blue</sym><extensions><gpxx:WaypointExtension><gpxx:SymbolColor>Blue</gpxx:SymbolColor><gpxx:SymbolStyle>1</gpxx:SymbolStyle></gpxx:WaypointExtension></extensions></wpt><wpt lat="58.679853392" lon="24.965389511"><name>Leili talukoht</name><desc>Maja</desc><type>Maja</type><sym>Residence</sym><extensions><gpxx:WaypointExtension><gpxx:SymbolColor>Blue</gpxx:SymbolColor><gpxx:SymbolStyle>1</gpxx:SymbolStyle></gpxx:WaypointExtension></extensions></wpt><wpt lat="58.64490591" lon="24.902816436"><name>Rosina tiik</name><desc>Orientiir</desc><type>Orientiir</type><sym>Flag, Blue</sym><extensions><gpxx:WaypointExtension><gpxx:SymbolColor>Blue</gpxx:SymbolColor><gpxx:SymbolStyle>1</gpxx:SymbolStyle></gpxx:WaypointExtension></extensions></wpt><wpt lat="58.625925596" lon="24.83414764"><name>Ärni maja</name><desc>Maja</desc><type>Maja</type><sym>Residence</sym><extensions><gpxx:WaypointExtension><gpxx:SymbolColor>Blue</gpxx:SymbolColor><gpxx:SymbolStyle>1</gpxx:SymbolStyle></gpxx:WaypointExtension></extensions></wpt><wpt lat="58.618386764" lon="24.913794377"><name>Aadamsoo karli maja</name><desc>Maja</desc><type>Maja</type><sym>Residence</sym><extensions><gpxx:WaypointExtension><gpxx:SymbolColor>Blue</gpxx:SymbolColor><gpxx:SymbolStyle>1</gpxx:SymbolStyle></gpxx:WaypointExtension></extensions></wpt><wpt lat="58.615602266" lon="24.921364865"><name>Aluste kuivati</name><desc>Kõrvalhoone</desc><type>Kõrvalhoone</type><sym>Building</sym><extensions><gpxx:WaypointExtension><gpxx:SymbolColor>Gray</gpxx:SymbolColor><gpxx:SymbolStyle>1</gpxx:SymbolStyle></gpxx:WaypointExtension></extensions></wpt><wpt lat="58.611614677" lon="24.914481561"><name>Aluste mürgikuur</name><desc>Kõrvalhoone</desc><type>Kõrvalhoone</type><sym>Building</sym><extensions><gpxx:WaypointExtension><gpxx:SymbolColor>Gray</gpxx:SymbolColor><gpxx:SymbolStyle>1</gpxx:SymbolStyle></gpxx:WaypointExtension></extensions></wpt><wpt lat="58.600274805" lon="24.901731965"><name>Laua gunnari maja / varese maja</name><desc>Maja</desc><type>Maja</type><sym>Residence</sym><extensions><gpxx:WaypointExtension><gpxx:SymbolColor>Blue</gpxx:SymbolColor><gpxx:SymbolStyle>1</gpxx:SymbolStyle></gpxx:WaypointExtension></extensions></wpt><wpt lat="58.616828807" lon="24.883732055"><name>Manguse soo teine jahipukk</name><desc>Jahitorn</desc><type>Jahitorn</type><sym>Hunting Area</sym><extensions><gpxx:WaypointExtension><gpxx:SymbolColor>Orange</gpxx:SymbolColor><gpxx:SymbolStyle>1</gpxx:SymbolStyle></gpxx:WaypointExtension></extensions></wpt><wpt lat="58.616838556" lon="24.886737403"><name>Manguse soo esimene jahipukk</name><desc>Jahitorn</desc><type>Jahitorn</type><sym>Hunting Area</sym><extensions><gpxx:WaypointExtension><gpxx:SymbolColor>Orange</gpxx:SymbolColor><gpxx:SymbolStyle>1</gpxx:SymbolStyle></gpxx:WaypointExtension></extensions></wpt><wpt lat="58.622933669" lon="24.872154282"><name>Tõhu binokkel</name><desc>Orientiir</desc><type>Orientiir</type><sym>Flag, Blue</sym><extensions><gpxx:WaypointExtension><gpxx:SymbolColor>Blue</gpxx:SymbolColor><gpxx:SymbolStyle>1</gpxx:SymbolStyle></gpxx:WaypointExtension></extensions></wpt><wpt lat="58.664530664" lon="24.826472111"><name>Riima soolakivi</name><desc>Soolakivi</desc><type>Soolakivi</type><sym>Forest</sym><extensions><gpxx:WaypointExtension><gpxx:SymbolColor>Green</gpxx:SymbolColor><gpxx:SymbolStyle>1</gpxx:SymbolStyle></gpxx:WaypointExtension></extensions></wpt><wpt lat="58.672736117" lon="24.905352109"><name>Rahingu pikenduse tiik</name><desc>Orientiir</desc><type>Orientiir</type><sym>Flag, Blue</sym><extensions><gpxx:WaypointExtension><gpxx:SymbolColor>Blue</gpxx:SymbolColor><gpxx:SymbolStyle>1</gpxx:SymbolStyle></gpxx:WaypointExtension></extensions></wpt><wpt lat="58.649919152" lon="24.832063305"><name>Raini vanemate maja</name><desc>Maja</desc><type>Maja</type><sym>Residence</sym><extensions><gpxx:WaypointExtension><gpxx:SymbolColor>Blue</gpxx:SymbolColor><gpxx:SymbolStyle>1</gpxx:SymbolStyle></gpxx:WaypointExtension></extensions></wpt><wpt lat="58.631107535" lon="24.815372576"><name>Anti maja</name><desc>Maja</desc><type>Maja</type><sym>Residence</sym><extensions><gpxx:WaypointExtension><gpxx:SymbolColor>Blue</gpxx:SymbolColor><gpxx:SymbolStyle>1</gpxx:SymbolStyle></gpxx:WaypointExtension></extensions></wpt><wpt lat="58.617852257" lon="24.830002378"><name>Oja lohk</name><desc>Orientiir</desc><type>Orientiir</type><sym>Flag, Blue</sym><extensions><gpxx:WaypointExtension><gpxx:SymbolColor>Blue</gpxx:SymbolColor><gpxx:SymbolStyle>1</gpxx:SymbolStyle></gpxx:WaypointExtension></extensions></wpt><wpt lat="58.61651926" lon="24.838267259"><name>Oja raudteeülesõit</name><desc>Sild / ületuskoht</desc><type>Sild / ületuskoht</type><sym>Bridge</sym><extensions><gpxx:WaypointExtension><gpxx:SymbolColor>Blue</gpxx:SymbolColor><gpxx:SymbolStyle>1</gpxx:SymbolStyle></gpxx:WaypointExtension></extensions></wpt><wpt lat="58.623639645" lon="24.856247615"><name>Linnameeste soolakivi</name><desc>Soolakivi</desc><type>Soolakivi</type><sym>Forest</sym><extensions><gpxx:WaypointExtension><gpxx:SymbolColor>Green</gpxx:SymbolColor><gpxx:SymbolStyle>1</gpxx:SymbolStyle></gpxx:WaypointExtension></extensions></wpt><wpt lat="58.591232107" lon="24.913514761"><name>Nikolai maja</name><desc>Maja</desc><type>Maja</type><sym>Residence</sym><extensions><gpxx:WaypointExtension><gpxx:SymbolColor>Blue</gpxx:SymbolColor><gpxx:SymbolStyle>1</gpxx:SymbolStyle></gpxx:WaypointExtension></extensions></wpt><wpt lat="58.591992107" lon="24.922502748"><name>Nikolai puka koht</name><desc>Jahitorn</desc><type>Jahitorn</type><sym>Hunting Area</sym><extensions><gpxx:WaypointExtension><gpxx:SymbolColor>Orange</gpxx:SymbolColor><gpxx:SymbolStyle>1</gpxx:SymbolStyle></gpxx:WaypointExtension></extensions></wpt><wpt lat="58.582912485" lon="24.946147748"><name>Villu saeraam</name><desc>Orientiir</desc><type>Orientiir</type><sym>Flag, Blue</sym><extensions><gpxx:WaypointExtension><gpxx:SymbolColor>Blue</gpxx:SymbolColor><gpxx:SymbolStyle>1</gpxx:SymbolStyle></gpxx:WaypointExtension></extensions></wpt><wpt lat="58.59017337" lon="24.953817613"><name>Männa lohk</name><desc>Orientiir</desc><type>Orientiir</type><sym>Flag, Blue</sym><extensions><gpxx:WaypointExtension><gpxx:SymbolColor>Blue</gpxx:SymbolColor><gpxx:SymbolStyle>1</gpxx:SymbolStyle></gpxx:WaypointExtension></extensions></wpt><wpt lat="58.624547263" lon="24.936079179"><name>Ridaelamu</name><desc>Maja</desc><type>Maja</type><sym>Residence</sym><extensions><gpxx:WaypointExtension><gpxx:SymbolColor>Blue</gpxx:SymbolColor><gpxx:SymbolStyle>1</gpxx:SymbolStyle></gpxx:WaypointExtension></extensions></wpt><wpt lat="58.621780917" lon="24.933089051"><name>Mini-Priidud</name><desc>Orientiir</desc><type>Orientiir</type><sym>Flag, Blue</sym><extensions><gpxx:WaypointExtension><gpxx:SymbolColor>Blue</gpxx:SymbolColor><gpxx:SymbolStyle>1</gpxx:SymbolStyle></gpxx:WaypointExtension></extensions></wpt><wpt lat="58.596064803" lon="24.953149831"><name>Taksojuhi maja</name><desc>Maja</desc><type>Maja</type><sym>Residence</sym><extensions><gpxx:WaypointExtension><gpxx:SymbolColor>Blue</gpxx:SymbolColor><gpxx:SymbolStyle>1</gpxx:SymbolStyle></gpxx:WaypointExtension></extensions></wpt><wpt lat="58.579587958" lon="24.946106395"><name>Vana jahimaja</name><desc>Jahimaja</desc><type>Jahimaja</type><sym>Lodge</sym><extensions><gpxx:WaypointExtension><gpxx:SymbolColor>Red</gpxx:SymbolColor><gpxx:SymbolStyle>1</gpxx:SymbolStyle></gpxx:WaypointExtension></extensions></wpt><wpt lat="58.586785018" lon="24.915585576"><name>Silveri kask</name><desc>Orientiir · Silver sõitis autoga kase pihta</desc><type>Orientiir</type><sym>Flag, Blue</sym><extensions><gpxx:WaypointExtension><gpxx:SymbolColor>Blue</gpxx:SymbolColor><gpxx:SymbolStyle>1</gpxx:SymbolStyle></gpxx:WaypointExtension></extensions></wpt><wpt lat="58.647430621" lon="24.876355094"><name>Kogunemiskoht</name><desc>Kogunemiskoht · Jahi kogunemiskoht</desc><type>Kogunemiskoht</type><sym>Meeting Point</sym><extensions><gpxx:WaypointExtension><gpxx:SymbolColor>Red</gpxx:SymbolColor><gpxx:SymbolStyle>1</gpxx:SymbolStyle></gpxx:WaypointExtension></extensions></wpt><wpt lat="58.667735909" lon="24.863740038"><name>Jahimaja</name><desc>Jahimaja · Pärnjõe Jahiselts · Jahimaja</desc><type>Jahimaja</type><sym>Lodge</sym><extensions><gpxx:WaypointExtension><gpxx:SymbolColor>Red</gpxx:SymbolColor><gpxx:SymbolStyle>1</gpxx:SymbolStyle></gpxx:WaypointExtension></extensions></wpt><trk><name>Hirve kraav</name><desc>Siht</desc><trkseg><trkpt lat="58.688139828" lon="24.868451541" /><trkpt lat="58.687270541" lon="24.87054237" /><trkpt lat="58.686944552" lon="24.87360892" /><trkpt lat="58.68636501" lon="24.874445252" /><trkpt lat="58.683648277" lon="24.874863418" /><trkpt lat="58.679337292" lon="24.882529792" /><trkpt lat="58.672344393" lon="24.902253283" /><trkpt lat="58.670315103" lon="24.903438086" /><trkpt lat="58.668938018" lon="24.906434942" /><trkpt lat="58.667742084" lon="24.908386383" /><trkpt lat="58.665893741" lon="24.909780269" /><trkpt lat="58.662776707" lon="24.915007342" /><trkpt lat="58.65984064" lon="24.914449788" /><trkpt lat="58.653133883" lon="24.902183589" /><trkpt lat="58.64918173" lon="24.8934718" /><trkpt lat="58.644902749" lon="24.89138097" /><trkpt lat="58.643053196" lon="24.89040525" /><trkpt lat="58.642037714" lon="24.889359835" /></trkseg></trk><trk><name>Vana aluste kruusakarjäär</name><desc>Ala</desc><trkseg><trkpt lat="58.621518513" lon="24.922608376" /><trkpt lat="58.617035768" lon="24.921198961" /><trkpt lat="58.616900105" lon="24.921897746" /><trkpt lat="58.617442753" lon="24.922857095" /><trkpt lat="58.618787005" lon="24.92367432" /><trkpt lat="58.620562818" lon="24.924704731" /><trkpt lat="58.621518513" lon="24.922608376" /></trkseg></trk><trk><name>Massu karjäär</name><desc>Ala</desc><trkseg><trkpt lat="58.633553976" lon="24.954686233" /><trkpt lat="58.631092721" lon="24.950230613" /><trkpt lat="58.630356685" lon="24.950276234" /><trkpt lat="58.629399024" lon="24.957864473" /><trkpt lat="58.629034948" lon="24.958518369" /><trkpt lat="58.629707695" lon="24.959111437" /><trkpt lat="58.630681176" lon="24.957818851" /><trkpt lat="58.631686287" lon="24.955978819" /><trkpt lat="58.633553976" lon="24.954686233" /></trkseg></trk><trk><name>Tamme väli</name><desc>Ala</desc><trkseg><trkpt lat="58.62810146" lon="24.94888972" /><trkpt lat="58.625532884" lon="24.948017108" /><trkpt lat="58.61860932" lon="24.952560719" /><trkpt lat="58.617606699" lon="24.952380179" /><trkpt lat="58.615147023" lon="24.953974955" /><trkpt lat="58.613251231" lon="24.955208653" /><trkpt lat="58.612284386" lon="24.970133274" /><trkpt lat="58.614167977" lon="24.970359357" /><trkpt lat="58.619465031" lon="24.967307201" /><trkpt lat="58.621318811" lon="24.963689822" /><trkpt lat="58.627173753" lon="24.959789845" /><trkpt lat="58.626908979" lon="24.954702913" /><trkpt lat="58.62810146" lon="24.94888972" /></trkseg></trk><trk><name>Karpo mets</name><desc>Ala</desc><trkseg><trkpt lat="58.641139309" lon="24.909895073" /><trkpt lat="58.641918366" lon="24.907782349" /><trkpt lat="58.643380386" lon="24.909997632" /><trkpt lat="58.643230986" lon="24.911341161" /><trkpt lat="58.642622705" lon="24.911679605" /><trkpt lat="58.641139309" lon="24.909895073" /></trkseg></trk><trk><name>Rabasiht</name><desc>Siht</desc><trkseg><trkpt lat="58.682913849" lon="24.868771695" /><trkpt lat="58.682899888" lon="24.864043466" /></trkseg></trk><trk><name>Verekivi siht</name><desc>Siht</desc><trkseg><trkpt lat="58.65539679" lon="24.871548922" /><trkpt lat="58.655973871" lon="24.907109376" /></trkseg></trk><trk><name>Miti mets</name><desc>Ala</desc><trkseg><trkpt lat="58.647440228" lon="24.939818368" /><trkpt lat="58.644316303" lon="24.939481504" /><trkpt lat="58.644743002" lon="24.946702154" /><trkpt lat="58.642975216" lon="24.946790033" /><trkpt lat="58.643036176" lon="24.952253122" /><trkpt lat="58.646899275" lon="24.952751097" /><trkpt lat="58.647440228" lon="24.939818368" /></trkseg></trk><trk><name>Nõelasilm</name><desc>Ala</desc><trkseg><trkpt lat="58.612662714" lon="24.830273665" /><trkpt lat="58.610197939" lon="24.830273665" /><trkpt lat="58.611350841" lon="24.833174709" /><trkpt lat="58.615763315" lon="24.851268049" /><trkpt lat="58.619420079" lon="24.865620561" /><trkpt lat="58.622996977" lon="24.871957048" /><trkpt lat="58.633447378" lon="24.871346301" /><trkpt lat="58.633089812" lon="24.856688409" /><trkpt lat="58.619340589" lon="24.843557382" /><trkpt lat="58.612662714" lon="24.830273665" /></trkseg></trk><trk><name>Saapasoo kraav</name><desc>Kraav</desc><trkseg><trkpt lat="58.681113341" lon="24.834916776" /><trkpt lat="58.671721279" lon="24.839636506" /><trkpt lat="58.670015483" lon="24.839501656" /><trkpt lat="58.662653904" lon="24.832309686" /><trkpt lat="58.660669468" lon="24.83084422" /><trkpt lat="58.658508093" lon="24.831294914" /><trkpt lat="58.657801712" lon="24.831269874" /><trkpt lat="58.648995439" lon="24.81866015" /><trkpt lat="58.62668318" lon="24.804178468" /></trkseg></trk><trk><name>Ussama</name><desc>Ala</desc><trkseg><trkpt lat="58.658389495" lon="24.831021476" /><trkpt lat="58.663081941" lon="24.815191318" /><trkpt lat="58.644029873" lon="24.807467419" /><trkpt lat="58.636589188" lon="24.797984622" /><trkpt lat="58.631534982" lon="24.797602251" /><trkpt lat="58.629226521" lon="24.805784989" /><trkpt lat="58.64892315" lon="24.818479711" /><trkpt lat="58.658389495" lon="24.831021476" /></trkseg></trk><trk><name>Viluvere koolimaja tagune</name><desc>Ala</desc><trkseg><trkpt lat="58.64449957" lon="24.8671777" /><trkpt lat="58.64449957" lon="24.859377436" /><trkpt lat="58.648362587" lon="24.859190237" /><trkpt lat="58.650861958" lon="24.852825214" /><trkpt lat="58.645765648" lon="24.849018691" /><trkpt lat="58.63313528" lon="24.850204327" /><trkpt lat="58.63313528" lon="24.856444539" /><trkpt lat="58.64449957" lon="24.8671777" /></trkseg></trk><trk><name>Aadamsoo karli siht</name><desc>Siht</desc><trkseg><trkpt lat="58.618420635" lon="24.913496051" /><trkpt lat="58.619170983" lon="24.908926818" /><trkpt lat="58.618817832" lon="24.893118369" /></trkseg></trk><trk><name>Aluste soo</name><desc>Ala</desc><trkseg><trkpt lat="58.603521847" lon="24.877821602" /><trkpt lat="58.599609282" lon="24.896709615" /><trkpt lat="58.600634948" lon="24.897001317" /><trkpt lat="58.600786896" lon="24.902324969" /><trkpt lat="58.603939671" lon="24.905971304" /><trkpt lat="58.621673469" lon="24.916253974" /><trkpt lat="58.620838245" lon="24.894667665" /><trkpt lat="58.603521847" lon="24.877821602" /></trkseg></trk><trk><name>Manguse soo</name><desc>Ala</desc><trkseg><trkpt lat="58.599900772" lon="24.873960784" /><trkpt lat="58.623141637" lon="24.872137616" /><trkpt lat="58.628493962" lon="24.883076622" /><trkpt lat="58.628797615" lon="24.901745852" /><trkpt lat="58.625950761" lon="24.90145415" /><trkpt lat="58.620142461" lon="24.893650995" /><trkpt lat="58.599900772" lon="24.873960784" /></trkseg></trk><trk><name>Manguse soo siht</name><desc>Siht</desc><trkseg><trkpt lat="58.616804026" lon="24.87267131" /><trkpt lat="58.616841389" lon="24.890755418" /></trkseg></trk><trk><name>Vana koksi tee</name><desc>Siht</desc><trkseg><trkpt lat="58.667196039" lon="24.860123534" /><trkpt lat="58.677456413" lon="24.857825438" /></trkseg></trk><trk><name>Rahingu tee pikendus</name><desc>Siht</desc><trkseg><trkpt lat="58.672331857" lon="24.902282539" /><trkpt lat="58.672605982" lon="24.916570972" /></trkseg></trk><trk><name>Rahingu tee</name><desc>Siht</desc><trkseg><trkpt lat="58.671978333" lon="24.870040534" /><trkpt lat="58.672340158" lon="24.901837217" /></trkseg></trk><trk><name>Uue tee pikendus</name><desc>Siht</desc><trkseg><trkpt lat="58.661690145" lon="24.914880774" /><trkpt lat="58.661966583" lon="24.922988093" /></trkseg></trk><trk><name>Uus tee</name><desc>Siht</desc><trkseg><trkpt lat="58.660712699" lon="24.870567865" /><trkpt lat="58.661626917" lon="24.914626808" /></trkseg></trk><trk><name>Pärtli aare siht</name><desc>Siht</desc><trkseg><trkpt lat="58.655962116" lon="24.907514273" /><trkpt lat="58.656165748" lon="24.923735551" /></trkseg></trk><trk><name>Vana raudtee</name><desc>Siht</desc><trkseg><trkpt lat="58.645254014" lon="24.868456428" /><trkpt lat="58.646841344" lon="24.871064782" /><trkpt lat="58.647378974" lon="24.873525496" /><trkpt lat="58.647455778" lon="24.876478353" /><trkpt lat="58.649299008" lon="24.921017279" /><trkpt lat="58.649452607" lon="24.924757559" /><trkpt lat="58.64904301" lon="24.936322915" /><trkpt lat="58.6480958" lon="24.958321696" /></trkseg></trk><trk><name>Keeru siht</name><desc>Siht</desc><trkseg><trkpt lat="58.647058069" lon="24.817238006" /><trkpt lat="58.647411218" lon="24.826690012" /></trkseg></trk><trk><name>Via baltica</name><desc>Siht</desc><trkseg><trkpt lat="58.635140877" lon="24.809753717" /><trkpt lat="58.635047276" lon="24.815124122" /><trkpt lat="58.627157154" lon="24.831646471" /><trkpt lat="58.626528542" lon="24.833907695" /></trkseg></trk><trk><name>Naima siht</name><desc>Siht</desc><trkseg><trkpt lat="58.636694902" lon="24.839265442" /><trkpt lat="58.637867152" lon="24.831740565" /><trkpt lat="58.643256577" lon="24.822473823" /><trkpt lat="58.643111581" lon="24.814856048" /></trkseg></trk><trk><name>Hobuseraud</name><desc>Siht</desc><trkseg><trkpt lat="58.621318028" lon="24.800777459" /><trkpt lat="58.621164392" lon="24.813636248" /><trkpt lat="58.625828027" lon="24.813804888" /><trkpt lat="58.626563179" lon="24.811992009" /><trkpt lat="58.62671679" lon="24.804276737" /></trkseg></trk><trk><name>Punase männiku siht</name><desc>Siht</desc><trkseg><trkpt lat="58.633364903" lon="24.871406277" /><trkpt lat="58.634054374" lon="24.904398054" /></trkseg></trk><trk><name>Gaasitrass</name><desc>Siht</desc><trkseg><trkpt lat="58.62090664" lon="24.894629964" /><trkpt lat="58.621937917" lon="24.918401925" /><trkpt lat="58.621449421" lon="24.923693272" /></trkseg></trk><trk><name>Tõhu kraav</name><desc>Kraav</desc><trkseg><trkpt lat="58.600024618" lon="24.873660626" /><trkpt lat="58.623101854" lon="24.872226785" /></trkseg></trk><trk><name>Filtri põllud</name><desc>Ala</desc><trkseg><trkpt lat="58.603494325" lon="24.87752611" /><trkpt lat="58.601607556" lon="24.875459656" /><trkpt lat="58.597466439" lon="24.895151741" /><trkpt lat="58.599467407" lon="24.896391611" /><trkpt lat="58.603494325" lon="24.87752611" /></trkseg></trk><trk><name>Aluste karjatee</name><desc>Siht</desc><trkseg><trkpt lat="58.61780045" lon="24.939172477" /><trkpt lat="58.619493316" lon="24.951924291" /></trkseg></trk><trk><name>Pilli siht</name><desc>Siht</desc><trkseg><trkpt lat="58.612262613" lon="24.94065841" /><trkpt lat="58.613157663" lon="24.953092244" /><trkpt lat="58.612170597" lon="24.970136555" /></trkseg></trk><trk><name>Kirbu mets</name><desc>Ala</desc><trkseg><trkpt lat="58.592932797" lon="24.924132376" /><trkpt lat="58.594360554" lon="24.923496915" /><trkpt lat="58.594195019" lon="24.921550815" /><trkpt lat="58.595912398" lon="24.920895495" /><trkpt lat="58.597919347" lon="24.923238759" /><trkpt lat="58.598240034" lon="24.928143723" /><trkpt lat="58.595384778" lon="24.929077056" /><trkpt lat="58.595498579" lon="24.93088415" /><trkpt lat="58.593532876" lon="24.931559326" /><trkpt lat="58.592932797" lon="24.924132376" /></trkseg></trk><trk><name>Kiisa mets</name><desc>Ala</desc><trkseg><trkpt lat="58.591271541" lon="24.922798422" /><trkpt lat="58.588610675" lon="24.923712583" /><trkpt lat="58.588807782" lon="24.91649385" /><trkpt lat="58.586885932" lon="24.915926437" /><trkpt lat="58.584898265" lon="24.919740705" /><trkpt lat="58.584159022" lon="24.922010351" /><trkpt lat="58.584175449" lon="24.924941978" /><trkpt lat="58.584766845" lon="24.924847408" /><trkpt lat="58.58499683" lon="24.926234412" /><trkpt lat="58.585440367" lon="24.926423551" /><trkpt lat="58.585637493" lon="24.934808634" /><trkpt lat="58.582516202" lon="24.935565181" /><trkpt lat="58.582598345" lon="24.942657825" /><trkpt lat="58.58473399" lon="24.94272087" /><trkpt lat="58.587707249" lon="24.940924068" /><trkpt lat="58.588758506" lon="24.935817365" /><trkpt lat="58.592371963" lon="24.93477711" /><trkpt lat="58.591271541" lon="24.922798422" /></trkseg></trk><trk><name>Veversoni ringtee</name><desc>Metsatee · Vaatlusring</desc><trkseg><trkpt lat="58.638712998" lon="24.905802014" /><trkpt lat="58.63396859" lon="24.904600141" /><trkpt lat="58.633253457" lon="24.871305504" /><trkpt lat="58.644495348" lon="24.870665328" /></trkseg></trk><trk><name>JAHIALA PIIR - PÄRNJÕE</name><desc>Ametlik EELIS JAH1000125 piir; Garminile lihtsustatud umbes 12 m</desc><type>Hunting Area</type><extensions><gpxx:TrackExtension xmlns:gpxx="http://www.garmin.com/xmlschemas/GpxExtensions/v3"><gpxx:DisplayColor>Red</gpxx:DisplayColor></gpxx:TrackExtension></extensions><trkseg><trkpt lat="58.61944878" lon="24.79934122"></trkpt><trkpt lat="58.62921745" lon="24.80585021"></trkpt><trkpt lat="58.63035305" lon="24.80295564"></trkpt><trkpt lat="58.63139240" lon="24.79736300"></trkpt><trkpt lat="58.63673530" lon="24.79774131"></trkpt><trkpt lat="58.64402089" lon="24.80757107"></trkpt><trkpt lat="58.66231074" lon="24.81420273"></trkpt><trkpt lat="58.67238877" lon="24.82497344"></trkpt><trkpt lat="58.68584233" lon="24.84028917"></trkpt><trkpt lat="58.69841588" lon="24.86517394"></trkpt><trkpt lat="58.68871770" lon="24.88318113"></trkpt><trkpt lat="58.69639746" lon="24.90799629"></trkpt><trkpt lat="58.68649440" lon="24.90947697"></trkpt><trkpt lat="58.68233722" lon="24.91314713"></trkpt><trkpt lat="58.68212971" lon="24.91558454"></trkpt><trkpt lat="58.67789927" lon="24.91218365"></trkpt><trkpt lat="58.67752832" lon="24.91754406"></trkpt><trkpt lat="58.67264066" lon="24.91671385"></trkpt><trkpt lat="58.67069670" lon="24.91736750"></trkpt><trkpt lat="58.67001038" lon="24.91775172"></trkpt><trkpt lat="58.66494517" lon="24.92408787"></trkpt><trkpt lat="58.66245924" lon="24.92343174"></trkpt><trkpt lat="58.66216580" lon="24.92311310"></trkpt><trkpt lat="58.66127969" lon="24.93121811"></trkpt><trkpt lat="58.66465660" lon="24.93768883"></trkpt><trkpt lat="58.66385236" lon="24.94605585"></trkpt><trkpt lat="58.68285060" lon="24.95385634"></trkpt><trkpt lat="58.68304863" lon="24.95520877"></trkpt><trkpt lat="58.68278046" lon="24.95690233"></trkpt><trkpt lat="58.68299652" lon="24.95822389"></trkpt><trkpt lat="58.68229052" lon="24.95963713"></trkpt><trkpt lat="58.68126550" lon="24.96018542"></trkpt><trkpt lat="58.68076724" lon="24.96342778"></trkpt><trkpt lat="58.68015986" lon="24.96436415"></trkpt><trkpt lat="58.67964504" lon="24.96444981"></trkpt><trkpt lat="58.67961722" lon="24.96558477"></trkpt><trkpt lat="58.67912767" lon="24.96606490"></trkpt><trkpt lat="58.67861993" lon="24.96758320"></trkpt><trkpt lat="58.67793481" lon="24.96778679"></trkpt><trkpt lat="58.67795734" lon="24.96874333"></trkpt><trkpt lat="58.67718152" lon="24.96994021"></trkpt><trkpt lat="58.67644521" lon="24.97042766"></trkpt><trkpt lat="58.67611402" lon="24.97099198"></trkpt><trkpt lat="58.67501700" lon="24.97142656"></trkpt><trkpt lat="58.67459211" lon="24.97140904"></trkpt><trkpt lat="58.67392449" lon="24.97067149"></trkpt><trkpt lat="58.67360298" lon="24.97073959"></trkpt><trkpt lat="58.67276345" lon="24.97190883"></trkpt><trkpt lat="58.67141864" lon="24.97229080"></trkpt><trkpt lat="58.67079054" lon="24.97379676"></trkpt><trkpt lat="58.67035935" lon="24.97402438"></trkpt><trkpt lat="58.67002362" lon="24.97341878"></trkpt><trkpt lat="58.66982309" lon="24.97202959"></trkpt><trkpt lat="58.66933925" lon="24.97194766"></trkpt><trkpt lat="58.66914082" lon="24.97224738"></trkpt><trkpt lat="58.66723091" lon="24.97189472"></trkpt><trkpt lat="58.66687961" lon="24.97217020"></trkpt><trkpt lat="58.66694120" lon="24.97050602"></trkpt><trkpt lat="58.66673042" lon="24.97027767"></trkpt><trkpt lat="58.66599294" lon="24.97052532"></trkpt><trkpt lat="58.66575836" lon="24.96891857"></trkpt><trkpt lat="58.66595214" lon="24.96844473"></trkpt><trkpt lat="58.66566648" lon="24.96809452"></trkpt><trkpt lat="58.66492440" lon="24.96836205"></trkpt><trkpt lat="58.66464898" lon="24.96783529"></trkpt><trkpt lat="58.66420028" lon="24.96782286"></trkpt><trkpt lat="58.66407806" lon="24.96846410"></trkpt><trkpt lat="58.66366034" lon="24.96769096"></trkpt><trkpt lat="58.66342675" lon="24.96832055"></trkpt><trkpt lat="58.66301419" lon="24.96844317"></trkpt><trkpt lat="58.66270283" lon="24.96795252"></trkpt><trkpt lat="58.66271389" lon="24.96707434"></trkpt><trkpt lat="58.66254149" lon="24.96687848"></trkpt><trkpt lat="58.66233189" lon="24.96728339"></trkpt><trkpt lat="58.66210156" lon="24.96708307"></trkpt><trkpt lat="58.66186028" lon="24.96794630"></trkpt><trkpt lat="58.66074034" lon="24.96885931"></trkpt><trkpt lat="58.66081530" lon="24.96916656"></trkpt><trkpt lat="58.66061064" lon="24.96950598"></trkpt><trkpt lat="58.66022161" lon="24.96946382"></trkpt><trkpt lat="58.65956410" lon="24.97073467"></trkpt><trkpt lat="58.65831583" lon="24.97112492"></trkpt><trkpt lat="58.65803708" lon="24.97084340"></trkpt><trkpt lat="58.65823333" lon="24.96905789"></trkpt><trkpt lat="58.65781533" lon="24.96891511"></trkpt><trkpt lat="58.65744599" lon="24.96941535"></trkpt><trkpt lat="58.65709281" lon="24.96855858"></trkpt><trkpt lat="58.65733940" lon="24.96778117"></trkpt><trkpt lat="58.65731242" lon="24.96721862"></trkpt><trkpt lat="58.65798998" lon="24.96643886"></trkpt><trkpt lat="58.65798192" lon="24.96573139"></trkpt><trkpt lat="58.65766262" lon="24.96510943"></trkpt><trkpt lat="58.65744116" lon="24.96511472"></trkpt><trkpt lat="58.65723668" lon="24.96562809"></trkpt><trkpt lat="58.65700877" lon="24.96490886"></trkpt><trkpt lat="58.65708268" lon="24.96436621"></trkpt><trkpt lat="58.65651006" lon="24.96403387"></trkpt><trkpt lat="58.65642360" lon="24.96367218"></trkpt><trkpt lat="58.65590450" lon="24.96492400"></trkpt><trkpt lat="58.65493960" lon="24.96399056"></trkpt><trkpt lat="58.65457086" lon="24.96401746"></trkpt><trkpt lat="58.65410722" lon="24.96322051"></trkpt><trkpt lat="58.65423624" lon="24.96226310"></trkpt><trkpt lat="58.65407677" lon="24.96172833"></trkpt><trkpt lat="58.65321902" lon="24.96156786"></trkpt><trkpt lat="58.65308824" lon="24.96117077"></trkpt><trkpt lat="58.65263806" lon="24.96115839"></trkpt><trkpt lat="58.65213046" lon="24.96067396"></trkpt><trkpt lat="58.65172251" lon="24.95998128"></trkpt><trkpt lat="58.65157848" lon="24.95916756"></trkpt><trkpt lat="58.65113048" lon="24.95886159"></trkpt><trkpt lat="58.65060328" lon="24.95961125"></trkpt><trkpt lat="58.64992043" lon="24.95811561"></trkpt><trkpt lat="58.64938203" lon="24.95797540"></trkpt><trkpt lat="58.64888287" lon="24.95735444"></trkpt><trkpt lat="58.64828441" lon="24.95809643"></trkpt><trkpt lat="58.64753422" lon="24.95845790"></trkpt><trkpt lat="58.64568060" lon="24.95812486"></trkpt><trkpt lat="58.64520657" lon="24.95931775"></trkpt><trkpt lat="58.64419629" lon="24.95948388"></trkpt><trkpt lat="58.64382713" lon="24.96115849"></trkpt><trkpt lat="58.64335111" lon="24.96102283"></trkpt><trkpt lat="58.64243320" lon="24.95996285"></trkpt><trkpt lat="58.64151454" lon="24.96059609"></trkpt><trkpt lat="58.64073648" lon="24.95951436"></trkpt><trkpt lat="58.64038904" lon="24.96007206"></trkpt><trkpt lat="58.64001787" lon="24.95982529"></trkpt><trkpt lat="58.63959803" lon="24.96052635"></trkpt><trkpt lat="58.63887932" lon="24.96065197"></trkpt><trkpt lat="58.63908386" lon="24.96290932"></trkpt><trkpt lat="58.63857782" lon="24.96321176"></trkpt><trkpt lat="58.63765892" lon="24.96446903"></trkpt><trkpt lat="58.63709739" lon="24.96444214"></trkpt><trkpt lat="58.63671788" lon="24.96233400"></trkpt><trkpt lat="58.63613735" lon="24.96285954"></trkpt><trkpt lat="58.63549279" lon="24.96260809"></trkpt><trkpt lat="58.63370574" lon="24.96370455"></trkpt><trkpt lat="58.63340605" lon="24.96403542"></trkpt><trkpt lat="58.63316295" lon="24.96533963"></trkpt><trkpt lat="58.63295377" lon="24.96549060"></trkpt><trkpt lat="58.63229389" lon="24.96530140"></trkpt><trkpt lat="58.63210750" lon="24.96459237"></trkpt><trkpt lat="58.63184266" lon="24.96443689"></trkpt><trkpt lat="58.63096850" lon="24.96547285"></trkpt><trkpt lat="58.62933070" lon="24.96410548"></trkpt><trkpt lat="58.62899712" lon="24.96459494"></trkpt><trkpt lat="58.62855281" lon="24.96459123"></trkpt><trkpt lat="58.62829877" lon="24.96537352"></trkpt><trkpt lat="58.62776048" lon="24.96601117"></trkpt><trkpt lat="58.62642315" lon="24.96539869"></trkpt><trkpt lat="58.62548326" lon="24.96548957"></trkpt><trkpt lat="58.62505468" lon="24.96616153"></trkpt><trkpt lat="58.62445144" lon="24.96575170"></trkpt><trkpt lat="58.62329819" lon="24.96674836"></trkpt><trkpt lat="58.62268889" lon="24.96635261"></trkpt><trkpt lat="58.62188410" lon="24.96804256"></trkpt><trkpt lat="58.62143761" lon="24.96773678"></trkpt><trkpt lat="58.62109313" lon="24.96789533"></trkpt><trkpt lat="58.62093002" lon="24.96725553"></trkpt><trkpt lat="58.62067821" lon="24.96773856"></trkpt><trkpt lat="58.62062120" lon="24.96879674"></trkpt><trkpt lat="58.62031612" lon="24.96865724"></trkpt><trkpt lat="58.62006793" lon="24.96964459"></trkpt><trkpt lat="58.61932096" lon="24.97016513"></trkpt><trkpt lat="58.61903039" lon="24.96967850"></trkpt><trkpt lat="58.61851533" lon="24.97038493"></trkpt><trkpt lat="58.61806075" lon="24.97036378"></trkpt><trkpt lat="58.61705765" lon="24.97134718"></trkpt><trkpt lat="58.61706902" lon="24.97180895"></trkpt><trkpt lat="58.61687057" lon="24.97171798"></trkpt><trkpt lat="58.61688881" lon="24.97087819"></trkpt><trkpt lat="58.61655897" lon="24.97106558"></trkpt><trkpt lat="58.61642729" lon="24.97079132"></trkpt><trkpt lat="58.61619011" lon="24.97091007"></trkpt><trkpt lat="58.61614655" lon="24.97156116"></trkpt><trkpt lat="58.61537722" lon="24.97149992"></trkpt><trkpt lat="58.61520231" lon="24.97242362"></trkpt><trkpt lat="58.61500580" lon="24.97246943"></trkpt><trkpt lat="58.61465552" lon="24.97359048"></trkpt><trkpt lat="58.61453746" lon="24.97465815"></trkpt><trkpt lat="58.61487485" lon="24.97504353"></trkpt><trkpt lat="58.61487962" lon="24.97539400"></trkpt><trkpt lat="58.61459529" lon="24.97565382"></trkpt><trkpt lat="58.61431163" lon="24.97660863"></trkpt><trkpt lat="58.61336144" lon="24.97629444"></trkpt><trkpt lat="58.61318923" lon="24.97705295"></trkpt><trkpt lat="58.61287425" lon="24.97704416"></trkpt><trkpt lat="58.61269404" lon="24.97807301"></trkpt><trkpt lat="58.61124317" lon="24.97754545"></trkpt><trkpt lat="58.61045217" lon="24.97681706"></trkpt><trkpt lat="58.60976249" lon="24.97742150"></trkpt><trkpt lat="58.60865382" lon="24.97566761"></trkpt><trkpt lat="58.60853360" lon="24.97486403"></trkpt><trkpt lat="58.60876735" lon="24.97421838"></trkpt><trkpt lat="58.60979154" lon="24.97418139"></trkpt><trkpt lat="58.60994965" lon="24.97371304"></trkpt><trkpt lat="58.60801082" lon="24.96853028"></trkpt><trkpt lat="58.60690740" lon="24.96803842"></trkpt><trkpt lat="58.60683975" lon="24.96932370"></trkpt><trkpt lat="58.60646952" lon="24.96954695"></trkpt><trkpt lat="58.60573793" lon="24.96842183"></trkpt><trkpt lat="58.60486768" lon="24.96775137"></trkpt><trkpt lat="58.60219585" lon="24.96615136"></trkpt><trkpt lat="58.60145623" lon="24.96609109"></trkpt><trkpt lat="58.60099501" lon="24.96497650"></trkpt><trkpt lat="58.59997244" lon="24.96479742"></trkpt><trkpt lat="58.59912015" lon="24.96390843"></trkpt><trkpt lat="58.59895353" lon="24.96353658"></trkpt><trkpt lat="58.59905685" lon="24.96244047"></trkpt><trkpt lat="58.59891920" lon="24.96196977"></trkpt><trkpt lat="58.59671690" lon="24.95937558"></trkpt><trkpt lat="58.59544694" lon="24.95948881"></trkpt><trkpt lat="58.59424382" lon="24.95701628"></trkpt><trkpt lat="58.59259416" lon="24.95762874"></trkpt><trkpt lat="58.59187301" lon="24.95588692"></trkpt><trkpt lat="58.59111418" lon="24.95501229"></trkpt><trkpt lat="58.59073263" lon="24.95496204"></trkpt><trkpt lat="58.58967471" lon="24.95573868"></trkpt><trkpt lat="58.58835429" lon="24.95444464"></trkpt><trkpt lat="58.58708458" lon="24.95632259"></trkpt><trkpt lat="58.58612572" lon="24.95516940"></trkpt><trkpt lat="58.58461569" lon="24.95419194"></trkpt><trkpt lat="58.58396156" lon="24.95402613"></trkpt><trkpt lat="58.58327900" lon="24.95428642"></trkpt><trkpt lat="58.58274555" lon="24.95267830"></trkpt><trkpt lat="58.58175996" lon="24.95211936"></trkpt><trkpt lat="58.58174506" lon="24.95051972"></trkpt><trkpt lat="58.58121320" lon="24.95029756"></trkpt><trkpt lat="58.58058897" lon="24.95090949"></trkpt><trkpt lat="58.57970296" lon="24.95014847"></trkpt><trkpt lat="58.57952184" lon="24.94952040"></trkpt><trkpt lat="58.57971714" lon="24.94762494"></trkpt><trkpt lat="58.57913890" lon="24.94643699"></trkpt><trkpt lat="58.57831479" lon="24.94614442"></trkpt><trkpt lat="58.57825600" lon="24.94565343"></trkpt><trkpt lat="58.57870333" lon="24.94443916"></trkpt><trkpt lat="58.57917414" lon="24.94042561"></trkpt><trkpt lat="58.57969822" lon="24.93785317"></trkpt><trkpt lat="58.58104560" lon="24.93547622"></trkpt><trkpt lat="58.58067602" lon="24.92536192"></trkpt><trkpt lat="58.57944059" lon="24.91735360"></trkpt><trkpt lat="58.57946133" lon="24.91632126"></trkpt><trkpt lat="58.58127495" lon="24.90786619"></trkpt><trkpt lat="58.58273563" lon="24.90641007"></trkpt><trkpt lat="58.58588749" lon="24.89647115"></trkpt><trkpt lat="58.59207585" lon="24.90066580"></trkpt><trkpt lat="58.59848852" lon="24.90801362"></trkpt><trkpt lat="58.59955814" lon="24.90574665"></trkpt><trkpt lat="58.60035710" lon="24.90329034"></trkpt><trkpt lat="58.60058071" lon="24.90234517"></trkpt><trkpt lat="58.60040227" lon="24.89918029"></trkpt><trkpt lat="58.60072800" lon="24.89701345"></trkpt><trkpt lat="58.59952493" lon="24.89649579"></trkpt><trkpt lat="58.60344021" lon="24.87762137"></trkpt><trkpt lat="58.59966487" lon="24.87358929"></trkpt><trkpt lat="58.60889471" lon="24.83055640"></trkpt><trkpt lat="58.61633854" lon="24.83005801"></trkpt><trkpt lat="58.61616135" lon="24.81712234"></trkpt><trkpt lat="58.61946857" lon="24.81699732"></trkpt><trkpt lat="58.61944878" lon="24.79934122"></trkpt></trkseg></trk></gpx>